id,name,theme,address,address_detail,lat,lng,description,main_menu,opening_hours,closed,phone,theme_category
KCLANPO23N000019135,삼사석지,유적지,제주특별자치도 제주시 화북일동  1380-1,정보없음,33.52102968,126.5738739,정보없음,정보없음,정보없음,정보없음,정보없음,역사/문화형
KCLANPO23N000019199,제주모슬포알뜨르비행장일제지하벙커,유적지,제주특별자치도 서귀포시 대정읍 상모리 1670,정보없음,33.20431892,126.2715847,정보없음,정보없음,정보없음,정보없음,정보없음,역사/문화형
KCLANPO23N000019281,무병장수테마파크,체험마을,제주특별자치도 제주시 애월읍 어음리 476,어음13길 196-11,33.3953304,126.3603837,정보없음,정보없음,정보없음,정보없음,정보없음,액티비티형
KCLANPO23N000019290,제주마테마파크,테마파크,제주특별자치도 서귀포시 성산읍 난산리 260451,서성일로 500-8,33.41785147,126.8419583,정보없음,정보없음,정보없음,정보없음,정보없음,액티비티형
KCLANPO23N000019293,참귀한농장,체험마을,제주특별자치도 서귀포시 성산읍 온평리 2454,정보없음,33.40280314,126.8838855,정보없음,정보없음,정보없음,정보없음,정보없음,액티비티형
KCLANPO23N000019297,서귀포치유의숲,산,제주특별자치도 서귀포시 호근동  산1,산록남로 2271,33.29199078,126.5269492,정보없음,정보없음,정보없음,정보없음,정보없음,자연/경치형
KCLANPO23N000019302,제주민속마을,체험마을,제주특별자치도 제주시 구좌읍 행원리 3503,월덕로 474,33.50978368,126.7707914,정보없음,정보없음,정보없음,정보없음,정보없음,액티비티형
KCLANPO23N000020310,로봇스퀘어,테마파크,제주특별자치도 제주시 구좌읍 한동리 1294,해맞이해안로 1032,33.53998487,126.8308968,정보없음,정보없음,정보없음,정보없음,정보없음,액티비티형
KCLANPO23N000020341,중문미로파크,테마파크,제주특별자치도 서귀포시 상예동  620974,정보없음,33.26317797,126.3814838,정보없음,정보없음,정보없음,정보없음,정보없음,액티비티형
KCLANPO23N000020550,알프스얼음보석궁전테마파크뮤지엄,테마파크,제주특별자치도 제주시 한경면 청수리 958,연명로 147,33.29124336,126.2491127,정보없음,정보없음,정보없음,정보없음,정보없음,액티비티형
KCLANPO23N000020638,수목원길,공원,제주특별자치도 제주시 연동  1327,정보없음,33.47119857,126.4881139,정보없음,정보없음,정보없음,정보없음,정보없음,자연/경치형
KCLANPO23N000020651,제주신화월드,테마파크,제주특별자치도 서귀포시 안덕면 서광리 산24,신화역사로304번길 38,33.30425179,126.3176726,정보없음,정보없음,정보없음,정보없음,정보없음,액티비티형
KCLANPO23N000020732,오라메밀꽃밭,공원,제주특별자치도 제주시 오라이동  산76,정보없음,33.42715043,126.5057508,정보없음,정보없음,정보없음,정보없음,정보없음,자연/경치형
KCLANPO23N000021171,번개레이싱,스포츠시설,제주특별자치도 서귀포시 안덕면 서광리 산39,녹차분재로 218,33.30465482,126.2999354,정보없음,정보없음,정보없음,정보없음,정보없음,액티비티형
KCLANPO23N000021400,제주불빛정원,공원,제주특별자치도 제주시 애월읍 유수암리 1083,평화로 2346,33.42168511,126.409489,정보없음,정보없음,정보없음,정보없음,정보없음,자연/경치형
KCLANPO23N000021401,황우지해안,바다,제주특별자치도 서귀포시 서홍동  765-1,남성로 92,33.24161287,126.5506016,정보없음,정보없음,정보없음,정보없음,정보없음,자연/경치형
KCLANPO23N000021403,봉봉감귤체험농장,체험마을,제주특별자치도 서귀포시 남원읍 신례리 720-1,중산간동로7141번길 16,33.28162578,126.6298205,정보없음,정보없음,정보없음,정보없음,정보없음,액티비티형
KCLANPO23N000021408,예래로벚꽃길,공원,제주특별자치도 서귀포시 하예동  293,예래로 234,33.24402814,126.3886459,정보없음,정보없음,정보없음,정보없음,정보없음,자연/경치형
KCLANPO23N000021573,화조원,테마파크,제주특별자치도 제주시 애월읍 납읍리 58,애원로 804,33.41059307,126.3722595,정보없음,정보없음,정보없음,정보없음,정보없음,액티비티형
KCLANPO23N000021695,로맨틱메이즈,공원,제주특별자치도 서귀포시 법환동  877,법환상로2번길 97-13,33.24720044,126.5125947,정보없음,정보없음,정보없음,정보없음,정보없음,자연/경치형
KCLANPO23N000022098,남원큰엉해변,바다,제주특별자치도 서귀포시 남원읍 남원리 175012,태위로 522-17,33.27296019,126.7033674,정보없음,정보없음,정보없음,정보없음,정보없음,자연/경치형
KCLANPO23N000022101,알작지해변,바다,제주특별자치도 제주시 내도동  ,정보없음,33.49594287,126.4395065,정보없음,정보없음,정보없음,정보없음,정보없음,자연/경치형
KCLANPO23N000022102,엉알해안,바다,제주특별자치도 제주시 한경면 고산리 ,정보없음,33.29957904,126.1674029,정보없음,정보없음,정보없음,정보없음,정보없음,자연/경치형
KCLANPO23N000022105,종달리해변,바다,제주특별자치도 제주시 구좌읍 종달리 ,정보없음,33.49588816,126.9096139,정보없음,정보없음,정보없음,정보없음,정보없음,자연/경치형
KCLANPO23N000022217,후포해변,바다,제주특별자치도 제주시 추자면 대서리 ,정보없음,33.96258466,126.289257,정보없음,정보없음,정보없음,정보없음,정보없음,자연/경치형
KCLANPO23N000022218,신대해안,바다,제주특별자치도 제주시 추자면 예초리 ,정보없음,33.95266159,126.3381699,정보없음,정보없음,정보없음,정보없음,정보없음,자연/경치형
KCLANPO23N000022464,중문오프로드체험장,스포츠시설,제주특별자치도 서귀포시 상예동  150,상예로 349,33.27585833,126.3968692,정보없음,정보없음,정보없음,정보없음,정보없음,액티비티형
KCLANPO23N000022715,빠빠유기농블루베리,체험마을,제주특별자치도 제주시 애월읍 봉성리 712,정보없음,33.39693307,126.3322699,정보없음,정보없음,정보없음,정보없음,정보없음,액티비티형
KCLANPO23N000022863,이시돌농장,체험마을,제주특별자치도 제주시 한림읍 금악리 583-1,금악북로 268-22,33.35230443,126.31296,정보없음,정보없음,정보없음,정보없음,정보없음,액티비티형
KCLANPO23N000022865,제주왕감귤체험농장,체험마을,제주특별자치도 서귀포시 남원읍 남원리 1151-1,남위남성로 10월 14일,33.28377654,126.7072774,정보없음,정보없음,정보없음,정보없음,정보없음,액티비티형
KCLANPO23N000022970,새미동산,체험마을,제주특별자치도 제주시 조천읍 와흘리 95362,종인내길 135,33.49486016,126.6228924,정보없음,정보없음,정보없음,정보없음,정보없음,액티비티형
KCLANPO23N000023162,낭만농장귤밭76번지,체험마을,제주특별자치도 서귀포시 안덕면 상창리 906,병악로 76,33.28306291,126.365207,정보없음,정보없음,정보없음,정보없음,정보없음,액티비티형
KCLANPO23N000023327,비자림,공원,제주특별자치도 제주시 구좌읍 평대리 산15,정보없음,33.4878984,126.8082044,정보없음,정보없음,정보없음,정보없음,정보없음,자연/경치형
KCLANPO23N000023500,도련뜰블루베리,체험마을,제주특별자치도 제주시 도련일동  1019-2,정보없음,33.5005674,126.5923949,정보없음,정보없음,정보없음,정보없음,정보없음,액티비티형
KCLANPO23N000023647,자연치유정원,공원,제주특별자치도 서귀포시 대포동  1161,이어도로 293-28,33.24684066,126.448569,정보없음,정보없음,정보없음,정보없음,정보없음,자연/경치형
KCLANPO23N000024393,우도봉,산,제주특별자치도 제주시 우도면 연평리 산37,정보없음,33.4922263,126.9641251,정보없음,정보없음,정보없음,정보없음,정보없음,자연/경치형
KCLANPO23N000024413,따라비승마장,체험마을,제주특별자치도 서귀포시 표선면 가시리 3149-16,녹산로 381-17,33.38305876,126.7357907,정보없음,정보없음,정보없음,정보없음,정보없음,액티비티형
KCLANPO23N000024437,제주동백마을,공원,제주특별자치도 서귀포시 남원읍 신흥리 1759-2,한신로531번길 1월 22일,33.32047032,126.7451296,정보없음,정보없음,정보없음,정보없음,정보없음,자연/경치형
KCLANPO23N000024496,무오법정사,사찰,제주특별자치도 서귀포시 도순동  산1,1100로 740-168,33.32309046,126.4802325,정보없음,정보없음,정보없음,정보없음,정보없음,역사/문화형
KCLANPO23N000024639,돈내코원앙폭포,폭포/계곡,제주특별자치도 서귀포시 상효동  1463,돈내코로 137,33.30049679,126.5820042,정보없음,정보없음,정보없음,정보없음,정보없음,자연/경치형
KCLANPO23N000024745,제주키위비자림농원,체험마을,제주특별자치도 제주시 구좌읍 평대리 2850,비자림로동3길 77-81,33.50104334,126.8120724,정보없음,정보없음,정보없음,정보없음,정보없음,액티비티형
KCLANPO23N000024834,고마워토토,체험마을,제주특별자치도 제주시 애월읍 상귀리 152,고성북길 112,33.46981422,126.413086,정보없음,정보없음,정보없음,정보없음,정보없음,액티비티형
KCLANPO23N000025197,연동연대,유적지,제주특별자치도 서귀포시 서호동  25628,이어도로1066번길 45,33.24256789,126.52375,정보없음,정보없음,정보없음,정보없음,정보없음,역사/문화형
KCLANPO23N000025303,우도동대공원,공원,제주특별자치도 제주시 우도면 연평리 317-1,정보없음,33.49729366,126.9683793,정보없음,정보없음,정보없음,정보없음,정보없음,자연/경치형
KCLANPO23N000025331,한라산탐방로4,산,제주특별자치도 제주시 노형동  산20,1100로 2528-171,33.40692748,126.4980569,정보없음,정보없음,정보없음,정보없음,정보없음,자연/경치형
KCLANPO23N000027340,플레이토피아,스포츠시설,제주특별자치도 서귀포시 색달동  333194,중문관광로72번길 35,33.24855967,126.4105842,정보없음,정보없음,정보없음,정보없음,정보없음,액티비티형
KCLANPO23N000027658,제주보타리자연농원,체험마을,제주특별자치도 제주시 애월읍 봉성리 1300,정보없음,33.39824117,126.3258454,정보없음,정보없음,정보없음,정보없음,정보없음,액티비티형
KCLANPO23N000028968,한담해안산책로,바다,제주특별자치도 제주시 애월읍 곽지리 1359,정보없음,33.45911457,126.3105926,정보없음,정보없음,정보없음,정보없음,정보없음,자연/경치형
KCLANPO23N000030012,귤밭에콘테나,체험마을,제주특별자치도 제주시 조천읍 와산리 851-2,정보없음,33.49850776,126.6791841,정보없음,정보없음,정보없음,정보없음,정보없음,액티비티형
KCLANPO23N000030257,9.81파크,스포츠시설,제주특별자치도 제주시 애월읍 어음리 3916,천덕로 880-24,33.39001744,126.3662926,정보없음,정보없음,정보없음,정보없음,정보없음,액티비티형
KCLANPO23N000030261,서프라이즈테마파크,촬영지,제주특별자치도 제주시 조천읍 와흘리 2988,남조로 2243,33.46527964,126.6596289,정보없음,정보없음,정보없음,정보없음,정보없음,역사/문화형
KCLANPO23N000030262,고흐의정원,미술관,제주특별자치도 서귀포시 성산읍 삼달리 1182,삼달신풍로 132,33.3733994,126.8437259,정보없음,정보없음,정보없음,정보없음,정보없음,역사/문화형
KCLANPO23N000031268,왕복짚라인,스포츠시설,제주특별자치도 제주시 해안동  2109,해안마을북길 5월 14일,33.46486375,126.4534146,정보없음,정보없음,정보없음,정보없음,정보없음,액티비티형
KCLANPO23N000033866,소길리녹색농촌체험휴양마을,체험마을,제주특별자치도 제주시 애월읍 소길리 650-1,소길1길 15,33.44005419,126.379859,정보없음,정보없음,정보없음,정보없음,정보없음,액티비티형
KCLANPO23N000033867,동광리농촌체험마을,체험마을,제주특별자치도 서귀포시 안덕면 동광리 976,동광로 107,33.30667486,126.33705,정보없음,정보없음,정보없음,정보없음,정보없음,액티비티형
KCLANPO23N000034428,뽀로로&타요테마파크,테마파크,제주특별자치도 서귀포시 안덕면 상창리 79,병악로 269,33.30048422,126.3708118,정보없음,정보없음,정보없음,정보없음,정보없음,액티비티형
KCLANPO23N000034734,서중천탐방로,산,제주특별자치도 서귀포시 남원읍 한남리 1656,남한로420번길 64-23,33.31055189,126.7043906,정보없음,정보없음,정보없음,정보없음,정보없음,자연/경치형
KCLANPO23N000035440,녹산로유채꽃도로,드라이브,제주특별자치도 서귀포시 표선면 가시리 산87-15,정보없음,33.39770803,126.7202046,정보없음,정보없음,정보없음,정보없음,정보없음,자연/경치형
KCLANPO23N000035443,오라CC벚꽃길,드라이브,제주특별자치도 제주시 오라이동  264-1,정보없음,33.45443783,126.5125533,정보없음,정보없음,정보없음,정보없음,정보없음,자연/경치형
KCLANPO23N000035495,주간명월,바다,제주특별자치도 제주시 우도면 연평리 산25,정보없음,33.49161473,126.961887,정보없음,정보없음,정보없음,정보없음,정보없음,자연/경치형
KCLANPO23N000035505,지질트레일,산,제주특별자치도 서귀포시 성산읍 오조리 24838,오조로 30,33.45667446,126.9149233,정보없음,정보없음,정보없음,정보없음,정보없음,자연/경치형
KCLANPO23N000036514,걸세악감귤체험농장,체험마을,제주특별자치도 서귀포시 남원읍 하례리 969,하례로 377,33.28010502,126.6207241,정보없음,정보없음,정보없음,정보없음,정보없음,액티비티형
KCLANPO23N000037117,제주동백수목원,공원,제주특별자치도 서귀포시 남원읍 위미리 927,정보없음,33.27496671,126.6780302,정보없음,정보없음,정보없음,정보없음,정보없음,자연/경치형
KCLANPO23N000038372,윈드1947카트테마파크,스포츠시설,제주특별자치도 서귀포시 토평동  1799,토평공단로 78-27,33.28958201,126.5889748,정보없음,정보없음,정보없음,정보없음,정보없음,액티비티형
KCLANPO23N000038795,제주벚꽃길,드라이브,제주특별자치도 제주시 아라일동  358-2,정보없음,33.45894809,126.5576232,정보없음,정보없음,정보없음,정보없음,정보없음,자연/경치형
KCLANPO23N000038866,도두동무지개해안도로,드라이브,제주특별자치도 제주시 도두일동  1734,정보없음,33.50954339,126.4731505,정보없음,정보없음,정보없음,정보없음,정보없음,자연/경치형
KCLANPO23N000039448,고상돈로,드라이브,제주특별자치도 서귀포시 색달동  산1-2,정보없음,33.35812477,126.4630226,정보없음,정보없음,정보없음,정보없음,정보없음,자연/경치형
KCLANPO23N000039449,헌마공신김만일로,기념관,제주특별자치도 서귀포시 남원읍 한남리 1002-1,정보없음,33.33556052,126.6887042,정보없음,정보없음,정보없음,정보없음,정보없음,역사/문화형
KCLANPO23N000039450,호국영웅강승우로,유적지,제주특별자치도 서귀포시 성산읍 시흥리 271102,정보없음,33.47842079,126.9075203,정보없음,정보없음,정보없음,정보없음,정보없음,역사/문화형
KCLANPO23N000039451,호국영웅김문성로,유적지,제주특별자치도 서귀포시 하효동  156-1,정보없음,33.26353799,126.615092,정보없음,정보없음,정보없음,정보없음,정보없음,역사/문화형
KCLANPO23N000039653,수월봉지질트레일,산,제주특별자치도 제주시 한경면 고산리 3760,정보없음,33.29483169,126.1633358,정보없음,정보없음,정보없음,정보없음,정보없음,자연/경치형
KCLANPO23N000039971,스누피가든,테마파크,제주특별자치도 제주시 구좌읍 송당리 147253,금백조로 930,33.4441142,126.7783667,정보없음,정보없음,정보없음,정보없음,정보없음,액티비티형
KCLANPO23N000040344,무민랜드제주,테마파크,제주특별자치도 서귀포시 안덕면 상천리 470-6,병악로 420,33.30656733,126.3818108,정보없음,정보없음,정보없음,정보없음,정보없음,액티비티형
KCLANPO23N000040406,제주도해안길,드라이브,제주특별자치도 제주시 한림읍 금능리 1600-3,정보없음,33.38825607,126.2224038,정보없음,정보없음,정보없음,정보없음,정보없음,자연/경치형
KCLANPO23N000041032,동백포레스트,공원,제주특별자치도 서귀포시 남원읍 신례리 1767,생기악로 53-38,33.30031983,126.6362025,정보없음,정보없음,정보없음,정보없음,정보없음,자연/경치형
KCLANPO23N000041341,제주탐나라공화국,테마파크,제주특별자치도 제주시 한림읍 금악리 29799,한창로 897,33.33402874,126.3260163,정보없음,정보없음,정보없음,정보없음,정보없음,액티비티형
KCLANPO23N000041365,장한철생가,고택,제주특별자치도 제주시 애월읍 애월리 2532,애월로1길 26,33.4624852,126.3099801,정보없음,정보없음,정보없음,정보없음,정보없음,역사/문화형
KCLANPO23N000041609,닭머르해안길,바다,제주특별자치도 제주시 조천읍 신촌리 132981,정보없음,33.53722414,126.6183229,정보없음,정보없음,정보없음,정보없음,정보없음,자연/경치형
KCLANPO23N000041664,닭머르해안길1코스,바다,제주특별자치도 제주시 조천읍 신촌리 148714,정보없음,33.53719527,126.6162463,정보없음,정보없음,정보없음,정보없음,정보없음,자연/경치형
KCLANPO23N000041666,한라산둘레길천아숲길,산,제주특별자치도 제주시 애월읍 봉성리 산1,정보없음,33.36510079,126.4464811,정보없음,정보없음,정보없음,정보없음,정보없음,자연/경치형
KCLANPO23N000041676,천야계곡,강,제주특별자치도 제주시 애월읍 광령리 산184,정보없음,33.39642003,126.4592744,정보없음,정보없음,정보없음,정보없음,정보없음,자연/경치형
KCLANPO23N000042385,토종흑염소목장,체험마을,제주특별자치도 서귀포시 남원읍 한남리 산14,정보없음,33.31983594,126.6584685,정보없음,정보없음,정보없음,정보없음,정보없음,액티비티형
KCLANPO23N000042475,곽지관광지,바다,제주특별자치도 제주시 애월읍 곽지리 1566,정보없음,33.44996996,126.3041395,정보없음,정보없음,정보없음,정보없음,정보없음,자연/경치형
KCLANPO23N000042489,협재관광지,바다,제주특별자치도 제주시 한림읍 협재리 2450,정보없음,33.393434,126.2385161,정보없음,정보없음,정보없음,정보없음,정보없음,자연/경치형
KCLANPO23N000042693,엉덩물계곡,강,제주특별자치도 서귀포시 색달동  542113,정보없음,33.24793077,126.4136802,정보없음,정보없음,정보없음,정보없음,정보없음,자연/경치형
KCLANPO23N000042694,우도봉수대,바다,제주특별자치도 제주시 우도면 연평리 797,우도해안길 602,33.52462742,126.9522828,정보없음,정보없음,정보없음,정보없음,정보없음,자연/경치형
KCLANPO23N000042794,송훈파크,공원,제주특별자치도 제주시 애월읍 상가리 산106,상가목장길 84,33.39301619,126.3829278,정보없음,정보없음,정보없음,정보없음,정보없음,자연/경치형
KCLANPO23N000042797,산방산유채꽃밭,공원,제주특별자치도 서귀포시 안덕면 사계리 495-2,정보없음,33.24346971,126.3056006,정보없음,정보없음,정보없음,정보없음,정보없음,자연/경치형
KCLANPO23N000043167,노형수퍼마켓2,미술관,제주특별자치도 제주시 해안동  86565,노형로 89,33.46496202,126.455131,정보없음,정보없음,정보없음,정보없음,정보없음,역사/문화형
KCLANPO23N000043260,제주전농로벚꽃거리,공원,제주특별자치도 제주시 삼도일동  1230,정보없음,33.50441962,126.5181578,정보없음,정보없음,정보없음,정보없음,정보없음,자연/경치형
KCLANPO23N000044226,산양곶자왈,산,제주특별자치도 제주시 한경면 청수리 산6,정보없음,33.29659764,126.2517684,정보없음,정보없음,정보없음,정보없음,정보없음,자연/경치형
KCLANPO23N000044227,답다니수국밭,공원,제주특별자치도 서귀포시 월평동  151-3,월평로50번길 17-34,33.24426799,126.4646764,정보없음,정보없음,정보없음,정보없음,정보없음,자연/경치형
KCLANPO23N000044376,비밀의숲,공원,제주특별자치도 제주시 구좌읍 송당리 2172,정보없음,33.45401639,126.7551569,정보없음,정보없음,정보없음,정보없음,정보없음,자연/경치형
KCLANPO23N000044389,안성리수국길,공원,제주특별자치도 서귀포시 대정읍 안성리 995-1,정보없음,33.26967524,126.2837784,정보없음,정보없음,정보없음,정보없음,정보없음,자연/경치형
KCLANPO23N000044514,캐니언파크,테마파크,제주특별자치도 제주시 연동  281-20,삼무로 51,33.49023564,126.4922242,정보없음,정보없음,정보없음,정보없음,정보없음,액티비티형
KCLANPO23N000044515,태웃개,바다,제주특별자치도 서귀포시 남원읍 위미리 25569,태위로398번길 57,33.2703513,126.6911785,정보없음,정보없음,정보없음,정보없음,정보없음,자연/경치형
KCLANPO23N000044729,신흥해수욕장,바다,제주특별자치도 제주시 조천읍 신흥리 731-13,정보없음,33.55169451,126.6486863,정보없음,정보없음,정보없음,정보없음,정보없음,자연/경치형
KCLANPO23N000045243,성읍민속마을구경하는집,체험마을,제주특별자치도 서귀포시 표선면 성읍리 594-1,성읍정의현로 94,33.39085654,126.8010889,정보없음,정보없음,정보없음,정보없음,정보없음,액티비티형
KCLANPO23N000046160,훈데르트바서파크,테마파크,제주특별자치도 제주시 우도면 연평리 1706-1,우도해안길 Dec.32,33.493205,126.9561321,정보없음,정보없음,정보없음,정보없음,정보없음,액티비티형
KCLANPO23N000046161,서광동리곶자왈생태탐방로,산,제주특별자치도 서귀포시 안덕면 서광리 산6,정보없음,33.28201893,126.3361509,정보없음,정보없음,정보없음,정보없음,정보없음,자연/경치형
KCLANPO23N000046276,한남시험림,산,제주특별자치도 서귀포시 남원읍 한남리 산3,서성로651번길 235,33.33619743,126.6470323,정보없음,정보없음,정보없음,정보없음,정보없음,자연/경치형
KCLANPO23N000046372,이호테우말등대,바다,제주특별자치도 제주시 이호일동  375-43,정보없음,33.50184912,126.4520811,정보없음,정보없음,정보없음,정보없음,정보없음,자연/경치형
KCLANPO23N000046485,상가리야자숲,공원,제주특별자치도 제주시 애월읍 상가리 536,고하상로 326,33.43944198,126.3584774,정보없음,정보없음,정보없음,정보없음,정보없음,자연/경치형
KCLANPO23N000046576,나바론절벽,바다,제주특별자치도 제주시 추자면 영흥리 산26-1,정보없음,33.95624898,126.2936081,정보없음,정보없음,정보없음,정보없음,정보없음,자연/경치형
KCLANPO23N000046670,황우지선녀탕,바다,제주특별자치도 서귀포시 서홍동  795-6,정보없음,33.2399795,126.5483319,정보없음,정보없음,정보없음,정보없음,정보없음,자연/경치형
KCLANPO23N000046947,짱구네유채꽃밭,공원,제주특별자치도 서귀포시 성산읍 수산리 1021,정보없음,33.43960456,126.8787671,정보없음,정보없음,정보없음,정보없음,정보없음,자연/경치형
KCLANPO23N000047178,제주청수리마을,체험마을,제주특별자치도 제주시 한경면 청수리 113-3,연명로 348,33.30227093,126.2590267,정보없음,정보없음,정보없음,정보없음,정보없음,액티비티형
KCLANPO23N000047413,대왕수천예래생태공원,공원,제주특별자치도 서귀포시 상예동  849,정보없음,33.24933513,126.3975336,정보없음,정보없음,정보없음,정보없음,정보없음,자연/경치형
KCLANPO23N000047415,산양큰엉곶,산,제주특별자치도 제주시 한경면 청수리 956-6,연명로 179,33.29092813,126.2506443,정보없음,정보없음,정보없음,정보없음,정보없음,자연/경치형
KCLANPO23N000047529,머체왓숲길,산,제주특별자치도 서귀포시 남원읍 한남리 1622-3,서성로 755,33.33054354,126.6738641,정보없음,정보없음,정보없음,정보없음,정보없음,자연/경치형
KCLANPO23N000047851,오저여,바다,제주특별자치도 제주시 구좌읍 행원리 1-91,정보없음,33.5611065,126.8150093,정보없음,정보없음,정보없음,정보없음,정보없음,자연/경치형
KCLANPO23N000047856,하도해녀체험마을,체험마을,제주특별자치도 제주시 구좌읍 하도리 45952,해맞이해안로 1897-27,33.52003684,126.9040565,정보없음,정보없음,정보없음,정보없음,정보없음,액티비티형
KCLANPO23N000047896,제주양떼목장,체험마을,제주특별자치도 제주시 애월읍 납읍리 114,도치돌길 289-13,33.41115857,126.3653761,정보없음,정보없음,정보없음,정보없음,정보없음,액티비티형
KCLANPO23N000048104,코난해변,바다,제주특별자치도 제주시 구좌읍 행원리 575-6,정보없음,33.55752396,126.8111767,정보없음,정보없음,정보없음,정보없음,정보없음,자연/경치형
KCLANPO23N000048339,귤의정원바령,체험마을,제주특별자치도 제주시 조천읍 선흘리 1396,선흘남3길 87,33.50538572,126.7060517,정보없음,정보없음,정보없음,정보없음,정보없음,액티비티형
KCLANPO23N000048609,제주어른이집,체험마을,제주특별자치도 제주시 구좌읍 김녕리 2540,김녕로4길 30,33.55269457,126.7439418,정보없음,정보없음,정보없음,정보없음,정보없음,액티비티형
KCLANPO23N000048610,탐라신들의고향,유적지,제주특별자치도 제주시 조천읍 선흘리 1818,선교로 474,33.46337558,126.7099651,정보없음,정보없음,정보없음,정보없음,정보없음,역사/문화형
KCLANPO23N000048612,북촌환해장성,바다,제주특별자치도 제주시 조천읍 북촌리 ,정보없음,33.55018472,126.6904397,정보없음,정보없음,정보없음,정보없음,정보없음,자연/경치형
KCLANPO23N000049375,제주올리브스탠다드,체험마을,제주특별자치도 서귀포시 대정읍 안성리 693-2,평화로89번길 99,33.26573167,126.2884865,정보없음,정보없음,정보없음,정보없음,정보없음,액티비티형
KCLANPO23N000049566,런닝맨,테마파크,제주특별자치도 서귀포시 색달동  2629,중문관광로 42,33.25494658,126.408922,정보없음,정보없음,정보없음,정보없음,정보없음,액티비티형
KCLANPO23N000050284,제주보롬왓,공원,제주특별자치도 서귀포시 표선면 성읍리 485500,번영로 2350-104,33.41355741,126.7524733,정보없음,정보없음,정보없음,정보없음,정보없음,자연/경치형
KCLANPO23N000050301,제주민속촌,체험마을,제주특별자치도 서귀포시 표선면 표선리 14611,민속해안로 631-34,33.32420476,126.8410477,정보없음,정보없음,정보없음,정보없음,정보없음,액티비티형
KCLANPO23N000050941,닭머르해안길,바다,제주특별자치도 제주시 조천읍 신촌리 4005,신촌9길 14,33.53683912,126.6173751,정보없음,정보없음,정보없음,정보없음,정보없음,자연/경치형
KCLANPO23N000050942,닭머르,바다,제주특별자치도 제주시 조천읍 신촌리 3403,정보없음,33.53648586,126.6119286,정보없음,정보없음,정보없음,정보없음,정보없음,자연/경치형
KCLANPO23N000050943,따라비오름,산,제주특별자치도 서귀포시 표선면 가시리 산63,정보없음,33.38870738,126.7528953,정보없음,정보없음,정보없음,정보없음,정보없음,자연/경치형
KCLANPO23N000051133,북촌리등명대,바다,제주특별자치도 제주시 조천읍 북촌리 1363-1,북촌7길 37,33.55123094,126.6932721,정보없음,정보없음,정보없음,정보없음,정보없음,자연/경치형
