id,name,category,theme,address,address_detail,lat,lng,tags/0,tags/1,tags/2,tags/3,description,main_menu,opening_hours,closed,phone,theme_category,tags/4
KCLANPO23N000000093,신명지,관광지,유명사적/유적지,제주특별자치도 제주시 애월읍 봉성리 500416,정보없음,33.41878956,126.3146237,유명사적,제주,서부지역,유적지,정보없음,정보없음,정보없음,정보없음,정보없음,역사/문화유산,
KCLANPO23N000000108,유어선매표소,관광지,관광안내소/매표소,제주특별자치도 제주시 구좌읍 종달리 478-10,해맞이해안로 2274,33.49726092,126.9110722,제주,관광안내소,매표소,동부지역,정보없음,정보없음,정보없음,정보없음,정보없음,관광안내소/매표소,바다 전망
KCLANPO23N000000109,동산물감귤체험농장,관광지,관광농원/허브마을,제주특별자치도 서귀포시 성산읍 수산리 1948,서성일로 809,33.43626012,126.8672266,허브마을,제주,동부지역,관광농원,정보없음,정보없음,정보없음,정보없음,정보없음,체험/레저,
KCLANPO23N000000189,제주돌마을공원,관광지,일반관광지,제주특별자치도 제주시 한림읍 금능리 368-2,금능남로 421,33.35379119,126.2536938,일반관광지,제주,서부지역,,정보없음,정보없음,정보없음,정보없음,정보없음,관광명소,
KCLANPO23N000000253,천지연폭포매표소,관광지,관광안내소/매표소,제주특별자치도 서귀포시 서홍동  666-1,남성중로 2월 15일,33.24473612,126.5596785,매표소,제주,관광안내소,,정보없음,정보없음,정보없음,정보없음,정보없음,관광안내소/매표소,
KCLANPO23N000000296,한라산어리목탐방로,관광지,관광안내소/매표소,제주특별자치도 제주시 해안동  산220-13,1100로 2070-61,33.39209963,126.4940964,매표소,제주,관광안내소,,정보없음,정보없음,정보없음,정보없음,정보없음,관광안내소/매표소,
KCLANPO23N000000354,명월대,관광지,천연기념물,제주특별자치도 제주시 한림읍 명월리 1847-3,하운당길 2,33.388753,126.2663994,천연기념물,제주,서부지역,,정보없음,정보없음,정보없음,정보없음,정보없음,자연경관,
KCLANPO23N000000368,제주관광안내소,관광지,관광안내소/매표소,제주특별자치도 제주시 용담이동  483,용두암길 15,33.51484201,126.5114212,매표소,제주,관광안내소,,정보없음,정보없음,정보없음,정보없음,정보없음,관광안내소/매표소,
KCLANPO23N000000461,제주마방목지,관광지,일반관광지,제주특별자치도 제주시 용강동  산14-34,516로 2480,33.42769728,126.603715,일반관광지,제주,,,정보없음,정보없음,정보없음,정보없음,정보없음,관광명소,
KCLANPO23N000000547,우도등대공원우도등대,관광지,일반관광지,제주특별자치도 제주시 우도면 연평리 337,우도봉길 105,33.49257948,126.9657905,일반관광지,제주,,,정보없음,정보없음,정보없음,정보없음,정보없음,관광명소,
KCLANPO23N000000561,제주드림랜드,관광지,일반관광지,제주특별자치도 제주시 애월읍 봉성리 4554,평화로 1529,33.36301766,126.3641092,일반관광지,제주,서부지역,,정보없음,정보없음,정보없음,정보없음,정보없음,관광명소,
KCLANPO23N000000562,도두항유람선,관광지,일반관광지,제주특별자치도 제주시 도두일동  268455,도두항서길 28,33.50661647,126.465123,일반관광지,제주,,,정보없음,정보없음,정보없음,정보없음,정보없음,관광명소,
KCLANPO23N000000563,해신사,관광지,천연기념물,제주특별자치도 제주시 화북일동  1622,진북길 9월 1일,33.52423321,126.5653882,천연기념물,제주,,,정보없음,정보없음,정보없음,정보없음,정보없음,자연경관,
KCLANPO23N000000619,일출랜드,관광지,유명관광지,제주특별자치도 서귀포시 성산읍 삼달리 1010,중산간동로 4150-30,33.38321007,126.8414037,동부지역,제주,유명관광지,,정보없음,정보없음,정보없음,정보없음,정보없음,관광명소,
KCLANPO23N000000621,소인국테마파크,관광지,유명관광지,제주특별자치도 서귀포시 안덕면 서광리 725,중산간서로 1878,33.29010357,126.3225065,제주,유명관광지,,,정보없음,정보없음,정보없음,정보없음,정보없음,관광명소,
KCLANPO23N000000622,제주미니랜드,관광지,일반관광지,제주특별자치도 제주시 조천읍 교래리 산56-4,비자림로 606,33.43316296,126.6739975,일반관광지,제주,,,정보없음,정보없음,정보없음,정보없음,정보없음,관광명소,
KCLANPO23N000000623,퍼시픽리솜,관광지,유명관광지,제주특별자치도 서귀포시 색달동  2950-17,중문관광로 154-17,33.24387572,126.4156193,제주,유명관광지,,,정보없음,정보없음,정보없음,정보없음,정보없음,관광명소,
KCLANPO23N000000624,도깨비공원,관광지,유명관광지,제주특별자치도 제주시 조천읍 선흘리 799519,번영로 1488,33.46336387,126.692139,제주,유명관광지,,,정보없음,정보없음,정보없음,정보없음,정보없음,관광명소,
KCLANPO23N000000654,제주공룡랜드,관광지,테마공원/대형놀이공원,제주특별자치도 제주시 애월읍 광령리 2698,광령평화2길 1,33.44174897,126.4331857,대형놀이공원,제주,서부지역,테마공원,정보없음,정보없음,정보없음,정보없음,정보없음,체험/레저,
KCLANPO23N000000678,중문색달해수욕장,관광지,해수욕장,제주특별자치도 서귀포시 색달동  ,정보없음,33.24523383,126.4101166,해수욕장,제주,,,정보없음,정보없음,정보없음,정보없음,정보없음,바다,
KCLANPO23N000000679,협재해수욕장,관광지,해수욕장,제주특별자치도 제주시 한림읍 협재리 ,정보없음,33.39399103,126.2391127,해수욕장,제주,서부지역,,정보없음,정보없음,정보없음,정보없음,정보없음,바다,
KCLANPO23N000000691,김녕해수욕장,관광지,해수욕장,제주특별자치도 제주시 구좌읍 김녕리 ,정보없음,33.55837636,126.759417,동부지역,해수욕장,제주,,정보없음,정보없음,정보없음,정보없음,정보없음,바다,
KCLANPO23N000000710,삼양해수욕장,관광지,해수욕장,제주특별자치도 제주시 삼양이동  22037,정보없음,33.52561191,126.5857531,해수욕장,제주,,,정보없음,정보없음,정보없음,정보없음,정보없음,바다,
KCLANPO23N000000724,표선해수욕장,관광지,해수욕장,제주특별자치도 서귀포시 표선면 표선리 ,정보없음,33.32738446,126.8378419,남부지역,해수욕장,제주,,정보없음,정보없음,정보없음,정보없음,정보없음,바다,
KCLANPO23N000000726,함덕해수욕장,관광지,해수욕장,제주특별자치도 제주시 조천읍 함덕리 산13,정보없음,33.54378046,126.6706558,해수욕장,제주,,,정보없음,정보없음,정보없음,정보없음,정보없음,바다,
KCLANPO23N000000733,곽지해수욕장,관광지,해수욕장,제주특별자치도 제주시 애월읍 곽지리 1565,곽지1길 31,33.45068213,126.3047789,해수욕장,제주,서부지역,,정보없음,정보없음,정보없음,정보없음,정보없음,바다,
KCLANPO23N000000734,하모해수욕장,관광지,해수욕장,제주특별자치도 서귀포시 대정읍 하모리 ,정보없음,33.21066657,126.262038,해수욕장,제주,,,정보없음,정보없음,정보없음,정보없음,정보없음,바다,
KCLANPO23N000000735,이호테우해수욕장,관광지,해수욕장,제주특별자치도 제주시 이호일동  ,정보없음,33.49797776,126.4530919,해수욕장,제주,,,정보없음,정보없음,정보없음,정보없음,정보없음,바다,
KCLANPO23N000000736,신양섭지해수욕장,관광지,해수욕장,제주특별자치도 서귀포시 성산읍 고성리 186-2,신양로122번길 16,33.43484851,126.9232803,동부지역,해수욕장,제주,,정보없음,정보없음,정보없음,정보없음,정보없음,바다,
KCLANPO23N000000739,화순금모래해수욕장,관광지,해수욕장,제주특별자치도 서귀포시 안덕면 화순리 ,정보없음,33.24001852,126.3338204,해수욕장,제주,,,정보없음,정보없음,정보없음,정보없음,정보없음,바다,
KCLANPO23N000000883,금능해수욕장,관광지,해수욕장,제주특별자치도 제주시 한림읍 금능리 2316,정보없음,33.38919776,126.233978,해수욕장,제주,서부지역,,정보없음,정보없음,정보없음,정보없음,정보없음,바다,
KCLANPO23N000000907,세화해수욕장,관광지,해수욕장,제주특별자치도 제주시 구좌읍 세화리 ,정보없음,33.52491251,126.8609529,동부지역,해수욕장,제주,,정보없음,정보없음,정보없음,정보없음,정보없음,바다,
KCLANPO23N000000932,하도해수욕장,관광지,해수욕장,제주특별자치도 제주시 구좌읍 하도리 ,정보없음,33.51324426,126.8987274,동부지역,해수욕장,제주,,정보없음,정보없음,정보없음,정보없음,정보없음,바다,
KCLANPO23N000001023,통나무집관광단지,관광지,유명관광지,제주특별자치도 제주시 조천읍 교래리 125,정보없음,33.43257333,126.7035273,제주,유명관광지,,,정보없음,정보없음,정보없음,정보없음,정보없음,관광명소,
KCLANPO23N000001051,방림원,관광지,식물원,제주특별자치도 제주시 한경면 저지리 2120-61,용금로 864,33.33733824,126.2689582,제주,식물원,,,정보없음,정보없음,정보없음,정보없음,정보없음,자연경관,
KCLANPO23N000001052,여미지식물원,관광지,유명관광지,제주특별자치도 서귀포시 색달동  213304,중문관광로 93,33.252661,126.414292,제주,유명관광지,,,정보없음,정보없음,정보없음,정보없음,정보없음,관광명소,
KCLANPO23N000001091,제주국제영어마을,관광지,영어마을,제주특별자치도 제주시 조천읍 북촌리 1199,북촌북길 1월 17일,33.54824342,126.6905783,영어마을,제주,,,정보없음,정보없음,정보없음,정보없음,정보없음,체험/레저,
KCLANPO23N000001148,한라수목원,관광지,휴양림/수목원,제주특별자치도 제주시 연동  1012,수목원길 72,33.46934973,126.4928522,휴양림,제주,수목원,,정보없음,정보없음,정보없음,정보없음,정보없음,자연경관,
KCLANPO23N000001175,절물자연휴양림,관광지,휴양림/수목원,제주특별자치도 제주시 봉개동  산78-1,명림로 584,33.43698783,126.6281103,휴양림,제주,수목원,,정보없음,정보없음,정보없음,정보없음,정보없음,자연경관,
KCLANPO23N000001200,상록수수목원,관광지,휴양림/수목원,제주특별자치도 서귀포시 대포동  1250-2,대포동서로70번길 58-18,33.24412516,126.4430434,휴양림,제주,수목원,,정보없음,정보없음,정보없음,정보없음,정보없음,자연경관,
KCLANPO23N000001253,망오름산책로,관광지,일반관광지,제주특별자치도 서귀포시 표선면 토산리 산13,정보없음,33.3217624,126.7689613,남부지역,일반관광지,제주,,정보없음,정보없음,정보없음,정보없음,정보없음,관광명소,
KCLANPO23N000001521,선녀폭포,관광지,폭포/계곡,제주특별자치도 제주시 해안동  산220-1,정보없음,33.40257868,126.4956587,폭포,계곡,제주,,정보없음,정보없음,정보없음,정보없음,정보없음,산,
KCLANPO23N000001532,소정방폭포,관광지,폭포/계곡,제주특별자치도 서귀포시 동홍동  ,정보없음,33.24499534,126.5775276,폭포,계곡,제주,,정보없음,정보없음,정보없음,정보없음,정보없음,산,
KCLANPO23N000001543,수악계곡,관광지,폭포/계곡,제주특별자치도 서귀포시 남원읍 신례리 산2-5,정보없음,33.33622971,126.6111064,남부지역,폭포,계곡,제주,정보없음,정보없음,정보없음,정보없음,정보없음,산,
KCLANPO23N000001569,안덕계곡,관광지,폭포/계곡,제주특별자치도 서귀포시 안덕면 감산리 411,정보없음,33.25689043,126.3526003,폭포,계곡,제주,,정보없음,정보없음,정보없음,정보없음,정보없음,산,
KCLANPO23N000001577,어위폭포,관광지,폭포/계곡,제주특별자치도 서귀포시 표선면 토산리 2058,정보없음,33.3202614,126.7611639,남부지역,폭포,계곡,제주,정보없음,정보없음,정보없음,정보없음,정보없음,산,
KCLANPO23N000001581,엉또폭포,관광지,폭포/계곡,제주특별자치도 서귀포시 강정동  1587,정보없음,33.26898696,126.5000129,폭포,계곡,제주,,정보없음,정보없음,정보없음,정보없음,정보없음,산,
KCLANPO23N000001671,정방폭포,관광지,폭포/계곡,제주특별자치도 서귀포시 동홍동  278,칠십리로214번길 35,33.24474972,126.5730492,폭포,계곡,제주,,정보없음,정보없음,정보없음,정보없음,정보없음,산,
KCLANPO23N000001700,천제연폭포,관광지,폭포/계곡,제주특별자치도 서귀포시 중문동  2232,천제연로 132,33.25266123,126.4183756,남부지역,폭포,계곡,제주,정보없음,정보없음,정보없음,정보없음,정보없음,산,
KCLANPO23N000001701,천지연폭포,관광지,폭포/계곡,제주특별자치도 서귀포시 서홍동  2565,분토왓로 46,33.24600072,126.5562701,폭포,계곡,제주,,정보없음,정보없음,정보없음,정보없음,정보없음,산,
KCLANPO23N000001715,탐라계곡,관광지,폭포/계곡,제주특별자치도 제주시 오라이동  산107-20,정보없음,33.4020727,126.5371057,폭포,계곡,제주,,정보없음,정보없음,정보없음,정보없음,정보없음,산,
KCLANPO23N000001770,제주청소년야영장,관광지,야영장,제주특별자치도 제주시 봉개동  234-4,명림로 387,33.45537098,126.6211201,제주,야영장,,,정보없음,정보없음,정보없음,정보없음,정보없음,체험/레저,
KCLANPO23N000001771,모구리야영장,관광지,야영장,제주특별자치도 서귀포시 성산읍 난산리 2971,서성일로 260,33.40585354,126.8207456,동부지역,제주,야영장,,정보없음,정보없음,정보없음,정보없음,정보없음,체험/레저,
KCLANPO23N000001937,고산선사유적지,관광지,유명사적/유적지,제주특별자치도 제주시 한경면 고산리 3627,정보없음,33.30551893,126.1655882,유명사적,제주,유적지,,정보없음,정보없음,정보없음,정보없음,정보없음,역사/문화유산,
KCLANPO23N000001952,관덕정성지,관광지,보물,제주특별자치도 제주시 삼도이동  983-1,관덕로 19,33.51343423,126.5214977,제주,보물,,,정보없음,정보없음,정보없음,정보없음,정보없음,역사/문화유산,
KCLANPO23N000001972,김녕사굴,관광지,유명사적/유적지,제주특별자치도 제주시 구좌읍 월정리 1862-6,정보없음,33.54319747,126.7751048,유명사적,제주,동부지역,유적지,정보없음,정보없음,정보없음,정보없음,정보없음,역사/문화유산,
KCLANPO23N000002014,대정성지,관광지,유명사적/유적지,제주특별자치도 서귀포시 대정읍 동일리 10,정보없음,33.25413921,126.2611003,유명사적,제주,유적지,,정보없음,정보없음,정보없음,정보없음,정보없음,역사/문화유산,
KCLANPO23N000002022,돌염전,관광지,유명사적/유적지,제주특별자치도 제주시 내도동  449-10,정보없음,33.49806369,126.4465878,유명사적,제주,유적지,,정보없음,정보없음,정보없음,정보없음,정보없음,역사/문화유산,
KCLANPO23N000002038,명월진성,관광지,유명사적/유적지,제주특별자치도 제주시 한림읍 명월리 2162,정보없음,33.40019543,126.2607671,유명사적,제주,서부지역,유적지,정보없음,정보없음,정보없음,정보없음,정보없음,역사/문화유산,
KCLANPO23N000002039,모충사,관광지,유명사적/유적지,제주특별자치도 제주시 건입동  426,정보없음,33.51643797,126.5458586,유명사적,제주,유적지,,정보없음,정보없음,정보없음,정보없음,정보없음,역사/문화유산,
KCLANPO23N000002073,삼성혈,관광지,유명사적/유적지,제주특별자치도 제주시 이도일동  1313,삼성로 22,33.50427116,126.5291441,유명사적,제주,유적지,,정보없음,정보없음,정보없음,정보없음,정보없음,역사/문화유산,
KCLANPO23N000002074,삼양선사유적지,관광지,유명사적/유적지,제주특별자치도 제주시 삼양이동  82790,정보없음,33.52333831,126.5876662,유명사적,제주,유적지,,정보없음,정보없음,정보없음,정보없음,정보없음,역사/문화유산,
KCLANPO23N000002151,연혼포,관광지,유명사적/유적지,제주특별자치도 서귀포시 성산읍 온평리 ,정보없음,33.41357541,126.9108096,유명사적,제주,동부지역,유적지,정보없음,정보없음,정보없음,정보없음,정보없음,역사/문화유산,
KCLANPO23N000002188,원당사지,관광지,유명사적/유적지,제주특별자치도 제주시 삼양일동  696,정보없음,33.52936167,126.5985287,유명사적,제주,유적지,,정보없음,정보없음,정보없음,정보없음,정보없음,역사/문화유산,
KCLANPO23N000002191,선사주거지,관광지,유명사적/유적지,제주특별자치도 제주시 용담이동  746-2,정보없음,33.50360202,126.5046498,유명사적,제주,유적지,,정보없음,정보없음,정보없음,정보없음,정보없음,역사/문화유산,
KCLANPO23N000002239,제주성지,관광지,유명사적/유적지,제주특별자치도 제주시 이도일동  1437-6,정보없음,33.51018776,126.5254974,유명사적,제주,유적지,,정보없음,정보없음,정보없음,정보없음,정보없음,역사/문화유산,
KCLANPO23N000002242,종달리패총유적,관광지,유명사적/유적지,제주특별자치도 제주시 구좌읍 종달리 2596,정보없음,33.49537275,126.8926242,유명사적,제주,동부지역,유적지,정보없음,정보없음,정보없음,정보없음,정보없음,역사/문화유산,
KCLANPO23N000002314,항몽유적지,관광지,유명사적/유적지,제주특별자치도 제주시 애월읍 상귀리 1012,항파두리로 50,33.45268416,126.4079476,유명사적,제주,서부지역,유적지,정보없음,정보없음,정보없음,정보없음,정보없음,역사/문화유산,
KCLANPO23N000002322,협재굴,관광지,유명사적/유적지,제주특별자치도 제주시 한림읍 협재리 355200,정보없음,33.38712316,126.2401839,유명사적,제주,서부지역,유적지,정보없음,정보없음,정보없음,정보없음,정보없음,역사/문화유산,
KCLANPO23N000002331,황경한묘성지,관광지,유명사적/유적지,제주특별자치도 제주시 추자면 신양리 46,정보없음,33.94568648,126.3332314,유명사적,제주,유적지,,정보없음,정보없음,정보없음,정보없음,정보없음,역사/문화유산,
KCLANPO23N000002332,황금굴,관광지,유명사적/유적지,제주특별자치도 제주시 한림읍 협재리 2600,정보없음,33.38675247,126.2416227,유명사적,제주,서부지역,유적지,정보없음,정보없음,정보없음,정보없음,정보없음,역사/문화유산,
KCLANPO23N000002521,안보물,관광지,유명사적/유적지,제주특별자치도 제주시 회천동  299866,정보없음,33.5017755,126.6016487,유명사적,제주,유적지,,정보없음,정보없음,정보없음,정보없음,정보없음,역사/문화유산,
KCLANPO23N000002530,연북정,관광지,유명사적/유적지,제주특별자치도 제주시 조천읍 조천리 2690,정보없음,33.54009576,126.636123,유명사적,제주,유적지,,정보없음,정보없음,정보없음,정보없음,정보없음,역사/문화유산,
KCLANPO23N000002685,방사탑,관광지,비/탑/문/각,제주특별자치도 제주시 조천읍 신흥리 ,정보없음,33.54890511,126.6508745,문,비,제주,각,정보없음,정보없음,정보없음,정보없음,정보없음,역사/문화유산,탑
KCLANPO23N000002830,성읍민속마을,관광지,고택/생가/민속마을,제주특별자치도 서귀포시 표선면 성읍리 820-1,성읍서문로 14,33.38687552,126.8000524,민속마을,고택,남부지역,제주,정보없음,정보없음,정보없음,정보없음,정보없음,역사/문화유산,생가
KCLANPO23N000002977,제주향교,관광지,서원/향교/서당,제주특별자치도 제주시 용담일동  298-8,서문로 43,33.5115155,126.5156,향교,서당,제주,서원,정보없음,정보없음,정보없음,정보없음,정보없음,역사/문화유산,
KCLANPO23N000002978,대정향교,관광지,서원/향교/서당,제주특별자치도 서귀포시 안덕면 사계리 447789,향교로 165-17,33.23952274,126.2883544,향교,서당,제주,서원,정보없음,정보없음,정보없음,정보없음,정보없음,역사/문화유산,
KCLANPO23N000003072,제주서당,관광지,서원/향교/서당,제주특별자치도 서귀포시 성산읍 삼달리 115-5,삼달로 32,33.37001944,126.8650301,서원,제주,서당,동부지역,정보없음,정보없음,정보없음,정보없음,정보없음,역사/문화유산,향교
KCLANPO23N000003223,금산공원,관광지,일반유원지/일반놀이공원,제주특별자치도 제주시 애월읍 납읍리 1457-4,정보없음,33.43387091,126.330579,일반유원지,제주,서부지역,일반놀이공원,정보없음,정보없음,정보없음,정보없음,정보없음,체험/레저,
KCLANPO23N000003290,북촌돌하르방공원,관광지,일반유원지/일반놀이공원,제주특별자치도 제주시 조천읍 북촌리 976,북촌서1길 70,33.53883696,126.6888226,일반유원지,제주,일반놀이공원,,정보없음,정보없음,정보없음,정보없음,정보없음,체험/레저,
KCLANPO23N000003316,세리월드,관광지,일반유원지/일반놀이공원,제주특별자치도 서귀포시 법환동  877-1,법환상로2번길 97-17,33.24678139,126.5122871,일반유원지,제주,일반놀이공원,,정보없음,정보없음,정보없음,정보없음,정보없음,체험/레저,
KCLANPO23N000003323,솜반내,관광지,일반유원지/일반놀이공원,제주특별자치도 서귀포시 서홍동  1223-1,서홍로 64,33.25355774,126.5535655,일반유원지,제주,일반놀이공원,,정보없음,정보없음,정보없음,정보없음,정보없음,체험/레저,
KCLANPO23N000003328,수산유원지,관광지,일반유원지/일반놀이공원,제주특별자치도 제주시 애월읍 수산리 1951,정보없음,33.46984883,126.387377,일반유원지,제주,서부지역,일반놀이공원,정보없음,정보없음,정보없음,정보없음,정보없음,체험/레저,
KCLANPO23N000003369,위너스카트클럽,관광지,일반유원지/일반놀이공원,제주특별자치도 서귀포시 표선면 하천리 285-2,일주동로 5681,33.33801987,126.8434097,남부지역,일반유원지,제주,일반놀이공원,정보없음,정보없음,정보없음,정보없음,정보없음,체험/레저,
KCLANPO23N000003406,큰엉,관광지,일반유원지/일반놀이공원,제주특별자치도 서귀포시 남원읍 남원리 2390,태위로 522-12,33.27241402,126.7022238,남부지역,일반유원지,제주,일반놀이공원,정보없음,정보없음,정보없음,정보없음,정보없음,체험/레저,
KCLANPO23N000003410,토평유어장,관광지,일반유원지/일반놀이공원,제주특별자치도 서귀포시 토평동  475-2,검은여로 2,33.24325382,126.5813633,일반유원지,제주,일반놀이공원,,정보없음,정보없음,정보없음,정보없음,정보없음,체험/레저,
KCLANPO23N000003438,감귤체험농장,관광지,일반관광지,제주특별자치도 서귀포시 안덕면 사계리 763,사계로 210,33.24851958,126.3036212,일반관광지,제주,,,정보없음,정보없음,정보없음,정보없음,정보없음,관광명소,
KCLANPO23N000003440,강정천은어축제,관광지,지역축제,제주특별자치도 서귀포시 강정동  5647,정보없음,33.23296278,126.4882572,제주,지역축제,,,정보없음,정보없음,정보없음,정보없음,정보없음,지역문화/이벤트,
KCLANPO23N000003441,갯깍주상절리대,관광지,일반관광지,제주특별자치도 서귀포시 상예동  978,정보없음,33.24076097,126.3962622,일반관광지,제주,,,정보없음,정보없음,정보없음,정보없음,정보없음,관광명소,
KCLANPO23N000003442,거린사슴전망대,관광지,일반관광지,제주특별자치도 서귀포시 대포동  산2-11,1100로 823,33.30732548,126.4540557,일반관광지,제주,,,정보없음,정보없음,정보없음,정보없음,정보없음,관광명소,
KCLANPO23N000003443,거믄여해안경승지,관광지,일반관광지,제주특별자치도 서귀포시 토평동  475-4,정보없음,33.24379929,126.5816265,일반관광지,제주,,,정보없음,정보없음,정보없음,정보없음,정보없음,관광명소,
KCLANPO23N000003445,렛츠런팜,관광지,유명관광지,제주특별자치도 제주시 조천읍 교래리 산25-2,남조로 1660,33.41589177,126.6793436,제주,유명관광지,,,정보없음,정보없음,정보없음,정보없음,정보없음,관광명소,
KCLANPO23N000003449,고사리축제,관광지,지역축제,제주특별자치도 서귀포시 남원읍 수망리 685,태수로 711,33.33841246,126.7090437,남부지역,제주,지역축제,,정보없음,정보없음,정보없음,정보없음,정보없음,지역문화/이벤트,
KCLANPO23N000003450,고향집,관광지,일반관광지,제주특별자치도 서귀포시 표선면 성읍리 594,성읍정의현로 96,33.39101446,126.8011339,남부지역,일반관광지,제주,,정보없음,정보없음,정보없음,정보없음,정보없음,관광명소,
KCLANPO23N000003456,귀덕해안도로,관광지,일반관광지,제주특별자치도 제주시 한림읍 귀덕리 417229,정보없음,33.44319079,126.2886439,일반관광지,제주,서부지역,,정보없음,정보없음,정보없음,정보없음,정보없음,관광명소,
KCLANPO23N000003458,금능석물원,관광지,식물원,제주특별자치도 제주시 한림읍 금능리 1282-9,한림로 176,33.38536031,126.2268387,서부지역,제주,식물원,,정보없음,정보없음,정보없음,정보없음,정보없음,자연경관,
KCLANPO23N000003462,김녕미로공원,관광지,유명관광지,제주특별자치도 제주시 구좌읍 김녕리 산16,만장굴길 122,33.53680399,126.7724507,동부지역,제주,유명관광지,,정보없음,정보없음,정보없음,정보없음,정보없음,관광명소,
KCLANPO23N000003463,김녕해안도로,관광지,유명관광지,제주특별자치도 제주시 구좌읍 김녕리 483-4,정보없음,33.5602704,126.7628007,동부지역,제주,유명관광지,,정보없음,정보없음,정보없음,정보없음,정보없음,관광명소,
KCLANPO23N000003469,남도리쉼터,관광지,일반관광지,제주특별자치도 제주시 애월읍 신엄리 331093,정보없음,33.47716898,126.3535976,일반관광지,제주,서부지역,,정보없음,정보없음,정보없음,정보없음,정보없음,관광명소,
KCLANPO23N000003473,남원해안도로,관광지,유명관광지,제주특별자치도 서귀포시 남원읍 남원리 1408-2,태위로 536,33.27489731,126.7090426,남부지역,제주,유명관광지,,정보없음,정보없음,정보없음,정보없음,정보없음,관광명소,
KCLANPO23N000003474,남원해안도로,관광지,일반관광지,제주특별자치도 서귀포시 남원읍 태흥리 1831-3,정보없음,33.27941751,126.7308038,남부지역,일반관광지,제주,,정보없음,정보없음,정보없음,정보없음,정보없음,관광명소,
KCLANPO23N000003475,억새오름길,관광지,일반관광지,제주특별자치도 서귀포시 성산읍 수산리 1308,정보없음,33.45012272,126.8818621,동부지역,일반관광지,제주,,정보없음,정보없음,정보없음,정보없음,정보없음,관광명소,
KCLANPO23N000003479,논짓물,관광지,유명관광지,제주특별자치도 서귀포시 하예동  568,정보없음,33.23723652,126.3891241,제주,유명관광지,,,정보없음,정보없음,정보없음,정보없음,정보없음,관광명소,
KCLANPO23N000003482,다랑쉬오름,관광지,일반관광지,제주특별자치도 제주시 구좌읍 세화리 산6,정보없음,33.47637057,126.8214831,동부지역,일반관광지,제주,,정보없음,정보없음,정보없음,정보없음,정보없음,관광명소,
KCLANPO23N000003487,대유랜드,관광지,유명관광지,제주특별자치도 서귀포시 상예동  144,상예로 381,33.27773158,126.3953294,제주,유명관광지,,,정보없음,정보없음,정보없음,정보없음,정보없음,관광명소,
KCLANPO23N000003488,대포주상절리대,관광지,유명관광지,제주특별자치도 서귀포시 중문동  317032,이어도로 36-30,33.23794234,126.4259332,남부지역,제주,유명관광지,,정보없음,정보없음,정보없음,정보없음,정보없음,관광명소,
KCLANPO23N000003490,도깨비도로,관광지,유명관광지,제주특별자치도 제주시 아라일동  산67-5,정보없음,33.4364641,126.5552395,제주,유명관광지,,,정보없음,정보없음,정보없음,정보없음,정보없음,관광명소,
KCLANPO23N000003491,신비의도로,관광지,유명관광지,제주특별자치도 제주시 노형동  3766,우평로 10,33.44910122,126.488051,제주,유명관광지,,,정보없음,정보없음,정보없음,정보없음,정보없음,관광명소,
KCLANPO23N000003493,도두해안도로,관광지,먹거리/패션거리,제주특별자치도 제주시 도두일동  1732-6,정보없음,33.50903827,126.471643,패션거리,먹거리,제주,,정보없음,정보없음,정보없음,정보없음,정보없음,기타,
KCLANPO23N000003496,돈내코유원지,관광지,유명관광지,제주특별자치도 서귀포시 상효동  1503,돈내코로 128-1,33.3009572,126.5851924,제주,유명관광지,,,정보없음,정보없음,정보없음,정보없음,정보없음,관광명소,
KCLANPO23N000003497,돌칸이,관광지,일반관광지,제주특별자치도 제주시 우도면 연평리 1707,우도해안길 32-24,33.49273601,126.9578463,일반관광지,제주,바다 전망,,정보없음,정보없음,정보없음,정보없음,정보없음,관광명소,
KCLANPO23N000003499,돔베낭골,관광지,일반관광지,제주특별자치도 서귀포시 호근동  1608-2,정보없음,33.23965677,126.5330932,일반관광지,제주,,,정보없음,정보없음,정보없음,정보없음,정보없음,관광명소,
KCLANPO23N000003500,동복관광체험어장,관광지,일반관광지,제주특별자치도 제주시 구좌읍 동복리 687-10,구좌해안로 35,33.55553881,126.7188131,동부지역,일반관광지,제주,바다 전망,정보없음,정보없음,정보없음,정보없음,정보없음,관광명소,
KCLANPO23N000003501,동복해안도로,관광지,일반관광지,제주특별자치도 제주시 구좌읍 동복리 716-2,정보없음,33.5538527,126.7169343,동부지역,일반관광지,제주,,정보없음,정보없음,정보없음,정보없음,정보없음,관광명소,
KCLANPO23N000003502,동부레저,관광지,일반관광지,제주특별자치도 서귀포시 표선면 성읍리 2873,번영로 2454,33.40880858,126.7702617,남부지역,일반관광지,제주,,정보없음,정보없음,정보없음,정보없음,정보없음,관광명소,
KCLANPO23N000003510,만장굴,관광지,유명관광지,제주특별자치도 제주시 구좌읍 월정리 산41-15,만장굴길 182,33.52816783,126.7700321,동부지역,제주,유명관광지,,정보없음,정보없음,정보없음,정보없음,정보없음,관광명소,
KCLANPO23N000003518,방어축제,관광지,지역축제,제주특별자치도 서귀포시 대정읍 하모리 1089-35,신영로36번길 48-15,33.21849447,126.2483128,제주,지역축제,,,정보없음,정보없음,정보없음,정보없음,정보없음,지역문화/이벤트,
KCLANPO23N000003524,별도봉공원,관광지,유명관광지,제주특별자치도 제주시 화북일동  4502,사라봉동길 74-17,33.51838918,126.549414,제주,유명관광지,,,정보없음,정보없음,정보없음,정보없음,정보없음,관광명소,
KCLANPO23N000003525,별방진성,관광지,성/성터,제주특별자치도 제주시 구좌읍 하도리 3354,정보없음,33.52646034,126.8840081,성터,성,제주,동부지역,정보없음,정보없음,정보없음,정보없음,정보없음,역사/문화유산,
KCLANPO23N000003528,보목자리돔축제,관광지,지역축제,제주특별자치도 서귀포시 보목동  552,정보없음,33.24008538,126.6080854,제주,지역축제,,,정보없음,정보없음,정보없음,정보없음,정보없음,지역문화/이벤트,
KCLANPO23N000003531,봉개관광승마장,관광지,유명관광지,제주특별자치도 제주시 봉개동  275-86,정보없음,33.46272859,126.6113705,제주,유명관광지,,,정보없음,정보없음,정보없음,정보없음,정보없음,관광명소,
KCLANPO23N000003534,생각하는정원,관광지,유명관광지,제주특별자치도 제주시 한경면 저지리 1534,녹차분재로 675,33.32557563,126.2550285,제주,유명관광지,,,정보없음,정보없음,정보없음,정보없음,정보없음,관광명소,
KCLANPO23N000003535,불사리탑사,관광지,일반관광지,제주특별자치도 제주시 조천읍 조천리 134411,일주동로 884,33.53194572,126.6362106,일반관광지,제주,,,정보없음,정보없음,정보없음,정보없음,정보없음,관광명소,
KCLANPO23N000003537,형제해안도로,관광지,일반관광지,제주특별자치도 서귀포시 안덕면 사계리 2294-35,정보없음,33.22676683,126.3009557,일반관광지,제주,,,정보없음,정보없음,정보없음,정보없음,정보없음,관광명소,
KCLANPO23N000003538,사라봉공원,관광지,유명관광지,제주특별자치도 제주시 건입동  387-1,사라봉동길 74,33.51754104,126.5453362,제주,유명관광지,,,정보없음,정보없음,정보없음,정보없음,정보없음,관광명소,
KCLANPO23N000003540,산굼부리,관광지,유명관광지,제주특별자치도 제주시 조천읍 교래리 342-2,비자림로 768,33.43294721,126.6930254,제주,유명관광지,,,정보없음,정보없음,정보없음,정보없음,정보없음,관광명소,
KCLANPO23N000003541,신화레져버기카,관광지,유명관광지,제주특별자치도 서귀포시 안덕면 동광리 1348,동광로 21,33.2997815,126.3332223,제주,유명관광지,,,정보없음,정보없음,정보없음,정보없음,정보없음,관광명소,
KCLANPO23N000003542,산지천산책로,관광지,일반관광지,제주특별자치도 제주시 건입동  1430,정보없음,33.51534348,126.5292459,일반관광지,제주,,,정보없음,정보없음,정보없음,정보없음,정보없음,관광명소,
KCLANPO23N000003551,섭지코지,관광지,유명관광지,제주특별자치도 서귀포시 성산읍 고성리 127-2,섭지코지로 107,33.4302398,126.9280752,동부지역,제주,유명관광지,,정보없음,정보없음,정보없음,정보없음,정보없음,관광명소,
KCLANPO23N000003552,성산일출봉,관광지,유명관광지,제주특별자치도 서귀포시 성산읍 성산리 1,정보없음,33.45840755,126.9424991,동부지역,제주,유명관광지,,정보없음,정보없음,정보없음,정보없음,정보없음,관광명소,
KCLANPO23N000003555,세화해안도로,관광지,일반관광지,제주특별자치도 제주시 구좌읍 하도리 3200-23,정보없음,33.52500973,126.8630529,동부지역,일반관광지,제주,,정보없음,정보없음,정보없음,정보없음,정보없음,관광명소,
KCLANPO23N000003558,송당중산간도로,관광지,일반관광지,제주특별자치도 서귀포시 성산읍 수산리 4764,중산간동로 3283-16,33.45534944,126.8316051,동부지역,일반관광지,제주,,정보없음,정보없음,정보없음,정보없음,정보없음,관광명소,
KCLANPO23N000003559,송악형제해안도로,관광지,일반관광지,제주특별자치도 서귀포시 대정읍 상모리 626-2,정보없음,33.21745071,126.2933494,일반관광지,제주,,,정보없음,정보없음,정보없음,정보없음,정보없음,관광명소,
KCLANPO23N000003560,송악해안도로,관광지,일반관광지,제주특별자치도 서귀포시 대정읍 상모리 130-1,정보없음,33.20859858,126.2914075,일반관광지,제주,,,정보없음,정보없음,정보없음,정보없음,정보없음,관광명소,
KCLANPO23N000003563,수산중산간도로,관광지,일반관광지,제주특별자치도 서귀포시 성산읍 수산리 1492-3,정보없음,33.44958304,126.8729623,동부지역,일반관광지,제주,,정보없음,정보없음,정보없음,정보없음,정보없음,관광명소,
KCLANPO23N000003564,수월봉,관광지,유명관광지,제주특별자치도 제주시 한경면 고산리 3761,정보없음,33.29457638,126.1629597,제주,유명관광지,,,정보없음,정보없음,정보없음,정보없음,정보없음,관광명소,
KCLANPO23N000003567,쉬리의언덕,관광지,유명관광지,제주특별자치도 서귀포시 색달동  3039-41,정보없음,33.24555159,126.4072914,제주,유명관광지,,,정보없음,정보없음,정보없음,정보없음,정보없음,관광명소,
KCLANPO23N000003568,신산해안도로,관광지,유명관광지,제주특별자치도 서귀포시 성산읍 신산리 1130-7,정보없음,33.37645849,126.876999,동부지역,제주,유명관광지,,정보없음,정보없음,정보없음,정보없음,정보없음,관광명소,
KCLANPO23N000003569,신양신산해안도로,관광지,유명관광지,제주특별자치도 서귀포시 성산읍 온평리 24139,정보없음,33.41797763,126.9109698,동부지역,제주,유명관광지,,정보없음,정보없음,정보없음,정보없음,정보없음,관광명소,
KCLANPO23N000003570,신양해안도로,관광지,유명관광지,제주특별자치도 서귀포시 성산읍 고성리 602-4,정보없음,33.4323132,126.9152101,동부지역,제주,유명관광지,,정보없음,정보없음,정보없음,정보없음,정보없음,관광명소,
KCLANPO23N000003571,신창용수해안도로,관광지,유명관광지,제주특별자치도 제주시 한경면 신창리 1442-1,한경해안로 438,33.34193988,126.1674676,제주,바다 전망,유명관광지,,정보없음,정보없음,정보없음,정보없음,정보없음,관광명소,
KCLANPO23N000003572,신창풍차해안도로,관광지,유명관광지,제주특별자치도 제주시 한경면 신창리 542-9,한경해안로 565,33.34605593,126.1799646,제주,바다 전망,유명관광지,,정보없음,정보없음,정보없음,정보없음,정보없음,관광명소,
KCLANPO23N000003578,애월해안도로,관광지,유명관광지,제주특별자치도 제주시 애월읍 애월리 397-3,정보없음,33.46601948,126.3271673,제주,서부지역,유명관광지,,정보없음,정보없음,정보없음,정보없음,정보없음,관광명소,
KCLANPO23N000003579,야구인의마을,관광지,유명관광지,제주특별자치도 서귀포시 색달동  640,색달중앙로252번길 49,33.28134768,126.4153701,제주,유명관광지,,,정보없음,정보없음,정보없음,정보없음,정보없음,관광명소,
KCLANPO23N000003586,어승생악,관광지,일반관광지,제주특별자치도 제주시 해안동  산220-12,정보없음,33.39632448,126.4892747,일반관광지,제주,,,정보없음,정보없음,정보없음,정보없음,정보없음,관광명소,
KCLANPO23N000003594,옹포해안도로,관광지,일반관광지,제주특별자치도 제주시 한림읍 동명리 ,정보없음,33.40994778,126.2559436,일반관광지,제주,서부지역,,정보없음,정보없음,정보없음,정보없음,정보없음,관광명소,
KCLANPO23N000003595,외돌개,관광지,유명관광지,제주특별자치도 서귀포시 호근동  336,정보없음,33.23977448,126.5439329,제주,유명관광지,,,정보없음,정보없음,정보없음,정보없음,정보없음,관광명소,
KCLANPO23N000003598,용두암공원용두암,관광지,유명관광지,제주특별자치도 제주시 용담이동  488-5,서해안로 687-1,33.51600348,126.5120296,제주,바다 전망,유명관광지,,정보없음,정보없음,정보없음,정보없음,정보없음,관광명소,
KCLANPO23N000003599,용두암해안도로,관광지,유명관광지,제주특별자치도 제주시 용담삼동  1134-3,정보없음,33.52024001,126.4963016,제주,유명관광지,,,정보없음,정보없음,정보없음,정보없음,정보없음,관광명소,
KCLANPO23N000003600,용머리촬영지,관광지,유명관광지,제주특별자치도 서귀포시 안덕면 사계리 115,정보없음,33.23444272,126.3129506,제주,유명관광지,,,정보없음,정보없음,정보없음,정보없음,정보없음,관광명소,
KCLANPO23N000003601,용머리해안,관광지,유명관광지,제주특별자치도 서귀포시 안덕면 사계리 112-3,정보없음,33.23215622,126.3147159,제주,유명관광지,,,정보없음,정보없음,정보없음,정보없음,정보없음,관광명소,
KCLANPO23N000003602,용수리표착순례지,관광지,일반관광지,제주특별자치도 제주시 한경면 용수리 4274,한경해안로 144,33.32334369,126.1667465,일반관광지,제주,바다 전망,,정보없음,정보없음,정보없음,정보없음,정보없음,관광명소,
KCLANPO23N000003603,용수해안도로,관광지,유명관광지,제주특별자치도 제주시 한경면 용수리 966493,정보없음,33.32064807,126.1676331,제주,유명관광지,,,정보없음,정보없음,정보없음,정보없음,정보없음,관광명소,
KCLANPO23N000003604,용연,관광지,유명관광지,제주특별자치도 제주시 용담일동  248823,정보없음,33.51454913,126.514813,제주,유명관광지,,,정보없음,정보없음,정보없음,정보없음,정보없음,관광명소,
KCLANPO23N000003605,용연구름다리,관광지,유명관광지,제주특별자치도 제주시 용담이동  2581,정보없음,33.51487816,126.5144062,제주,유명관광지,,,정보없음,정보없음,정보없음,정보없음,정보없음,관광명소,
KCLANPO23N000003606,우도잠수함,관광지,유명관광지,제주특별자치도 서귀포시 성산읍 성산리 347-9,성산등용로 130-19,33.47289331,126.9336716,동부지역,제주,유명관광지,,정보없음,정보없음,정보없음,정보없음,정보없음,관광명소,
KCLANPO23N000003608,웅지승마센터,관광지,유명관광지,제주특별자치도 제주시 애월읍 상가리 2156-15,산록서로 81,33.39092993,126.3796719,제주,서부지역,유명관광지,,정보없음,정보없음,정보없음,정보없음,정보없음,관광명소,
KCLANPO23N000003616,이호해안도로,관광지,일반관광지,제주특별자치도 제주시 이호일동  375-53,정보없음,33.50069,126.4548581,일반관광지,제주,,,정보없음,정보없음,정보없음,정보없음,정보없음,관광명소,
KCLANPO23N000003618,일과해안도로,관광지,유명관광지,제주특별자치도 서귀포시 대정읍 일과리 1415-3,정보없음,33.24170736,126.2244311,제주,유명관광지,,,정보없음,정보없음,정보없음,정보없음,정보없음,관광명소,
KCLANPO23N000003623,자연한방테마파크,관광지,유명관광지,제주특별자치도 서귀포시 안덕면 서광리 2489,녹차분재로 217,33.29890079,126.2901426,제주,유명관광지,,,정보없음,정보없음,정보없음,정보없음,정보없음,관광명소,
KCLANPO23N000003634,유채꽃재배단지,관광지,유명관광지,제주특별자치도 서귀포시 성산읍 고성리 270,정보없음,33.45480924,126.9250877,동부지역,제주,유명관광지,,정보없음,정보없음,정보없음,정보없음,정보없음,관광명소,
KCLANPO23N000003635,제주도예촌,관광지,일반관광지,제주특별자치도 서귀포시 대정읍 영락리 6,암반수마농로 433,33.26491033,126.2355686,일반관광지,제주,,,정보없음,정보없음,정보없음,정보없음,정보없음,관광명소,
KCLANPO23N000003636,제주돌문화공원,관광지,유명관광지,제주특별자치도 제주시 조천읍 교래리 산119,남조로 2023,33.44802966,126.6616058,제주,유명관광지,,,정보없음,정보없음,정보없음,정보없음,정보없음,관광명소,
KCLANPO23N000003637,제주랜드카트제주랜드ATV,관광지,일반관광지,제주특별자치도 서귀포시 표선면 성읍리 2429,번영로 2561,33.40503004,126.7807807,남부지역,일반관광지,제주,,정보없음,정보없음,정보없음,정보없음,정보없음,관광명소,
KCLANPO23N000003638,제주러브랜드,관광지,유명관광지,제주특별자치도 제주시 연동  680-26,1100로 2894-72,33.45182487,126.4892166,제주,유명관광지,,,정보없음,정보없음,정보없음,정보없음,정보없음,관광명소,
KCLANPO23N000003639,제주목관아지,관광지,유명사적/유적지,제주특별자치도 제주시 삼도이동  15766,정보없음,33.51408462,126.5221291,유명사적,제주,유적지,,정보없음,정보없음,정보없음,정보없음,정보없음,역사/문화유산,
KCLANPO23N000003640,제주시민속오일시장,관광지,유명관광지,제주특별자치도 제주시 도두일동  1212,오일장서길 26,33.49698126,126.4752094,제주,유명관광지,,,정보없음,정보없음,정보없음,정보없음,정보없음,관광명소,
KCLANPO23N000003641,제주조각공원,관광지,유명관광지,제주특별자치도 서귀포시 안덕면 덕수리 산27,일주서로 1836,33.25189543,126.3229808,제주,유명관광지,,,정보없음,정보없음,정보없음,정보없음,정보없음,관광명소,
KCLANPO23N000003642,제주크로즈,관광지,유명관광지,제주특별자치도 제주시 도두일동  1709-8,도두봉2길 1월 25일,33.50598852,126.4715953,제주,유명관광지,,,정보없음,정보없음,정보없음,정보없음,정보없음,관광명소,
KCLANPO23N000003643,행원풍력발전단지,관광지,유명관광지,제주특별자치도 제주시 구좌읍 행원리 5,정보없음,33.55795026,126.8227758,동부지역,제주,유명관광지,,정보없음,정보없음,정보없음,정보없음,정보없음,관광명소,
KCLANPO23N000003644,제지기오름,관광지,일반관광지,제주특별자치도 서귀포시 보목동  275-1,정보없음,33.24177721,126.6094358,일반관광지,제주,,,정보없음,정보없음,정보없음,정보없음,정보없음,관광명소,
KCLANPO23N000003646,조천해안도로,관광지,먹거리/패션거리,제주특별자치도 제주시 조천읍 조천리 410200,정보없음,33.54848064,126.6402716,패션거리,먹거리,제주,,정보없음,정보없음,정보없음,정보없음,정보없음,기타,
KCLANPO23N000003647,종달리해안도로,관광지,유명관광지,제주특별자치도 제주시 구좌읍 종달리 457-3,정보없음,33.50493609,126.9127565,동부지역,제주,유명관광지,,정보없음,정보없음,정보없음,정보없음,정보없음,관광명소,
KCLANPO23N000003648,종달해안도로,관광지,유명관광지,제주특별자치도 서귀포시 성산읍 오조리 368-3,정보없음,33.46997399,126.9190617,동부지역,제주,유명관광지,,정보없음,정보없음,정보없음,정보없음,정보없음,관광명소,
KCLANPO23N000003651,해적잠수함,관광지,일반관광지,제주특별자치도 제주시 한경면 고산리 627032,노을해안로 1143,33.30796989,126.1640833,일반관광지,제주,바다 전망,,정보없음,정보없음,정보없음,정보없음,정보없음,관광명소,
KCLANPO23N000003653,천연돌염전,관광지,일반관광지,제주특별자치도 제주시 애월읍 구엄리 609-1,애월해안로 708,33.48365251,126.3765988,일반관광지,제주,서부지역,바다 전망,정보없음,정보없음,정보없음,정보없음,정보없음,관광명소,
KCLANPO23N000003670,추사적거지,관광지,유명관광지,제주특별자치도 서귀포시 대정읍 안성리 1661-1,추사로 44,33.24993322,126.2781921,제주,유명관광지,,,정보없음,정보없음,정보없음,정보없음,정보없음,관광명소,
KCLANPO23N000003680,표선해안도로,관광지,먹거리/패션거리,제주특별자치도 서귀포시 표선면 표선리 1272-8,정보없음,33.31162661,126.8346115,패션거리,먹거리,제주,남부지역,정보없음,정보없음,정보없음,정보없음,정보없음,기타,
KCLANPO23N000003682,하귀애월해안도로,관광지,유명관광지,제주특별자치도 제주시 애월읍 구엄리 464-3,정보없음,33.48750913,126.3834959,제주,서부지역,유명관광지,,정보없음,정보없음,정보없음,정보없음,정보없음,관광명소,
KCLANPO23N000003683,하도리철새도래지,관광지,일반관광지,제주특별자치도 제주시 구좌읍 하도리 19391,정보없음,33.51211743,126.8979422,동부지역,일반관광지,제주,,정보없음,정보없음,정보없음,정보없음,정보없음,관광명소,
KCLANPO23N000003689,한동해안도로,관광지,일반관광지,제주특별자치도 제주시 구좌읍 한동리 1641,해맞이해안로 932,33.54660149,126.8278034,동부지역,일반관광지,제주,바다 전망,정보없음,정보없음,정보없음,정보없음,정보없음,관광명소,
KCLANPO23N000003690,한라단감,관광지,일반관광지,제주특별자치도 제주시 노형동  318,주르레길 6월 30일,33.45094003,126.4829889,일반관광지,제주,,,정보없음,정보없음,정보없음,정보없음,정보없음,관광명소,
KCLANPO23N000003691,한라용사촌,관광지,일반관광지,제주특별자치도 제주시 구좌읍 행원리 2333-33,정보없음,33.53565358,126.7950462,동부지역,일반관광지,제주,,정보없음,정보없음,정보없음,정보없음,정보없음,관광명소,
KCLANPO23N000003692,한림공원,관광지,유명관광지,제주특별자치도 제주시 한림읍 협재리 2487,한림로 300,33.38934652,126.2405756,제주,서부지역,유명관광지,,정보없음,정보없음,정보없음,정보없음,정보없음,관광명소,
KCLANPO23N000003694,함덕해안도로,관광지,유명관광지,제주특별자치도 제주시 조천읍 함덕리 1004-56,정보없음,33.54266853,126.6678405,제주,유명관광지,,,정보없음,정보없음,정보없음,정보없음,정보없음,관광명소,
KCLANPO23N000003699,제주서커스월드,관광지,유명관광지,제주특별자치도 서귀포시 안덕면 동광리 886,동광로 214,33.31437259,126.3447392,제주,유명관광지,,,정보없음,정보없음,정보없음,정보없음,정보없음,관광명소,
KCLANPO23N000003705,혼인지,관광지,유명관광지,제주특별자치도 서귀포시 성산읍 온평리 1695-1,혼인지로 39-42,33.4158434,126.8944062,동부지역,제주,유명관광지,,정보없음,정보없음,정보없음,정보없음,정보없음,관광명소,
KCLANPO23N000003712,회천관광타운,관광지,유명관광지,제주특별자치도 제주시 회천동  45748,번영로 940,33.47446929,126.6364633,제주,유명관광지,,,정보없음,정보없음,정보없음,정보없음,정보없음,관광명소,
KCLANPO23N000003779,선녀와나무꾼테마공원,관광지,일반유원지/일반놀이공원,제주특별자치도 제주시 조천읍 선흘리 1997,선교로 267,33.4788573,126.703469,일반유원지,제주,일반놀이공원,,정보없음,정보없음,정보없음,정보없음,정보없음,체험/레저,
KCLANPO23N000003780,한라산휴양펜션ATV,관광지,일반유원지/일반놀이공원,제주특별자치도 제주시 해안동  36-68,정보없음,33.4419601,126.480288,일반유원지,제주,일반놀이공원,,정보없음,정보없음,정보없음,정보없음,정보없음,체험/레저,
KCLANPO23N000003917,알뜨르비행장,관광지,일반관광지,제주특별자치도 서귀포시 대정읍 상모리 1489,정보없음,33.21066454,126.2786798,일반관광지,제주,,,정보없음,정보없음,정보없음,정보없음,정보없음,관광명소,
KCLANPO23N000003921,제주정월대보름들불축제,관광지,지역축제,제주특별자치도 제주시 애월읍 봉성리 969690,정보없음,33.36139653,126.3615858,제주,서부지역,지역축제,,정보없음,정보없음,정보없음,정보없음,정보없음,지역문화/이벤트,
KCLANPO23N000003926,복신미륵,관광지,유명사적/유적지,제주특별자치도 제주시 건입동  1275-13,정보없음,33.51549403,126.5319444,유명사적,제주,유적지,,정보없음,정보없음,정보없음,정보없음,정보없음,역사/문화유산,
KCLANPO23N000004005,명도암휴양목장,관광지,일반관광지,제주특별자치도 제주시 봉개동  848-49,정보없음,33.46495763,126.6104295,일반관광지,제주,,,정보없음,정보없음,정보없음,정보없음,정보없음,관광명소,
KCLANPO23N000004017,굼부리,관광지,일반관광지,제주특별자치도 서귀포시 표선면 성읍리 530-6,중산간동로 4585,33.38848724,126.8049982,남부지역,일반관광지,제주,,정보없음,정보없음,정보없음,정보없음,정보없음,관광명소,
KCLANPO23N000004039,산지등대,관광지,일반관광지,제주특별자치도 제주시 건입동  340-2,사라봉동길 108-1,33.52142579,126.5455974,일반관광지,제주,,,정보없음,정보없음,정보없음,정보없음,정보없음,관광명소,
KCLANPO23N000004048,수망관광지구,관광지,일반관광지,제주특별자치도 서귀포시 남원읍 수망리 산96,정보없음,33.35205791,126.6998199,남부지역,일반관광지,제주,,정보없음,정보없음,정보없음,정보없음,정보없음,관광명소,
KCLANPO23N000004064,자연체험골,관광지,일반관광지,제주특별자치도 서귀포시 대정읍 무릉리 581-1,중산간서로2881번길 Aug.35,33.27319399,126.2366922,일반관광지,제주,,,정보없음,정보없음,정보없음,정보없음,정보없음,관광명소,
KCLANPO23N000004067,저지문화예술인마을,관광지,일반관광지,제주특별자치도 제주시 한경면 저지리 2114-64,저지12길 Mar.85,33.33895949,126.2652598,일반관광지,제주,,,정보없음,정보없음,정보없음,정보없음,정보없음,관광명소,
KCLANPO23N000004068,녹차미로공원,관광지,일반관광지,제주특별자치도 서귀포시 색달동  산52,산록남로 1246,33.29325909,126.4213347,일반관광지,제주,,,정보없음,정보없음,정보없음,정보없음,정보없음,관광명소,
KCLANPO23N000004069,제주옹기마을,관광지,일반관광지,제주특별자치도 제주시 한경면 조수리 688881,신정로 514,33.29896607,126.2193837,일반관광지,제주,,,정보없음,정보없음,정보없음,정보없음,정보없음,관광명소,
KCLANPO23N000004070,종달리체험어장,관광지,일반관광지,제주특별자치도 제주시 구좌읍 종달리 485-1,해맞이해안로 2286,33.49625186,126.9100556,동부지역,일반관광지,제주,바다 전망,정보없음,정보없음,정보없음,정보없음,정보없음,관광명소,
KCLANPO23N000004085,러빙유촬영지,관광지,드라마/영화촬영지,제주특별자치도 서귀포시 안덕면 동광리 산90,한창로 775,33.32874856,126.3291486,제주,드라마,영화촬영지,,정보없음,정보없음,정보없음,정보없음,정보없음,체험/레저,
KCLANPO23N000004129,연풍연가촬영지,관광지,드라마/영화촬영지,제주특별자치도 제주시 한림읍 동명리 287-2,정보없음,33.38842292,126.2790127,서부지역,제주,드라마,영화촬영지,정보없음,정보없음,정보없음,정보없음,정보없음,체험/레저,
KCLANPO23N000004133,올인촬영지,관광지,드라마/영화촬영지,제주특별자치도 서귀포시 표선면 가시리 644960,정보없음,33.3923182,126.7226956,남부지역,제주,드라마,영화촬영지,정보없음,정보없음,정보없음,정보없음,정보없음,체험/레저,
KCLANPO23N000004134,섭지코지올인하우스,관광지,드라마/영화촬영지,제주특별자치도 서귀포시 성산읍 고성리 57,섭지코지로 261,33.4258356,126.9314244,동부지역,제주,드라마,영화촬영지,정보없음,정보없음,정보없음,정보없음,정보없음,체험/레저,
KCLANPO23N000004136,이제수의난촬영지,관광지,드라마/영화촬영지,제주특별자치도 서귀포시 표선면 성읍리 944,정보없음,33.38570627,126.8021752,남부지역,제주,드라마,영화촬영지,정보없음,정보없음,정보없음,정보없음,정보없음,체험/레저,
KCLANPO23N000004166,수산관광농원,관광지,관광농원/허브마을,제주특별자치도 서귀포시 성산읍 수산리 1048,서성일로 913,33.43981151,126.8774635,허브마을,제주,동부지역,관광농원,정보없음,정보없음,정보없음,정보없음,정보없음,체험/레저,
KCLANPO23N000004175,한라사슴관광농원,관광지,관광농원/허브마을,제주특별자치도 제주시 조천읍 교래리 715-3,비자림로 518,33.42858917,126.6664786,허브마을,제주,관광농원,,정보없음,정보없음,정보없음,정보없음,정보없음,체험/레저,
KCLANPO23N000004176,선인장자생단지,관광지,관광농원/허브마을,제주특별자치도 제주시 한림읍 월령리 368,월령안길 3월 14일,33.37776149,126.2146849,허브마을,제주,서부지역,관광농원,정보없음,정보없음,정보없음,정보없음,정보없음,체험/레저,
KCLANPO23N000004181,오등감귤농장,관광지,관광농원/허브마을,제주특별자치도 제주시 오등동  623,오등14길 8월 15일,33.47397274,126.5291666,허브마을,제주,관광농원,,정보없음,정보없음,정보없음,정보없음,정보없음,체험/레저,
KCLANPO23N000004187,우도전복체험어장,관광지,관광농원/허브마을,제주특별자치도 제주시 우도면 연평리 245445,정보없음,33.49838696,126.9443576,허브마을,제주,관광농원,,정보없음,정보없음,정보없음,정보없음,정보없음,체험/레저,
KCLANPO23N000004192,운하관광농원,관광지,관광농원/허브마을,제주특별자치도 서귀포시 안덕면 서광리 205389,서광남로 88,33.28118317,126.3012717,허브마을,제주,관광농원,,정보없음,정보없음,정보없음,정보없음,정보없음,체험/레저,
KCLANPO23N000004208,제주농업생태원,관광지,관광농원/허브마을,제주특별자치도 서귀포시 남원읍 하례리 1558,중산간동로 7413,33.28812228,126.608338,허브마을,남부지역,제주,관광농원,정보없음,정보없음,정보없음,정보없음,정보없음,체험/레저,
KCLANPO23N000004209,선인장마을,관광지,관광농원/허브마을,제주특별자치도 서귀포시 성산읍 신산리 1725,중산간동로 Jun.37,33.39435362,126.8598368,허브마을,제주,동부지역,관광농원,정보없음,정보없음,정보없음,정보없음,정보없음,체험/레저,
KCLANPO23N000004210,제주허브동산,관광지,관광농원/허브마을,제주특별자치도 서귀포시 표선면 표선리 2608,돈오름로 170,33.33033536,126.8155983,허브마을,남부지역,제주,관광농원,정보없음,정보없음,정보없음,정보없음,정보없음,체험/레저,
KCLANPO23N000004251,휴애리자연생활공원,관광지,관광농원/허브마을,제주특별자치도 서귀포시 남원읍 신례리 2081,신례동로 256,33.30867001,126.6344005,허브마을,남부지역,제주,관광농원,정보없음,정보없음,정보없음,정보없음,정보없음,체험/레저,
KCLANPO23N000004263,경천관광농원,관광지,관광농원/허브마을,제주특별자치도 서귀포시 표선면 가시리 1637-1,정보없음,33.36594264,126.77201,허브마을,남부지역,제주,관광농원,정보없음,정보없음,정보없음,정보없음,정보없음,체험/레저,
KCLANPO23N000004271,귤림체험농원,관광지,관광농원/허브마을,제주특별자치도 서귀포시 성산읍 수산리 276,서성일로 1057,33.44404017,126.8914424,허브마을,제주,동부지역,관광농원,정보없음,정보없음,정보없음,정보없음,정보없음,체험/레저,
KCLANPO23N000004272,귤향체험농원,관광지,관광농원/허브마을,제주특별자치도 서귀포시 성산읍 수산리 279-7,정보없음,33.44432801,126.8928465,허브마을,제주,동부지역,관광농원,정보없음,정보없음,정보없음,정보없음,정보없음,체험/레저,
KCLANPO23N000004282,대일관광농원,관광지,관광농원/허브마을,제주특별자치도 제주시 애월읍 광령리 1477-1,무수천길 77,33.46423282,126.443564,허브마을,제주,서부지역,관광농원,정보없음,정보없음,정보없음,정보없음,정보없음,체험/레저,
KCLANPO23N000004323,삼다감귤,관광지,관광농원/허브마을,제주특별자치도 서귀포시 하효동  753,효돈순환로 296,33.25966246,126.614813,허브마을,제주,관광농원,,정보없음,정보없음,정보없음,정보없음,정보없음,체험/레저,
KCLANPO23N000004325,삼정관광농원,관광지,관광농원/허브마을,제주특별자치도 제주시 구좌읍 한동리 1247,일주동로 Mar.63,33.53759684,126.8313356,허브마을,제주,동부지역,관광농원,정보없음,정보없음,정보없음,정보없음,정보없음,체험/레저,
KCLANPO23N000004362,어멍아방잔치마을,관광지,관광농원/허브마을,제주특별자치도 서귀포시 성산읍 신풍리 500-1,신풍하동로 39,33.36188103,126.8406845,허브마을,제주,동부지역,관광농원,정보없음,정보없음,정보없음,정보없음,정보없음,체험/레저,
KCLANPO23N000004382,서귀포수산마을,관광지,정보화마을,제주특별자치도 서귀포시 성산읍 수산리 782,서성일로 990-17,33.44087382,126.8849804,동부지역,제주,정보화마을,,정보없음,정보없음,정보없음,정보없음,정보없음,지역문화/이벤트,
KCLANPO23N000004398,와흘마을,관광지,정보화마을,제주특별자치도 제주시 조천읍 와흘리 1017,정보없음,33.49313084,126.6400628,제주,정보화마을,,,정보없음,정보없음,정보없음,정보없음,정보없음,지역문화/이벤트,
KCLANPO23N000004405,월평화훼마을,관광지,정보화마을,제주특별자치도 서귀포시 월평동  419-1,월평로 43,33.24606478,126.4611862,제주,정보화마을,,,정보없음,정보없음,정보없음,정보없음,정보없음,지역문화/이벤트,
KCLANPO23N000004406,유수암마을,관광지,정보화마을,제주특별자치도 제주시 애월읍 유수암리 1892-1,유수암평화길 14,33.4413927,126.4029597,제주,서부지역,정보화마을,,정보없음,정보없음,정보없음,정보없음,정보없음,지역문화/이벤트,
KCLANPO23N000004433,상예마을,관광지,정보화마을,제주특별자치도 서귀포시 상예동  4665,정보없음,33.26557429,126.3760706,제주,정보화마을,,,정보없음,정보없음,정보없음,정보없음,정보없음,지역문화/이벤트,
KCLANPO23N000004488,김녕해녀마을,관광지,정보화마을,제주특별자치도 제주시 구좌읍 김녕리 974,정보없음,33.54511844,126.7569887,동부지역,제주,정보화마을,,정보없음,정보없음,정보없음,정보없음,정보없음,지역문화/이벤트,
KCLANPO23N000004501,상동마을,관광지,정보화마을,제주특별자치도 제주시 영평동  2385,능산길 27,33.47575572,126.5630776,제주,정보화마을,,,정보없음,정보없음,정보없음,정보없음,정보없음,지역문화/이벤트,
KCLANPO23N000004516,감산계곡마을,관광지,정보화마을,제주특별자치도 서귀포시 안덕면 감산리 373-1,감산중로 32,33.2590056,126.3533595,제주,정보화마을,,,정보없음,정보없음,정보없음,정보없음,정보없음,지역문화/이벤트,
KCLANPO23N000004588,한남감귤마을,관광지,정보화마을,제주특별자치도 서귀포시 남원읍 한남리 707,한신로 4월 20일,33.311702,126.6948029,남부지역,제주,정보화마을,,정보없음,정보없음,정보없음,정보없음,정보없음,지역문화/이벤트,
KCLANPO23N000004593,산방산랜드,관광지,유명관광지,제주특별자치도 서귀포시 안덕면 사계리 117-2,정보없음,33.23382318,126.3117118,제주,유명관광지,,,정보없음,정보없음,정보없음,정보없음,정보없음,관광명소,
KCLANPO23N000004621,돈내코유원지돈내코야영장,관광지,야영장,제주특별자치도 서귀포시 상효동  1500,돈내코로 128,33.30094204,126.5835749,제주,야영장,,,정보없음,정보없음,정보없음,정보없음,정보없음,체험/레저,
KCLANPO23N000004701,가마해안도로,관광지,유명관광지,제주특별자치도 서귀포시 표선면 세화리 171-1,정보없음,33.30486274,126.8108962,남부지역,제주,유명관광지,,정보없음,정보없음,정보없음,정보없음,정보없음,관광명소,
KCLANPO23N000004703,고산해안도로,관광지,유명관광지,제주특별자치도 제주시 한경면 고산리 640332,노을해안로 1032-20,33.30629136,126.1642073,제주,바다 전망,유명관광지,,정보없음,정보없음,정보없음,정보없음,정보없음,관광명소,
KCLANPO23N000004738,하원동탐라왕자묘,관광지,왕릉/고분,제주특별자치도 서귀포시 하원동  13,정보없음,33.27775928,126.4712233,왕릉,제주,고분,,정보없음,정보없음,정보없음,정보없음,정보없음,역사/문화유산,
KCLANPO23N000004747,제주민속관광타운,관광지,유명관광지,제주특별자치도 제주시 일도이동  837-20,신산로 82,33.50576654,126.5342559,제주,유명관광지,,,정보없음,정보없음,정보없음,정보없음,정보없음,관광명소,
KCLANPO23N000004756,하늘여행행글라이더,관광지,일반관광지,제주특별자치도 서귀포시 안덕면 서광리 775,중산간서로 1877,33.28871324,126.3220846,일반관광지,제주,,,정보없음,정보없음,정보없음,정보없음,정보없음,관광명소,
KCLANPO23N000005274,녹나무자생지군락,관광지,천연기념물,제주특별자치도 서귀포시 도순동  209,중산간서로 330,33.25994636,126.478471,천연기념물,제주,,,정보없음,정보없음,정보없음,정보없음,정보없음,자연경관,
KCLANPO23N000005330,천제연난대림지대,관광지,천연기념물,제주특별자치도 서귀포시 중문동  2785,중문로105번길 37,33.27225329,126.4241381,천연기념물,제주,남부지역,,정보없음,정보없음,정보없음,정보없음,정보없음,자연경관,
KCLANPO23N000005359,범섬천연보호구역,관광지,천연기념물,제주특별자치도 서귀포시 서귀동  산4,정보없음,33.2263567,126.5663826,천연기념물,제주,,,정보없음,정보없음,정보없음,정보없음,정보없음,자연경관,
KCLANPO23N000005364,한란자생지,관광지,천연기념물,제주특별자치도 서귀포시 상효동  1616,정보없음,33.29929022,126.5845915,천연기념물,제주,,,정보없음,정보없음,정보없음,정보없음,정보없음,자연경관,
KCLANPO23N000005418,마라도잠수함,관광지,일반관광지,제주특별자치도 서귀포시 안덕면 사계리 2147-32,형제해안로 13,33.22807644,126.3053907,일반관광지,제주,바다 전망,,정보없음,정보없음,정보없음,정보없음,정보없음,관광명소,
KCLANPO23N000005419,더마파크,관광지,테마공원/대형놀이공원,제주특별자치도 제주시 한림읍 월림리 2364,월림7길 155,33.354272,126.2431023,대형놀이공원,제주,서부지역,테마공원,정보없음,정보없음,정보없음,정보없음,정보없음,체험/레저,
KCLANPO23N000005420,제주아트랜드,관광지,일반관광지,제주특별자치도 제주시 구좌읍 송당리 315571,번영로 2172-80,33.42343839,126.7434082,동부지역,일반관광지,제주,,정보없음,정보없음,정보없음,정보없음,정보없음,관광명소,
KCLANPO23N000005622,관음사,관광지,일반관광지,제주특별자치도 제주시 오등동  산180-3,산록북로 588,33.42219331,126.5495077,일반관광지,제주,,,정보없음,정보없음,정보없음,정보없음,정보없음,관광명소,
KCLANPO23N000005628,제주올레1,관광지,일반관광지,제주특별자치도 서귀포시 성산읍 시흥리 1214-4,시흥상동로 113,33.47847921,126.8959676,동부지역,일반관광지,제주,,정보없음,정보없음,정보없음,정보없음,정보없음,관광명소,
KCLANPO23N000005629,제주올레2,관광지,일반관광지,제주특별자치도 서귀포시 성산읍 고성리 224-1,일출로 88-19,33.45185012,126.9239448,동부지역,일반관광지,제주,,정보없음,정보없음,정보없음,정보없음,정보없음,관광명소,
KCLANPO23N000005630,제주올레3,관광지,일반관광지,제주특별자치도 서귀포시 성산읍 온평리 1001-2,정보없음,33.40235453,126.9027068,동부지역,일반관광지,제주,,정보없음,정보없음,정보없음,정보없음,정보없음,관광명소,
KCLANPO23N000005631,제주올레4,관광지,일반관광지,제주특별자치도 서귀포시 표선면 표선리 14885,민속해안로 566-1,33.32522716,126.8448381,남부지역,일반관광지,제주,바다 전망,정보없음,정보없음,정보없음,정보없음,정보없음,관광명소,
KCLANPO23N000005632,제주올레5,관광지,일반관광지,제주특별자치도 서귀포시 남원읍 남원리 128-6,정보없음,33.27753511,126.7182113,남부지역,일반관광지,제주,,정보없음,정보없음,정보없음,정보없음,정보없음,관광명소,
KCLANPO23N000005633,제주올레6,관광지,일반관광지,제주특별자치도 서귀포시 하효동  995,쇠소깍로 128,33.25225994,126.6230527,일반관광지,제주,,,정보없음,정보없음,정보없음,정보없음,정보없음,관광명소,
KCLANPO23N000005634,제주올레7,관광지,일반관광지,제주특별자치도 서귀포시 서홍동  784-3,남성로 56,33.24105508,126.5463899,일반관광지,제주,,,정보없음,정보없음,정보없음,정보없음,정보없음,관광명소,
KCLANPO23N000005635,제주올레8,관광지,일반관광지,제주특별자치도 서귀포시 월평동  671-1,말질로 471,33.23485333,126.4631506,일반관광지,제주,,,정보없음,정보없음,정보없음,정보없음,정보없음,관광명소,
KCLANPO23N000005636,제주올레9,관광지,일반관광지,제주특별자치도 서귀포시 안덕면 감산리 982-3,정보없음,33.237191,126.3614788,일반관광지,제주,,,정보없음,정보없음,정보없음,정보없음,정보없음,관광명소,
KCLANPO23N000005637,제주올레10,관광지,일반관광지,제주특별자치도 서귀포시 안덕면 화순리 823,화순중앙로 132,33.24049677,126.3348349,일반관광지,제주,,,정보없음,정보없음,정보없음,정보없음,정보없음,관광명소,
KCLANPO23N000005638,제주올레11,관광지,일반관광지,제주특별자치도 서귀포시 대정읍 하모리 694,최남단해안로 69,33.21429828,126.252713,일반관광지,제주,바다 전망,,정보없음,정보없음,정보없음,정보없음,정보없음,관광명소,
KCLANPO23N000005639,제주올레12,관광지,일반관광지,제주특별자치도 서귀포시 대정읍 무릉리 595-1,정보없음,33.27352589,126.2361333,일반관광지,제주,,,정보없음,정보없음,정보없음,정보없음,정보없음,관광명소,
KCLANPO23N000006211,제주라프,관광지,일반관광지,제주특별자치도 제주시 조천읍 선흘리 600-6,선교로 115-1,33.48675906,126.7069304,일반관광지,제주,,,정보없음,정보없음,정보없음,정보없음,정보없음,관광명소,
KCLANPO23N000006751,종달리전망대,관광지,일반관광지,제주특별자치도 제주시 구좌읍 종달리 451-5,정보없음,33.50308776,126.9130483,동부지역,일반관광지,제주,,정보없음,정보없음,정보없음,정보없음,정보없음,관광명소,
KCLANPO23N000007108,남원1리마을,관광지,팜스테이,제주특별자치도 서귀포시 남원읍 남원리 1539-2,남원체육관로221번길 19-16,33.28121261,126.7074177,남부지역,팜스테이,제주,,정보없음,정보없음,정보없음,정보없음,정보없음,체험/레저,
KCLANPO23N000007109,남원2리마을,관광지,팜스테이,제주특별자치도 서귀포시 남원읍 남원리 1012-6,정보없음,33.29291042,126.7099394,남부지역,팜스테이,제주,,정보없음,정보없음,정보없음,정보없음,정보없음,체험/레저,
KCLANPO23N000007113,가시마을,관광지,팜스테이,제주특별자치도 서귀포시 표선면 가시리 1303,가시로 612-26,33.35881086,126.7753992,남부지역,팜스테이,제주,,정보없음,정보없음,정보없음,정보없음,정보없음,체험/레저,
KCLANPO23N000007127,온평리마을,관광지,팜스테이,제주특별자치도 서귀포시 성산읍 온평리 840-1,온평애향로23번길 6,33.40812226,126.9001949,동부지역,팜스테이,제주,,정보없음,정보없음,정보없음,정보없음,정보없음,체험/레저,
KCLANPO23N000007737,태양을삼켜라세트장,관광지,드라마/영화촬영지,제주특별자치도 서귀포시 남원읍 위미리 산68-8,정보없음,33.32064622,126.6421255,남부지역,제주,드라마,영화촬영지,정보없음,정보없음,정보없음,정보없음,정보없음,체험/레저,
KCLANPO23N000007738,제주파머스,관광지,관광농원/허브마을,제주특별자치도 서귀포시 서호동  144-3,정보없음,33.24693761,126.5253423,허브마을,제주,관광농원,,정보없음,정보없음,정보없음,정보없음,정보없음,체험/레저,
KCLANPO23N000007741,제주올레13,관광지,일반관광지,제주특별자치도 제주시 한경면 용수리 855247,정보없음,33.32326312,126.1672897,일반관광지,제주,,,정보없음,정보없음,정보없음,정보없음,정보없음,관광명소,
KCLANPO23N000007742,제주올레14,관광지,일반관광지,제주특별자치도 제주시 한경면 저지리 1863-1,중산간서로 3675,33.33252218,126.2557382,일반관광지,제주,,,정보없음,정보없음,정보없음,정보없음,정보없음,관광명소,
KCLANPO23N000009816,두모연대,관광지,일반관광지,제주특별자치도 제주시 한경면 두모리 2605,정보없음,33.35751337,126.1818474,일반관광지,제주,,,정보없음,정보없음,정보없음,정보없음,정보없음,관광명소,
KCLANPO23N000009817,귀덕연대,관광지,일반관광지,제주특별자치도 제주시 한림읍 귀덕리 1118,귀덕14길 5월 14일,33.44203096,126.2934734,일반관광지,제주,서부지역,,정보없음,정보없음,정보없음,정보없음,정보없음,관광명소,
KCLANPO23N000009818,최영장군사당,관광지,서원/향교/서당,제주특별자치도 제주시 추자면 대서리 368,정보없음,33.96514778,126.2954202,향교,서당,제주,서원,정보없음,정보없음,정보없음,정보없음,정보없음,역사/문화유산,
KCLANPO23N000009819,곽지패총,관광지,유명사적/유적지,제주특별자치도 제주시 애월읍 곽지리 52232,정보없음,33.44599436,126.3070748,유명사적,제주,서부지역,유적지,정보없음,정보없음,정보없음,정보없음,정보없음,역사/문화유산,
KCLANPO23N000009820,애월연대,관광지,일반관광지,제주특별자치도 제주시 애월읍 애월리 1975,정보없음,33.46565729,126.3130605,일반관광지,제주,서부지역,,정보없음,정보없음,정보없음,정보없음,정보없음,관광명소,
KCLANPO23N000009821,납읍난대림지대,관광지,유명사적/유적지,제주특별자치도 제주시 애월읍 납읍리 1457-1,정보없음,33.43433437,126.3302605,유명사적,제주,서부지역,유적지,정보없음,정보없음,정보없음,정보없음,정보없음,역사/문화유산,
KCLANPO23N000009822,남두연대,관광지,일반관광지,제주특별자치도 제주시 애월읍 신엄리 321415,정보없음,33.4792219,126.3584559,일반관광지,제주,서부지역,,정보없음,정보없음,정보없음,정보없음,정보없음,관광명소,
KCLANPO23N000009823,당포연대,관광지,일반관광지,제주특별자치도 서귀포시 하예동  1729,정보없음,33.23411624,126.3766079,일반관광지,제주,,,정보없음,정보없음,정보없음,정보없음,정보없음,관광명소,
KCLANPO23N000009824,대포연대,관광지,일반관광지,제주특별자치도 서귀포시 대포동  2519,정보없음,33.2365913,126.4318165,일반관광지,제주,,,정보없음,정보없음,정보없음,정보없음,정보없음,관광명소,
KCLANPO23N000009825,선사무덤,관광지,유명사적/유적지,제주특별자치도 제주시 용담이동  741,정보없음,33.50302597,126.5026643,유명사적,제주,유적지,,정보없음,정보없음,정보없음,정보없음,정보없음,역사/문화유산,
KCLANPO23N000009826,서귀포층의패류화석,관광지,유명사적/유적지,제주특별자치도 서귀포시 서홍동  707,남성중로 43,33.23979221,126.5582441,유명사적,제주,유적지,,정보없음,정보없음,정보없음,정보없음,정보없음,역사/문화유산,
KCLANPO23N000009827,신촌향사,관광지,서원/향교/서당,제주특별자치도 제주시 조천읍 신촌리 93504,신촌5길 27,33.53644148,126.620534,향교,서당,제주,서원,정보없음,정보없음,정보없음,정보없음,정보없음,역사/문화유산,
KCLANPO23N000009828,함덕연대,관광지,일반관광지,제주특별자치도 제주시 조천읍 함덕리 92043,정보없음,33.5245697,126.6565029,일반관광지,제주,,,정보없음,정보없음,정보없음,정보없음,정보없음,관광명소,
KCLANPO23N000009829,위미동백나무군락,관광지,유명사적/유적지,제주특별자치도 서귀포시 남원읍 위미리 904-3,위미중앙로300번길 15,33.27297879,126.6748717,유명사적,남부지역,제주,유적지,정보없음,정보없음,정보없음,정보없음,정보없음,역사/문화유산,
KCLANPO23N000009830,북촌리선사주거지유적,관광지,유명사적/유적지,제주특별자치도 제주시 조천읍 북촌리 275,정보없음,33.54748425,126.7001781,유명사적,제주,유적지,,정보없음,정보없음,정보없음,정보없음,정보없음,역사/문화유산,
KCLANPO23N000009831,동백나무군락,관광지,유명사적/유적지,제주특별자치도 서귀포시 남원읍 신흥리 1159,정보없음,33.33044297,126.7523407,유명사적,남부지역,제주,유적지,정보없음,정보없음,정보없음,정보없음,정보없음,역사/문화유산,
KCLANPO23N000009832,당처물동굴,관광지,일반관광지,제주특별자치도 제주시 구좌읍 월정리 1457,정보없음,33.55708868,126.7847735,동부지역,일반관광지,제주,,정보없음,정보없음,정보없음,정보없음,정보없음,관광명소,
KCLANPO23N000009833,조일훈가옥,관광지,고택/생가/민속마을,제주특별자치도 서귀포시 표선면 성읍리 872,성읍정의현로34번길 32,33.38683361,126.8017709,민속마을,고택,남부지역,제주,정보없음,정보없음,정보없음,정보없음,정보없음,역사/문화유산,생가
KCLANPO23N000009834,고상은가옥,관광지,고택/생가/민속마을,제주특별자치도 서귀포시 표선면 성읍리 862,성읍정의현로34번길 5월 6일,33.3862785,126.8018586,민속마을,고택,남부지역,제주,정보없음,정보없음,정보없음,정보없음,정보없음,역사/문화유산,생가
KCLANPO23N000009835,한봉일가옥,관광지,고택/생가/민속마을,제주특별자치도 서귀포시 표선면 성읍리 928,성읍정의현로34번길 10월 22일,33.38715023,126.8033025,민속마을,고택,남부지역,제주,정보없음,정보없음,정보없음,정보없음,정보없음,역사/문화유산,생가
KCLANPO23N000009836,좌가연대,관광지,일반관광지,제주특별자치도 제주시 구좌읍 한동리 1683-1,정보없음,33.54986313,126.8255775,동부지역,일반관광지,제주,,정보없음,정보없음,정보없음,정보없음,정보없음,관광명소,
KCLANPO23N000009837,천미연대,관광지,일반관광지,제주특별자치도 서귀포시 성산읍 신천리 280,정보없음,33.34399172,126.8513958,동부지역,일반관광지,제주,,정보없음,정보없음,정보없음,정보없음,정보없음,관광명소,
KCLANPO23N000009838,말등포연대,관광지,일반관광지,제주특별자치도 서귀포시 성산읍 온평리 1355-1,정보없음,33.39567497,126.8961454,동부지역,일반관광지,제주,,정보없음,정보없음,정보없음,정보없음,정보없음,관광명소,
KCLANPO23N000009839,오소포연대,관광지,일반관광지,제주특별자치도 서귀포시 성산읍 오조리 392,정보없음,33.47163157,126.9164639,동부지역,일반관광지,제주,,정보없음,정보없음,정보없음,정보없음,정보없음,관광명소,
KCLANPO23N000009843,제주들불축제,관광지,지역축제,제주특별자치도 제주시 애월읍 봉성리 산59-8,정보없음,33.36589371,126.3572923,제주,서부지역,지역축제,,정보없음,정보없음,정보없음,정보없음,정보없음,지역문화/이벤트,
KCLANPO23N000009844,왕벚꽃축제,관광지,지역축제,제주특별자치도 제주시 용담일동  1227-3,정보없음,33.50444393,126.51454,제주,지역축제,,,정보없음,정보없음,정보없음,정보없음,정보없음,지역문화/이벤트,
KCLANPO23N000009845,제주유채꽃잔치,관광지,지역축제,제주특별자치도 서귀포시 중문동  2509,정보없음,33.24364481,126.4248738,남부지역,제주,지역축제,,정보없음,정보없음,정보없음,정보없음,정보없음,지역문화/이벤트,
KCLANPO23N000009899,정낭,관광지,유명관광지,제주특별자치도 서귀포시 표선면 성읍리 191755,번영로 2570,33.40306377,126.7807155,남부지역,제주,유명관광지,,정보없음,정보없음,정보없음,정보없음,정보없음,관광명소,
KCLANPO23N000009906,초콜릿뮤지움,관광지,일반관광지,제주특별자치도 서귀포시 대정읍 가파리 685,마라로 113,33.11415403,126.2673331,일반관광지,제주,,,정보없음,정보없음,정보없음,정보없음,정보없음,관광명소,
KCLANPO23N000009913,마라도등대,관광지,일반관광지,제주특별자치도 서귀포시 대정읍 가파리 639,마라로 165,33.11665453,126.2694847,일반관광지,제주,,,정보없음,정보없음,정보없음,정보없음,정보없음,관광명소,
KCLANPO23N000010016,이상한나라의앨리스,관광지,일반관광지,제주특별자치도 서귀포시 안덕면 서광리 717-3,중산간서로 1881,33.28893247,126.321797,일반관광지,제주,,,정보없음,정보없음,정보없음,정보없음,정보없음,관광명소,
KCLANPO23N000010018,제주카트체험장,관광지,일반관광지,제주특별자치도 제주시 한림읍 월림리 341-2,중산간서로 3853,33.34780209,126.2559044,일반관광지,제주,서부지역,,정보없음,정보없음,정보없음,정보없음,정보없음,관광명소,
KCLANPO23N000010020,제주올레15,관광지,일반관광지,제주특별자치도 제주시 애월읍 고내리 1156-4,정보없음,33.46726493,126.3375376,일반관광지,제주,서부지역,,정보없음,정보없음,정보없음,정보없음,정보없음,관광명소,
KCLANPO23N000010022,제주올레16,관광지,일반관광지,제주특별자치도 제주시 한림읍 한림리 1377-45,한림해안로 81,33.41250359,126.2559551,일반관광지,제주,서부지역,바다 전망,정보없음,정보없음,정보없음,정보없음,정보없음,관광명소,
KCLANPO23N000010063,하효쇠소깍해수욕장,관광지,해수욕장,제주특별자치도 서귀포시 하효동  ,정보없음,33.25122227,126.6227513,해수욕장,제주,,,정보없음,정보없음,정보없음,정보없음,정보없음,바다,
KCLANPO23N000010173,아흔아홉골,관광지,폭포/계곡,제주특별자치도 제주시 노형동  산17-5,정보없음,33.41607706,126.4889775,폭포,계곡,제주,,정보없음,정보없음,정보없음,정보없음,정보없음,산,
KCLANPO23N000010205,인생은아름다워촬영지,관광지,드라마/영화촬영지,제주특별자치도 서귀포시 대정읍 상모리 170-3,정보없음,33.20577961,126.2889489,제주,드라마,영화촬영지,,정보없음,정보없음,정보없음,정보없음,정보없음,체험/레저,
KCLANPO23N000010206,쇠소깍관광지,관광지,일반관광지,제주특별자치도 서귀포시 하효동  990-4,정보없음,33.25206717,126.623293,일반관광지,제주,,,정보없음,정보없음,정보없음,정보없음,정보없음,관광명소,
KCLANPO23N000010209,카멜리아힐,관광지,식물원,제주특별자치도 서귀포시 안덕면 상창리 271,병악로 166,33.29036819,126.3696757,제주,식물원,,,정보없음,정보없음,정보없음,정보없음,정보없음,자연경관,
KCLANPO23N000010246,돈내코코스,관광지,관광안내소/매표소,제주특별자치도 서귀포시 상효동  산35-5,정보없음,33.31246628,126.5740459,매표소,제주,관광안내소,,정보없음,정보없음,정보없음,정보없음,정보없음,관광안내소/매표소,
KCLANPO23N000010333,제주승마공원,관광지,일반관광지,제주특별자치도 제주시 애월읍 유수암리 1175,녹고메길 152-1,33.40560634,126.4064859,일반관광지,제주,서부지역,,정보없음,정보없음,정보없음,정보없음,정보없음,관광명소,
KCLANPO23N000010343,우도도항선매표소,관광지,관광안내소/매표소,제주특별자치도 제주시 우도면 연평리 180856,우도해안길 352,33.50957062,126.9434842,매표소,제주,관광안내소,바다 전망,정보없음,정보없음,정보없음,정보없음,정보없음,관광안내소/매표소,
KCLANPO23N000010344,우도관광버스매표소,관광지,관광안내소/매표소,제주특별자치도 제주시 우도면 연평리 176900,우도해안길 354,33.50974796,126.943469,매표소,제주,관광안내소,바다 전망,정보없음,정보없음,정보없음,정보없음,정보없음,관광안내소/매표소,
KCLANPO23N000010383,라이크농원,관광지,관광농원/허브마을,제주특별자치도 제주시 구좌읍 송당리 1396-3,송당7길 15,33.47194403,126.7878505,허브마을,제주,동부지역,관광농원,정보없음,정보없음,정보없음,정보없음,정보없음,체험/레저,
KCLANPO23N000010395,안돌정보화마을,관광지,정보화마을,제주특별자치도 제주시 구좌읍 송당리 산66-2,정보없음,33.45696206,126.7545744,동부지역,제주,정보화마을,,정보없음,정보없음,정보없음,정보없음,정보없음,지역문화/이벤트,
KCLANPO23N000010405,설문대할망테마공원,관광지,일반관광지,제주특별자치도 서귀포시 성산읍 신풍리 1292,남산봉로 83-40,33.36736102,126.8282409,동부지역,일반관광지,제주,,정보없음,정보없음,정보없음,정보없음,정보없음,관광명소,
KCLANPO23N000010407,가뫼물제주농촌생태공원,관광지,관광농원/허브마을,제주특별자치도 서귀포시 남원읍 남원리 87812,남위남성로 168,33.29019558,126.6931993,허브마을,남부지역,제주,관광농원,정보없음,정보없음,정보없음,정보없음,정보없음,체험/레저,
KCLANPO23N000010419,용천동굴,관광지,유명사적/유적지,제주특별자치도 제주시 구좌읍 월정리 1837-1,정보없음,33.54814322,126.7780861,유명사적,제주,동부지역,유적지,정보없음,정보없음,정보없음,정보없음,정보없음,역사/문화유산,
KCLANPO23N000010454,하도철새탐조대,관광지,일반관광지,제주특별자치도 제주시 구좌읍 하도리 53-66,정보없음,33.51207934,126.8965269,동부지역,일반관광지,제주,,정보없음,정보없음,정보없음,정보없음,정보없음,관광명소,
KCLANPO23N000010456,덕천관광한농원,관광지,관광농원/허브마을,제주특별자치도 제주시 구좌읍 덕천리 200,덕평로 394,33.50120117,126.7742839,허브마을,제주,동부지역,관광농원,정보없음,정보없음,정보없음,정보없음,정보없음,체험/레저,
KCLANPO23N000010457,서가름,관광지,고택/생가/민속마을,제주특별자치도 서귀포시 표선면 성읍리 1468-10,중산간동로 4678,33.38921017,126.7959764,민속마을,고택,남부지역,제주,정보없음,정보없음,정보없음,정보없음,정보없음,역사/문화유산,생가
KCLANPO23N000010485,점보빌리지,관광지,일반관광지,제주특별자치도 서귀포시 안덕면 서광리 2351,평화로319번길 Nov.31,33.27622489,126.3051417,일반관광지,제주,,,정보없음,정보없음,정보없음,정보없음,정보없음,관광명소,
KCLANPO23N000010514,녹차테마파크,관광지,일반유원지/일반놀이공원,제주특별자치도 제주시 조천읍 선흘리 1696,정보없음,33.48490578,126.7070734,일반유원지,제주,일반놀이공원,,정보없음,정보없음,정보없음,정보없음,정보없음,체험/레저,
KCLANPO23N000010515,에코랜드테마파크,관광지,일반유원지/일반놀이공원,제주특별자치도 제주시 조천읍 교래리 385-1,번영로 1278-169,33.44759341,126.6695281,일반유원지,제주,일반놀이공원,,정보없음,정보없음,정보없음,정보없음,정보없음,체험/레저,
KCLANPO23N000010667,캐릭파크,관광지,일반유원지/일반놀이공원,제주특별자치도 제주시 조천읍 선흘리 2019,선교로 264,33.47958591,126.7005316,일반유원지,제주,일반놀이공원,,정보없음,정보없음,정보없음,정보없음,정보없음,체험/레저,
KCLANPO23N000010757,동쪽송당,관광지,테마공원/대형놀이공원,제주특별자치도 제주시 구좌읍 송당리 268514,비자림로 1189,33.43604579,126.7311953,동부지역,대형놀이공원,제주,테마공원,정보없음,정보없음,정보없음,정보없음,정보없음,체험/레저,
KCLANPO23N000010772,교래여행안내소,관광지,관광안내소/매표소,제주특별자치도 제주시 조천읍 교래리 285-1,정보없음,33.4284728,126.6731182,매표소,제주,관광안내소,,정보없음,정보없음,정보없음,정보없음,정보없음,관광안내소/매표소,
KCLANPO23N000010804,흑돼지거리,관광지,먹거리/패션거리,제주특별자치도 제주시 일도일동  1272-4,정보없음,33.51538002,126.5267997,패션거리,먹거리,제주,,정보없음,정보없음,정보없음,정보없음,정보없음,기타,
KCLANPO23N000010816,메이즈랜드,관광지,일반유원지/일반놀이공원,제주특별자치도 제주시 구좌읍 평대리 3322,비자림로 2134-47,33.48796618,126.8012364,동부지역,일반유원지,제주,일반놀이공원,정보없음,정보없음,정보없음,정보없음,정보없음,체험/레저,
KCLANPO23N000010837,516도로숲터널,관광지,일반관광지,제주특별자치도 서귀포시 남원읍 신례리 산2-17,정보없음,33.36794889,126.6244952,남부지역,일반관광지,제주,,정보없음,정보없음,정보없음,정보없음,정보없음,관광명소,
KCLANPO23N000010947,제주웰컴센터,관광지,관광안내소/매표소,제주특별자치도 제주시 연동  313-105,선덕로 23,33.48623293,126.4995232,매표소,제주,관광안내소,,정보없음,정보없음,정보없음,정보없음,정보없음,관광안내소/매표소,
KCLANPO23N000011079,서귀포종합관광안내소,관광지,관광안내소/매표소,제주특별자치도 서귀포시 서홍동  669,남성중로 2월 13일,33.2445287,126.5597182,매표소,제주,관광안내소,,정보없음,정보없음,정보없음,정보없음,정보없음,관광안내소/매표소,
KCLANPO23N000011161,펀테마파크,관광지,일반관광지,제주특별자치도 제주시 조천읍 선흘리 43586,선교로 266-4,33.47895963,126.7006885,일반관광지,제주,,,정보없음,정보없음,정보없음,정보없음,정보없음,관광명소,
KCLANPO23N000011541,피엔제이농원,관광지,팜스테이,제주특별자치도 제주시 내도동  467-1,내도중길 26,33.49584174,126.4416438,팜스테이,제주,,,정보없음,정보없음,정보없음,정보없음,정보없음,체험/레저,
KCLANPO23N000011964,상효원,관광지,식물원,제주특별자치도 서귀포시 상효동  산25,산록남로 2847-37,33.30720382,126.5860374,제주,식물원,,,정보없음,정보없음,정보없음,정보없음,정보없음,자연경관,
KCLANPO23N000012046,농원목장,관광지,관광농원/허브마을,제주특별자치도 제주시 월평동  155,첨단동길 160-20,33.45478212,126.5860819,허브마을,제주,관광농원,,정보없음,정보없음,정보없음,정보없음,정보없음,체험/레저,
KCLANPO23N000012307,재릉종합관광정보센터,관광지,관광안내소/매표소,제주특별자치도 제주시 한림읍 금능리 2016,한림로 299,33.39100217,126.2378367,매표소,서부지역,제주,관광안내소,정보없음,정보없음,정보없음,정보없음,정보없음,관광안내소/매표소,
KCLANPO23N000012430,레포츠랜드,관광지,일반관광지,제주특별자치도 제주시 조천읍 와흘리 870,와흘상서2길 47,33.48203189,126.6387484,일반관광지,제주,,,정보없음,정보없음,정보없음,정보없음,정보없음,관광명소,
KCLANPO23N000012482,탐라농장,관광지,관광농원/허브마을,제주특별자치도 제주시 노형동  286-1,1100로 3001,33.45488629,126.4867254,허브마을,제주,관광농원,,정보없음,정보없음,정보없음,정보없음,정보없음,체험/레저,
KCLANPO23N000013417,김녕해수욕장야영장,관광지,야영장,제주특별자치도 제주시 구좌읍 김녕리 488,정보없음,33.55805218,126.761662,동부지역,제주,야영장,,정보없음,정보없음,정보없음,정보없음,정보없음,체험/레저,
KCLANPO23N000013466,제주올레17,관광지,일반관광지,제주특별자치도 제주시 애월읍 광령리 1271-1,광성로 302,33.46083971,126.4393658,일반관광지,제주,서부지역,,정보없음,정보없음,정보없음,정보없음,정보없음,관광명소,
KCLANPO23N000013467,제주올레18,관광지,일반관광지,제주특별자치도 제주시 일도일동  1498,정보없음,33.51315376,126.527134,일반관광지,제주,,,정보없음,정보없음,정보없음,정보없음,정보없음,관광명소,
KCLANPO23N000013499,무수천,관광지,폭포/계곡,제주특별자치도 제주시 애월읍 광령리 4228,정보없음,33.46118483,126.4476896,폭포,계곡,제주,서부지역,정보없음,정보없음,정보없음,정보없음,정보없음,산,
KCLANPO23N000013533,최남단농촌체험테마공원,관광지,관광농원/허브마을,제주특별자치도 서귀포시 남원읍 남원리 2019,남위남성로 164,33.28994088,126.6936314,허브마을,남부지역,제주,관광농원,정보없음,정보없음,정보없음,정보없음,정보없음,체험/레저,
KCLANPO23N000013763,토이파크,관광지,일반관광지,제주특별자치도 서귀포시 안덕면 동광리 383,동광로 267-7,33.31897704,126.3453865,일반관광지,제주,,,정보없음,정보없음,정보없음,정보없음,정보없음,관광명소,
KCLANPO23N000013785,백록담흰사슴테마파크,관광지,일반관광지,제주특별자치도 서귀포시 안덕면 서광리 164,화순서동로 347,33.28178929,126.3316884,일반관광지,제주,,,정보없음,정보없음,정보없음,정보없음,정보없음,관광명소,
KCLANPO23N000013786,수목원테마파크,관광지,일반관광지,제주특별자치도 제주시 연동  1326,은수길 65,33.4707498,126.4874201,일반관광지,제주,,,정보없음,정보없음,정보없음,정보없음,정보없음,관광명소,
KCLANPO23N000013787,아쿠아플라넷,관광지,아쿠아리움/대형수족관,제주특별자치도 서귀포시 성산읍 고성리 127-3,섭지코지로 95,33.43290634,126.9276251,동부지역,제주,아쿠아리움,대형수족관,정보없음,정보없음,정보없음,정보없음,정보없음,체험/레저,
KCLANPO23N000013788,노리매공원,관광지,일반관광지,제주특별자치도 서귀포시 대정읍 구억리 654-1,중산간서로 2260-15,33.28288252,126.2869693,일반관광지,제주,,,정보없음,정보없음,정보없음,정보없음,정보없음,관광명소,
KCLANPO23N000013791,한라산탐방로1,관광지,일반관광지,제주특별자치도 제주시 오등동  산180-4,산록북로 585,33.42251756,126.5492616,일반관광지,제주,,,정보없음,정보없음,정보없음,정보없음,정보없음,관광명소,
KCLANPO23N000013792,한라산탐방로2,관광지,일반관광지,제주특별자치도 서귀포시 하원동  산1-1,영실로 497,33.3483562,126.4965848,일반관광지,제주,,,정보없음,정보없음,정보없음,정보없음,정보없음,관광명소,
KCLANPO23N000013793,한라산탐방로3,관광지,일반관광지,제주특별자치도 서귀포시 상효동  2071,정보없음,33.31057812,126.5709255,일반관광지,제주,,,정보없음,정보없음,정보없음,정보없음,정보없음,관광명소,
KCLANPO23N000013808,환상숲곶자왈공원,관광지,일반관광지,제주특별자치도 제주시 한경면 저지리 346557,정보없음,33.3228818,126.2631248,일반관광지,제주,,,정보없음,정보없음,정보없음,정보없음,정보없음,관광명소,
KCLANPO23N000013926,제주월드컵경기장,관광지,관광안내소/매표소,제주특별자치도 서귀포시 법환동  914,월드컵로 33,33.24837978,126.510648,매표소,제주,관광안내소,,정보없음,정보없음,정보없음,정보없음,정보없음,관광안내소/매표소,
KCLANPO23N000013956,서부두명품횟집거리,관광지,먹거리/패션거리,제주특별자치도 제주시 건입동  1445,정보없음,33.51667281,126.5276929,패션거리,먹거리,제주,,정보없음,정보없음,정보없음,정보없음,정보없음,기타,
KCLANPO23N000013957,국수문화거리,관광지,먹거리/패션거리,제주특별자치도 제주시 일도이동  1050-1,정보없음,33.50658101,126.5300025,패션거리,먹거리,제주,,정보없음,정보없음,정보없음,정보없음,정보없음,기타,
KCLANPO23N000013958,칠성로상점가,관광지,먹거리/패션거리,제주특별자치도 제주시 일도일동  1461-8,정보없음,33.51325106,126.5254002,패션거리,먹거리,제주,,정보없음,정보없음,정보없음,정보없음,정보없음,기타,
KCLANPO23N000013959,방어축제거리,관광지,먹거리/패션거리,제주특별자치도 서귀포시 대정읍 하모리 2121,정보없음,33.22030743,126.2516445,패션거리,먹거리,제주,,정보없음,정보없음,정보없음,정보없음,정보없음,기타,
KCLANPO23N000013960,칠십리음식특화거리,관광지,먹거리/패션거리,제주특별자치도 서귀포시 서귀동  25628,정보없음,33.24396502,126.5688347,패션거리,먹거리,제주,,정보없음,정보없음,정보없음,정보없음,정보없음,기타,
KCLANPO23N000013961,아랑조을거리,관광지,먹거리/패션거리,제주특별자치도 서귀포시 서귀동  337,정보없음,33.25021979,126.5586143,패션거리,먹거리,제주,,정보없음,정보없음,정보없음,정보없음,정보없음,기타,
KCLANPO23N000013962,명동로이중섭거리,관광지,먹거리/패션거리,제주특별자치도 서귀포시 서귀동  426-4,정보없음,33.24800148,126.5639854,패션거리,먹거리,제주,,정보없음,정보없음,정보없음,정보없음,정보없음,기타,
KCLANPO23N000013966,월정리해수욕장,관광지,해수욕장,제주특별자치도 제주시 구좌읍 월정리 ,정보없음,33.55580871,126.79654,동부지역,해수욕장,제주,,정보없음,정보없음,정보없음,정보없음,정보없음,바다,
KCLANPO23N000013994,건축학개론촬영지,관광지,드라마/영화촬영지,제주특별자치도 서귀포시 남원읍 위미리 2975,위미해안로 86,33.26941811,126.6555925,드라마,영화촬영지,남부지역,제주,정보없음,정보없음,정보없음,정보없음,정보없음,체험/레저,바다 전망
KCLANPO23N000013995,비자림매표소,관광지,관광안내소/매표소,제주특별자치도 제주시 구좌읍 평대리 460573,비자숲길 55,33.49095444,126.81068,동부지역,매표소,제주,관광안내소,정보없음,정보없음,정보없음,정보없음,정보없음,관광안내소/매표소,
KCLANPO23N000014027,원앙폭포,관광지,폭포/계곡,제주특별자치도 서귀포시 상효동  산156,정보없음,33.30010266,126.5811049,폭포,계곡,제주,,정보없음,정보없음,정보없음,정보없음,정보없음,산,
KCLANPO23N000014168,와흘본향당,관광지,유명사적/유적지,제주특별자치도 제주시 조천읍 와흘리 1274-1,정보없음,33.50231479,126.6389986,유명사적,제주,유적지,,정보없음,정보없음,정보없음,정보없음,정보없음,역사/문화유산,
KCLANPO23N000014182,두멩이골목,관광지,일반관광지,제주특별자치도 제주시 일도이동  995-6,동문로14길 1월 16일,33.51216954,126.5332795,일반관광지,제주,,,정보없음,정보없음,정보없음,정보없음,정보없음,관광명소,
KCLANPO23N000014183,서귀다원,관광지,관광농원/허브마을,제주특별자치도 서귀포시 상효동  1155-17,516로 717,33.31213232,126.5969285,허브마을,제주,관광농원,,정보없음,정보없음,정보없음,정보없음,정보없음,체험/레저,
KCLANPO23N000014193,제주민속자연사박물관매표소,관광지,관광안내소/매표소,제주특별자치도 제주시 일도이동  996-1,삼성로 40,33.50591914,126.53063,매표소,제주,관광안내소,,정보없음,정보없음,정보없음,정보없음,정보없음,관광안내소/매표소,
KCLANPO23N000014257,서귀포자연휴양림매표소,관광지,관광안내소/매표소,제주특별자치도 서귀포시 대포동  산1-8,1100로 882,33.31144727,126.458742,매표소,제주,관광안내소,,정보없음,정보없음,정보없음,정보없음,정보없음,관광안내소/매표소,
KCLANPO23N000014636,홍익수목원,관광지,휴양림/수목원,제주특별자치도 서귀포시 남원읍 신례리 1750,신례동로 166,33.30106732,126.6327257,남부지역,휴양림,제주,수목원,정보없음,정보없음,정보없음,정보없음,정보없음,자연경관,
KCLANPO23N000014709,방선문계곡,관광지,폭포/계곡,제주특별자치도 제주시 오라이동  701206,정보없음,33.45231863,126.5178155,폭포,계곡,제주,,정보없음,정보없음,정보없음,정보없음,정보없음,산,
KCLANPO23N000014758,중문관광단지,관광지,유명관광지,제주특별자치도 서귀포시 색달동  240332,중문관광로 38,33.2548394,126.4137805,제주,유명관광지,,,정보없음,정보없음,정보없음,정보없음,정보없음,관광명소,
KCLANPO23N000014762,표선해비치해변야영장,관광지,야영장,제주특별자치도 서귀포시 표선면 표선리 16163,민속해안로 620,33.32566208,126.8405236,남부지역,제주,야영장,바다 전망,정보없음,정보없음,정보없음,정보없음,정보없음,체험/레저,
KCLANPO23N000014821,서귀포감귤박물관아열대식물원,관광지,식물원,제주특별자치도 서귀포시 신효동  1201-3,정보없음,33.27252581,126.6084541,제주,식물원,,,정보없음,정보없음,정보없음,정보없음,정보없음,자연경관,
KCLANPO23N000014849,붉은오름자연휴양림,관광지,휴양림/수목원,제주특별자치도 서귀포시 표선면 가시리 산158,남조로 1487-73,33.40175444,126.6753684,남부지역,휴양림,제주,수목원,정보없음,정보없음,정보없음,정보없음,정보없음,자연경관,
KCLANPO23N000015002,송당본향당,관광지,일반관광지,제주특별자치도 제주시 구좌읍 송당리 산199-1,정보없음,33.46842699,126.7757082,동부지역,일반관광지,제주,,정보없음,정보없음,정보없음,정보없음,정보없음,관광명소,
KCLANPO23N000015056,갤러리전망대,관광지,일반관광지,제주특별자치도 서귀포시 호근동  310-1,정보없음,33.24465051,126.5434507,일반관광지,제주,,,정보없음,정보없음,정보없음,정보없음,정보없음,관광명소,
KCLANPO23N000015074,섭지코지자연공원,관광지,일반관광지,제주특별자치도 서귀포시 성산읍 고성리 140,정보없음,33.42879776,126.9295858,동부지역,일반관광지,제주,,정보없음,정보없음,정보없음,정보없음,정보없음,관광명소,
KCLANPO23N000015107,이레다원캠핑장,관광지,캠핑장,제주특별자치도 제주시 조천읍 와흘리 523,대와상길 104-42,33.49849807,126.6414095,제주,캠핑장,,,정보없음,정보없음,정보없음,정보없음,정보없음,체험/레저,
KCLANPO23N000015162,인어공주촬영지,관광지,드라마/영화촬영지,제주특별자치도 제주시 우도면 연평리 307,정보없음,33.49898631,126.9698857,제주,드라마,영화촬영지,,정보없음,정보없음,정보없음,정보없음,정보없음,체험/레저,
KCLANPO23N000015197,올레바당체험마을,관광지,일반관광지,제주특별자치도 제주시 한림읍 수원리 724-5,정보없음,33.42508259,126.264321,일반관광지,제주,서부지역,,정보없음,정보없음,정보없음,정보없음,정보없음,관광명소,
KCLANPO23N000015214,이중섭문화거리,관광지,먹거리/패션거리,제주특별자치도 서귀포시 서귀동  512-2,정보없음,33.24547423,126.5642886,패션거리,먹거리,제주,,정보없음,정보없음,정보없음,정보없음,정보없음,기타,
KCLANPO23N000015258,제주코코몽에코파크,관광지,테마공원/대형놀이공원,제주특별자치도 서귀포시 남원읍 남원리 2380,태위로 536,33.27456701,126.7062825,남부지역,대형놀이공원,제주,테마공원,정보없음,정보없음,정보없음,정보없음,정보없음,체험/레저,
KCLANPO23N000015259,중문랜드,관광지,일반관광지,제주특별자치도 서귀포시 상예동  2802,소보리당로164번길 62,33.2637098,126.3857578,일반관광지,제주,,,정보없음,정보없음,정보없음,정보없음,정보없음,관광명소,
KCLANPO23N000015331,박수기정,관광지,일반관광지,제주특별자치도 서귀포시 안덕면 감산리 982-2,정보없음,33.23719491,126.3613547,일반관광지,제주,,,정보없음,정보없음,정보없음,정보없음,정보없음,관광명소,
KCLANPO23N000015366,글라스힐링파크,관광지,일반관광지,제주특별자치도 제주시 노형동  242-1,1100로 3049,33.45840302,126.485025,일반관광지,제주,,,정보없음,정보없음,정보없음,정보없음,정보없음,관광명소,
KCLANPO23N000015368,레일바이크,관광지,일반관광지,제주특별자치도 제주시 구좌읍 종달리 4639,용눈이오름로 641,33.46433128,126.836623,동부지역,일반관광지,제주,,정보없음,정보없음,정보없음,정보없음,정보없음,관광명소,
KCLANPO23N000015369,제주올레19,관광지,일반관광지,제주특별자치도 제주시 조천읍 조천리 1156,신북로 303,33.53981728,126.6419385,일반관광지,제주,,,정보없음,정보없음,정보없음,정보없음,정보없음,관광명소,
KCLANPO23N000015370,제주올레20,관광지,일반관광지,제주특별자치도 제주시 구좌읍 김녕리 4074,정보없음,33.55742098,126.744984,동부지역,일반관광지,제주,,정보없음,정보없음,정보없음,정보없음,정보없음,관광명소,
KCLANPO23N000015371,제주올레21,관광지,일반관광지,제주특별자치도 제주시 구좌읍 세화리 45659,해녀박물관길 19,33.52267703,126.862576,동부지역,일반관광지,제주,,정보없음,정보없음,정보없음,정보없음,정보없음,관광명소,
KCLANPO23N000015425,상추자전망대,관광지,일반관광지,제주특별자치도 제주시 추자면 대서리 산175,정보없음,33.96394239,126.2901692,일반관광지,제주,,,정보없음,정보없음,정보없음,정보없음,정보없음,관광명소,
KCLANPO23N000015461,도두잠수함,관광지,일반관광지,제주특별자치도 제주시 도두일동  257498,도두항길 26,33.50682008,126.4669776,일반관광지,제주,,,정보없음,정보없음,정보없음,정보없음,정보없음,관광명소,
KCLANPO23N000015526,김경숙해바라기,관광지,일반관광지,제주특별자치도 제주시 회천동  391,번영로 854-1,33.47741813,126.6275884,일반관광지,제주,,,정보없음,정보없음,정보없음,정보없음,정보없음,관광명소,
KCLANPO23N000015527,정방폭포관광안내소,관광지,관광안내소/매표소,제주특별자치도 서귀포시 동홍동  279-7,칠십리로214번길 31,33.24476464,126.573732,매표소,제주,관광안내소,,정보없음,정보없음,정보없음,정보없음,정보없음,관광안내소/매표소,
KCLANPO23N000015660,별내린전망대,관광지,일반관광지,제주특별자치도 서귀포시 색달동  379124,정보없음,33.24765639,126.4167389,일반관광지,제주,,,정보없음,정보없음,정보없음,정보없음,정보없음,관광명소,
KCLANPO23N000015670,제주김성룡승마트래킹,관광지,일반관광지,제주특별자치도 제주시 애월읍 유수암리 888,정보없음,33.43085327,126.4072408,일반관광지,제주,서부지역,,정보없음,정보없음,정보없음,정보없음,정보없음,관광명소,
KCLANPO23N000015680,잉개정자,관광지,일반관광지,제주특별자치도 서귀포시 대정읍 가파리 570-4,가파로 44,33.16464023,126.2718111,일반관광지,제주,,,정보없음,정보없음,정보없음,정보없음,정보없음,관광명소,
KCLANPO23N000015734,제주디엠씨,관광지,관광안내소/매표소,제주특별자치도 제주시 연동  271-3,신광로 17,33.49060366,126.4904019,매표소,제주,관광안내소,,정보없음,정보없음,정보없음,정보없음,정보없음,관광안내소/매표소,
KCLANPO23N000015735,한마음체험농원,관광지,관광농원/허브마을,제주특별자치도 서귀포시 성산읍 수산리 278,서성일로 1063,33.44415254,126.8922688,허브마을,제주,동부지역,관광농원,정보없음,정보없음,정보없음,정보없음,정보없음,체험/레저,
KCLANPO23N000015736,한담해변,관광지,해수욕장,제주특별자치도 제주시 애월읍 애월리 ,정보없음,33.46221429,126.3101513,해수욕장,제주,서부지역,,정보없음,정보없음,정보없음,정보없음,정보없음,바다,
KCLANPO23N000015820,천상연폭포,관광지,폭포/계곡,제주특별자치도 서귀포시 색달동  540927,색달로189번길 27,33.25437868,126.4184459,폭포,계곡,제주,,정보없음,정보없음,정보없음,정보없음,정보없음,산,
KCLANPO23N000015833,베니스랜드,관광지,일반관광지,제주특별자치도 서귀포시 성산읍 난산리 2570,서성일로 474,33.4153736,126.8407154,동부지역,일반관광지,제주,,정보없음,정보없음,정보없음,정보없음,정보없음,관광명소,
KCLANPO23N000015875,귤빛캠핑장,관광지,캠핑장,제주특별자치도 제주시 조천읍 대흘리 187-3,정보없음,33.50408299,126.6734529,제주,캠핑장,,,정보없음,정보없음,정보없음,정보없음,정보없음,체험/레저,
KCLANPO23N000015940,함덕캠핑스타카라반,관광지,캠핑장,제주특별자치도 제주시 조천읍 함덕리 산4,정보없음,33.54410168,126.6750506,제주,캠핑장,,,정보없음,정보없음,정보없음,정보없음,정보없음,체험/레저,
KCLANPO23N000015965,벨리타캠핑장,관광지,캠핑장,제주특별자치도 제주시 조천읍 선흘리 351091,중산간동로 1194,33.50777323,126.6979469,제주,캠핑장,,,정보없음,정보없음,정보없음,정보없음,정보없음,체험/레저,
KCLANPO23N000015993,광령리지석묘,관광지,유명사적/유적지,제주특별자치도 제주시 애월읍 광령리 1665,정보없음,33.4757191,126.4376458,유명사적,제주,서부지역,유적지,정보없음,정보없음,정보없음,정보없음,정보없음,역사/문화유산,
KCLANPO23N000016005,남원올레탐방안내센터,관광지,관광안내소/매표소,제주특별자치도 서귀포시 남원읍 남원리 33390,남태해안로 140,33.27787442,126.7196879,남부지역,제주,관광안내소,매표소,정보없음,정보없음,정보없음,정보없음,정보없음,관광안내소/매표소,바다 전망
KCLANPO23N000016050,종달고망난돌쉼터,관광지,유명관광지,제주특별자치도 제주시 구좌읍 종달리 112-4,정보없음,33.51020292,126.9069079,동부지역,제주,유명관광지,,정보없음,정보없음,정보없음,정보없음,정보없음,관광명소,
KCLANPO23N000016052,뽀빠이돌공원,관광지,일반관광지,제주특별자치도 서귀포시 회수동  576,정보없음,33.25192893,126.4456041,일반관광지,제주,,,정보없음,정보없음,정보없음,정보없음,정보없음,관광명소,
KCLANPO23N000016110,짚라인제주,관광지,일반관광지,제주특별자치도 제주시 조천읍 선흘리 600,선교로 117,33.48690456,126.706032,일반관광지,제주,,,정보없음,정보없음,정보없음,정보없음,정보없음,관광명소,
KCLANPO23N000016144,추사유배길인연의길,관광지,유명관광지,제주특별자치도 서귀포시 안덕면 서광리 산50-8,정보없음,33.3049319,126.2881999,제주,유명관광지,,,정보없음,정보없음,정보없음,정보없음,정보없음,관광명소,
KCLANPO23N000016317,정의현객사,관광지,고택/생가/민속마을,제주특별자치도 서귀포시 표선면 성읍리 875,성읍정의현로34번길 5월 14일,33.38716342,126.8014132,민속마을,고택,남부지역,제주,정보없음,정보없음,정보없음,정보없음,정보없음,역사/문화유산,생가
KCLANPO23N000016467,표선카라반,관광지,캠핑장,제주특별자치도 서귀포시 표선면 표선리 423-2,표선백사로 176,33.33055714,126.8377267,남부지역,제주,캠핑장,,정보없음,정보없음,정보없음,정보없음,정보없음,체험/레저,
KCLANPO23N000016468,대천야유회구장야영장,관광지,야영장,제주특별자치도 제주시 구좌읍 송당리 2657,정보없음,33.43352991,126.7520365,동부지역,제주,야영장,,정보없음,정보없음,정보없음,정보없음,정보없음,체험/레저,
KCLANPO23N000016521,롯데호텔제주캠핑존,관광지,캠핑장,제주특별자치도 서귀포시 색달동  3039-57,정보없음,33.24618114,126.4110133,제주,캠핑장,,,정보없음,정보없음,정보없음,정보없음,정보없음,체험/레저,
KCLANPO23N000016533,황우치해변,관광지,해수욕장,제주특별자치도 서귀포시 안덕면 사계리 ,정보없음,33.2373502,126.3174704,해수욕장,제주,,,정보없음,정보없음,정보없음,정보없음,정보없음,바다,
KCLANPO23N000016616,제주성서식물원비블리아,관광지,식물원,제주특별자치도 제주시 한림읍 상명리 279-3,정보없음,33.35603984,126.2753304,서부지역,제주,식물원,,정보없음,정보없음,정보없음,정보없음,정보없음,자연경관,
KCLANPO23N000016618,안트레,관광지,관광안내소/매표소,제주특별자치도 제주시 애월읍 유수암리 1178-1,녹고메길 165,33.40595072,126.4079737,매표소,서부지역,제주,관광안내소,정보없음,정보없음,정보없음,정보없음,정보없음,관광안내소/매표소,
KCLANPO23N000016681,모진이해수욕장,관광지,해수욕장,제주특별자치도 제주시 추자면 신양리 ,정보없음,33.94580251,126.3342938,해수욕장,제주,,,정보없음,정보없음,정보없음,정보없음,정보없음,바다,
KCLANPO23N000016879,정모시쉼터,관광지,일반관광지,제주특별자치도 서귀포시 서귀동  962,소암로 28,33.2466957,126.5717936,일반관광지,제주,,,정보없음,정보없음,정보없음,정보없음,정보없음,관광명소,
KCLANPO23N000016910,평대해수욕장,관광지,해수욕장,제주특별자치도 제주시 구좌읍 평대리 ,정보없음,33.53375666,126.8409403,동부지역,해수욕장,제주,,정보없음,정보없음,정보없음,정보없음,정보없음,바다,
KCLANPO23N000016917,오일장개발,관광지,기타,제주특별자치도 서귀포시 표선면 표선리 629-1,표선중앙로 84,33.32581439,126.8329164,남부지역,N,제주,,정보없음,정보없음,정보없음,정보없음,정보없음,기타,
KCLANPO23N000016984,한라산전망대,관광지,일반관광지,제주특별자치도 서귀포시 색달동  2937,정보없음,33.24843662,126.4159903,일반관광지,제주,,,정보없음,정보없음,정보없음,정보없음,정보없음,관광명소,
KCLANPO23N000017132,하늘아래수목원,관광지,휴양림/수목원,제주특별자치도 서귀포시 서홍동  2590,호근북로 368,33.28570143,126.5333405,휴양림,제주,수목원,,정보없음,정보없음,정보없음,정보없음,정보없음,자연경관,
KCLANPO23N000017158,제주오션파크,관광지,일반관광지,제주특별자치도 서귀포시 성산읍 시흥리 ,정보없음,33.4794415,126.9135853,동부지역,일반관광지,제주,,정보없음,정보없음,정보없음,정보없음,정보없음,관광명소,
KCLANPO23N000017202,수산본향당,관광지,유명사적/유적지,제주특별자치도 서귀포시 성산읍 수산리 451,산성효자로 228-27,33.45144212,126.8930968,유명사적,제주,동부지역,유적지,정보없음,정보없음,정보없음,정보없음,정보없음,역사/문화유산,
KCLANPO23N000017240,제주올레1코스안내소,관광지,관광안내소/매표소,제주특별자치도 서귀포시 성산읍 시흥리 279413,시흥상동로53번길 88-46,33.47459881,126.8859021,동부지역,매표소,제주,관광안내소,정보없음,정보없음,정보없음,정보없음,정보없음,관광안내소/매표소,
KCLANPO23N000017531,동백동산탐방안내소,관광지,관광안내소/매표소,제주특별자치도 제주시 조천읍 선흘리 924,동백로 77,33.50970158,126.7156707,매표소,제주,관광안내소,,정보없음,정보없음,정보없음,정보없음,정보없음,관광안내소/매표소,
KCLANPO23N000017689,한동환해장성,관광지,유명사적/유적지,제주특별자치도 제주시 구좌읍 한동리 1696-9,정보없음,33.55035553,126.8288695,유명사적,제주,동부지역,유적지,정보없음,정보없음,정보없음,정보없음,정보없음,역사/문화유산,
KCLANPO23N000017746,비체올린,관광지,캠핑장,제주특별자치도 제주시 한경면 판포리 725-1,판조로 253-6,33.34974092,126.2185801,제주,캠핑장,,,정보없음,정보없음,정보없음,정보없음,정보없음,체험/레저,
KCLANPO23N000017747,캠파제주,관광지,캠핑장,제주특별자치도 서귀포시 상효동  1116-1,516로 574-23,33.29852388,126.6010183,제주,캠핑장,,,정보없음,정보없음,정보없음,정보없음,정보없음,체험/레저,
KCLANPO23N000017756,유채꽃프라자,관광지,일반관광지,제주특별자치도 서귀포시 표선면 가시리 3665-85,녹산로 464-65,33.39375139,126.7317322,남부지역,일반관광지,제주,,정보없음,정보없음,정보없음,정보없음,정보없음,관광명소,
KCLANPO23N000017784,신대산전망터,관광지,일반관광지,제주특별자치도 제주시 추자면 예초리 산7,정보없음,33.9547219,126.3408861,일반관광지,제주,,,정보없음,정보없음,정보없음,정보없음,정보없음,관광명소,
KCLANPO23N000017850,동백동산,관광지,일반관광지,제주특별자치도 제주시 조천읍 선흘리 산20,정보없음,33.51100432,126.7148727,일반관광지,제주,,,정보없음,정보없음,정보없음,정보없음,정보없음,관광명소,
KCLANPO23N000017875,한라봉체험농장,관광지,관광농원/허브마을,제주특별자치도 서귀포시 호근동  1499-1,일주동로 8987,33.24789512,126.5325737,허브마을,제주,관광농원,,정보없음,정보없음,정보없음,정보없음,정보없음,체험/레저,
KCLANPO23N000017909,한국성경식물원,관광지,식물원,제주특별자치도 서귀포시 성산읍 난산리 2219,정보없음,33.42140701,126.8558683,동부지역,제주,식물원,,정보없음,정보없음,정보없음,정보없음,정보없음,자연경관,
KCLANPO23N000017911,에코피아테마파크,관광지,테마공원/대형놀이공원,제주특별자치도 제주시 애월읍 소길리 155-101,평화로 2157,33.4124581,126.3920847,대형놀이공원,제주,서부지역,테마공원,정보없음,정보없음,정보없음,정보없음,정보없음,체험/레저,
KCLANPO23N000017928,회천체험캠핑장,관광지,캠핑장,제주특별자치도 제주시 회천동  2307,중산간동로 203,33.50368549,126.6103081,제주,캠핑장,,,정보없음,정보없음,정보없음,정보없음,정보없음,체험/레저,
KCLANPO23N000017944,서문가구거리,관광지,먹거리/패션거리,제주특별자치도 제주시 용담일동  284-7,정보없음,33.51040954,126.5148018,패션거리,먹거리,제주,,정보없음,정보없음,정보없음,정보없음,정보없음,기타,
KCLANPO23N000017947,해품은체험농장,관광지,관광농원/허브마을,제주특별자치도 서귀포시 성산읍 수산리 279-3,서성일로 1073,33.44435334,126.8933413,허브마을,제주,동부지역,관광농원,정보없음,정보없음,정보없음,정보없음,정보없음,체험/레저,
KCLANPO23N000017996,수월봉탐방안내소,관광지,관광안내소/매표소,제주특별자치도 제주시 한경면 고산리 648216,정보없음,33.29899241,126.1679797,매표소,제주,관광안내소,,정보없음,정보없음,정보없음,정보없음,정보없음,관광안내소/매표소,
KCLANPO23N000018001,제주도세계지질공원,관광지,테마공원/대형놀이공원,제주특별자치도 제주시 조천읍 선흘리 478,선교로 569-36,33.45701104,126.7148456,대형놀이공원,제주,테마공원,,정보없음,정보없음,정보없음,정보없음,정보없음,체험/레저,
KCLANPO23N000018015,가시리국산화풍력발전단지,관광지,일반관광지,제주특별자치도 서귀포시 표선면 가시리 3840,정보없음,33.39016246,126.7338939,남부지역,일반관광지,제주,,정보없음,정보없음,정보없음,정보없음,정보없음,관광명소,
KCLANPO23N000018034,제주돌하르방캠핑장,관광지,캠핑장,제주특별자치도 제주시 한경면 청수리 2130,낙수로 271-40,33.3238526,126.2389862,제주,캠핑장,,,정보없음,정보없음,정보없음,정보없음,정보없음,체험/레저,
KCLANPO23N000018197,아랑조을맛거리,관광지,먹거리/패션거리,제주특별자치도 서귀포시 서귀동  294-2,중앙로47번길 1,33.24869131,126.5613439,패션거리,먹거리,제주,,정보없음,정보없음,정보없음,정보없음,정보없음,기타,
KCLANPO23N000018214,제주한림용암동굴지대,관광지,천연기념물,제주특별자치도 제주시 한림읍 협재리 617,정보없음,33.3692414,126.2587462,천연기념물,제주,서부지역,,정보없음,정보없음,정보없음,정보없음,정보없음,자연경관,
KCLANPO23N000018217,중엄리새물,관광지,일반관광지,제주특별자치도 제주시 애월읍 신엄리 929-2,애월해안로 620,33.47844297,126.3692717,일반관광지,제주,서부지역,바다 전망,정보없음,정보없음,정보없음,정보없음,정보없음,관광명소,
KCLANPO23N000018252,제주플래티늄카라반,관광지,캠핑장,제주특별자치도 제주시 애월읍 하귀2리 1806-2,하귀미수포길 5월 8일,33.48344471,126.4014065,제주,서부지역,캠핑장,,정보없음,정보없음,정보없음,정보없음,정보없음,체험/레저,
KCLANPO23N000018253,영프라자,관광지,일반유원지/일반놀이공원,제주특별자치도 제주시 건입동  1442,임항로 17,33.51692277,126.5271469,일반유원지,제주,일반놀이공원,,정보없음,정보없음,정보없음,정보없음,정보없음,체험/레저,
KCLANPO23N000018267,컨테이너야드협재타운,관광지,일반관광지,제주특별자치도 제주시 한림읍 협재리 2447-27,한림로 335,33.39363526,126.2402701,일반관광지,제주,서부지역,,정보없음,정보없음,정보없음,정보없음,정보없음,관광명소,
KCLANPO23N000018279,제주곶자왈도립공원탐방안내소,관광지,관광안내소/매표소,제주특별자치도 서귀포시 대정읍 보성리 산1,에듀시티로 178,33.28322739,126.2735859,매표소,제주,관광안내소,,정보없음,정보없음,정보없음,정보없음,정보없음,관광안내소/매표소,
KCLANPO23N000018371,거상김만덕객주터,관광지,유명사적/유적지,제주특별자치도 제주시 건입동  984-41,임항로 68,33.51641432,126.5319882,유명사적,제주,유적지,,정보없음,정보없음,정보없음,정보없음,정보없음,역사/문화유산,
KCLANPO23N000018481,혼인지축제,관광지,지역축제,제주특별자치도 서귀포시 성산읍 온평리 1700,정보없음,33.41584251,126.8944079,동부지역,제주,지역축제,,정보없음,정보없음,정보없음,정보없음,정보없음,지역문화/이벤트,
KCLANPO23N000018495,제주레저스포츠대축제,관광지,지역축제,제주특별자치도 제주시 건입동  1444,중앙로 1,33.51804056,126.5266377,제주,지역축제,,,정보없음,정보없음,정보없음,정보없음,정보없음,지역문화/이벤트,
KCLANPO23N000018567,제주성산일출축제,관광지,지역축제,제주특별자치도 서귀포시 성산읍 성산리 85,정보없음,33.46221309,126.9368554,동부지역,제주,지역축제,,정보없음,정보없음,정보없음,정보없음,정보없음,지역문화/이벤트,
KCLANPO23N000018605,한라산트래킹,관광지,일반관광지,제주특별자치도 제주시 조천읍 교래리 산137-2,정보없음,33.37970858,126.5762391,일반관광지,제주,,,정보없음,정보없음,정보없음,정보없음,정보없음,관광명소,
KCLANPO23N000018614,비자림로,관광지,일반관광지,제주특별자치도 제주시 구좌읍 송당리 161074,정보없음,33.44340177,126.7541031,동부지역,일반관광지,제주,,정보없음,정보없음,정보없음,정보없음,정보없음,관광명소,
KCLANPO23N000018622,돔베낭길,관광지,일반관광지,제주특별자치도 서귀포시 호근동  332-5,정보없음,33.2403409,126.5448249,일반관광지,제주,,,정보없음,정보없음,정보없음,정보없음,정보없음,관광명소,
KCLANPO23N000018623,월대,관광지,일반관광지,제주특별자치도 제주시 외도이동  230-1,정보없음,33.49284413,126.4361845,일반관광지,제주,,,정보없음,정보없음,정보없음,정보없음,정보없음,관광명소,
KCLANPO23N000018626,제주올레22,관광지,일반관광지,제주특별자치도 제주시 우도면 연평리 1737-14,우도해안길 73,33.49298203,126.9511591,일반관광지,제주,바다 전망,,정보없음,정보없음,정보없음,정보없음,정보없음,관광명소,
KCLANPO23N000018627,제주올레23,관광지,일반관광지,제주특별자치도 제주시 추자면 대서리 147-2,정보없음,33.96259689,126.2944902,일반관광지,제주,,,정보없음,정보없음,정보없음,정보없음,정보없음,관광명소,
KCLANPO23N000018662,충혼탑,관광지,비/탑/문/각,제주특별자치도 제주시 노형동  3834,정보없음,33.41222793,126.4963644,문,비,제주,각,정보없음,정보없음,정보없음,정보없음,정보없음,역사/문화유산,탑
KCLANPO23N000018679,동홍동솔오름전망대,관광지,일반관광지,제주특별자치도 서귀포시 동홍동  91313,정보없음,33.29161672,126.5558875,일반관광지,제주,,,정보없음,정보없음,정보없음,정보없음,정보없음,관광명소,
KCLANPO23N000018704,광치기해변,관광지,해수욕장,제주특별자치도 서귀포시 성산읍 고성리 ,정보없음,33.45188359,126.9243921,동부지역,해수욕장,제주,,정보없음,정보없음,정보없음,정보없음,정보없음,바다,
KCLANPO23N000018706,성산환해장성,관광지,유명사적/유적지,제주특별자치도 서귀포시 성산읍 신산리 ,정보없음,33.38875108,126.8946309,유명사적,제주,동부지역,유적지,정보없음,정보없음,정보없음,정보없음,정보없음,역사/문화유산,
KCLANPO23N000018707,한라산국립공원성판악탐방로,관광지,일반관광지,제주특별자치도 제주시 조천읍 교래리 산137-24,516로 1865,33.38481237,126.6191127,일반관광지,제주,,,정보없음,정보없음,정보없음,정보없음,정보없음,관광명소,
KCLANPO23N000018725,차귀도유람선,관광지,일반관광지,제주특별자치도 제주시 한경면 고산리 627002,노을해안로 1161,33.30932188,126.1651698,일반관광지,제주,바다 전망,,정보없음,정보없음,정보없음,정보없음,정보없음,관광명소,
KCLANPO23N000018746,애월돌고래전망대,관광지,일반관광지,제주특별자치도 제주시 애월읍 신엄리 303243,정보없음,33.47843249,126.36361,일반관광지,제주,서부지역,,정보없음,정보없음,정보없음,정보없음,정보없음,관광명소,
KCLANPO23N000018753,솔트리감성수목원,관광지,휴양림/수목원,제주특별자치도 제주시 구좌읍 송당리 245080,번영로 2063,33.4341142,126.7429274,동부지역,휴양림,제주,수목원,정보없음,정보없음,정보없음,정보없음,정보없음,자연경관,
KCLANPO23N000018779,고평오가옥,관광지,유명사적/유적지,제주특별자치도 서귀포시 표선면 성읍리 859,성읍정의현로34번길 5월 3일,33.38587117,126.8016816,유명사적,남부지역,제주,유적지,정보없음,정보없음,정보없음,정보없음,정보없음,역사/문화유산,
KCLANPO23N000018812,구엄어촌체험마을,관광지,팜스테이,제주특별자치도 제주시 애월읍 구엄리 607-4,애월해안로 715-1,33.48419174,126.3773834,팜스테이,제주,서부지역,바다 전망,정보없음,정보없음,정보없음,정보없음,정보없음,체험/레저,
KCLANPO23N000018910,성읍랜드,관광지,일반관광지,제주특별자치도 서귀포시 표선면 성읍리 52963,번영로 2650,33.39857711,126.7872971,남부지역,일반관광지,제주,,정보없음,정보없음,정보없음,정보없음,정보없음,관광명소,
KCLANPO23N000018928,골목길갤러리,관광지,먹거리/패션거리,제주특별자치도 제주시 외도일동  538-6,우정로16길 30,33.48612302,126.4275812,패션거리,먹거리,제주,,정보없음,정보없음,정보없음,정보없음,정보없음,기타,
KCLANPO23N000018959,제주스위스마을,관광지,팜스테이,제주특별자치도 제주시 조천읍 와산리 1559-1,함와로 566-29,33.49444768,126.6770422,팜스테이,제주,,,정보없음,정보없음,정보없음,정보없음,정보없음,체험/레저,
KCLANPO23N000019013,김기량순교현양비,관광지,비/탑/문/각,제주특별자치도 제주시 조천읍 함덕리 940-2,일주동로 1216,33.53690839,126.6708098,문,비,제주,각,정보없음,정보없음,정보없음,정보없음,정보없음,역사/문화유산,탑
KCLANPO23N000019117,폴리파크,관광지,일반관광지,제주특별자치도 제주시 애월읍 어음리 3912,산록서로 18,33.38599208,126.3754179,일반관광지,제주,서부지역,,정보없음,정보없음,정보없음,정보없음,정보없음,관광명소,
KCLANPO23N000019123,오늘은카트,관광지,일반관광지,제주특별자치도 서귀포시 표선면 성읍리 108480,중산간동로 4778,33.38123862,126.790403,남부지역,일반관광지,제주,,정보없음,정보없음,정보없음,정보없음,정보없음,관광명소,
KCLANPO23N000019135,삼사석지,관광지,비/탑/문/각,제주특별자치도 제주시 화북일동  1380-1,정보없음,33.52102968,126.5738739,문,비,제주,각,정보없음,정보없음,정보없음,정보없음,정보없음,역사/문화유산,탑
KCLANPO23N000019199,제주모슬포알뜨르비행장일제지하벙커,관광지,일반관광지,제주특별자치도 서귀포시 대정읍 상모리 1670,정보없음,33.20431892,126.2715847,일반관광지,제주,,,정보없음,정보없음,정보없음,정보없음,정보없음,관광명소,
KCLANPO23N000019247,클럽다인리조트카라반,관광지,캠핑장,제주특별자치도 제주시 애월읍 고내리 79-27,애월해안로 400-9,33.47168792,126.3510598,바다 전망,제주,서부지역,캠핑장,정보없음,정보없음,정보없음,정보없음,정보없음,체험/레저,
KCLANPO23N000019281,무병장수테마파크,관광지,일반관광지,제주특별자치도 제주시 애월읍 어음리 476,어음13길 196-11,33.3953304,126.3603837,일반관광지,제주,서부지역,,정보없음,정보없음,정보없음,정보없음,정보없음,관광명소,
KCLANPO23N000019290,제주마테마파크,관광지,일반관광지,제주특별자치도 서귀포시 성산읍 난산리 260451,서성일로 500-8,33.41785147,126.8419583,동부지역,일반관광지,제주,,정보없음,정보없음,정보없음,정보없음,정보없음,관광명소,
KCLANPO23N000019293,참귀한농장,관광지,팜스테이,제주특별자치도 서귀포시 성산읍 온평리 2454,정보없음,33.40280314,126.8838855,동부지역,팜스테이,제주,,정보없음,정보없음,정보없음,정보없음,정보없음,체험/레저,
KCLANPO23N000019294,내통우물,관광지,일반관광지,제주특별자치도 서귀포시 성산읍 온평리 855-3,온평상하로 57,33.40690339,126.9016978,동부지역,일반관광지,제주,,정보없음,정보없음,정보없음,정보없음,정보없음,관광명소,
KCLANPO23N000019295,녹색농촌체험마을,관광지,정보화마을,제주특별자치도 서귀포시 성산읍 온평리 956-1,환해장성로 549,33.40525404,126.903771,동부지역,제주,정보화마을,,정보없음,정보없음,정보없음,정보없음,정보없음,지역문화/이벤트,
KCLANPO23N000019297,서귀포치유의숲,관광지,휴양림/수목원,제주특별자치도 서귀포시 호근동  산1,산록남로 2271,33.29199078,126.5269492,휴양림,제주,수목원,,정보없음,정보없음,정보없음,정보없음,정보없음,자연경관,
KCLANPO23N000019298,골체오름캠핑장,관광지,캠핑장,제주특별자치도 제주시 조천읍 선흘리 1858-1,번영로 1648-41,33.45157167,126.7049164,제주,캠핑장,,,정보없음,정보없음,정보없음,정보없음,정보없음,체험/레저,
KCLANPO23N000019299,할리데이카라반,관광지,캠핑장,제주특별자치도 제주시 한경면 저지리 3267,녹차분재로 354,33.30835191,126.2814735,제주,캠핑장,,,정보없음,정보없음,정보없음,정보없음,정보없음,체험/레저,
KCLANPO23N000019302,제주민속마을,관광지,고택/생가/민속마을,제주특별자치도 제주시 구좌읍 행원리 3503,월덕로 474,33.50978368,126.7707914,민속마을,고택,제주,동부지역,정보없음,정보없음,정보없음,정보없음,정보없음,역사/문화유산,생가
KCLANPO23N000019314,마을카페,관광지,일반관광지,제주특별자치도 서귀포시 남원읍 태흥리 409-5,남태해안로 484,33.28520476,126.7496141,남부지역,일반관광지,제주,바다 전망,정보없음,정보없음,정보없음,정보없음,정보없음,관광명소,
KCLANPO23N000019372,새연교,관광지,관광안내소/매표소,제주특별자치도 서귀포시 서홍동  707-5,남성중로 40,33.2390478,126.5585274,매표소,제주,관광안내소,,정보없음,정보없음,정보없음,정보없음,정보없음,관광안내소/매표소,
KCLANPO23N000019645,국립제주박물관설날한마당,관광지,지역축제,제주특별자치도 제주시 건입동  261,일주동로 17,33.51341831,126.5490065,제주,지역축제,,,정보없음,정보없음,정보없음,정보없음,정보없음,지역문화/이벤트,
KCLANPO23N000019651,설날맞이민속행사,관광지,지역축제,제주특별자치도 서귀포시 표선면 표선리 40-77,민속해안로 631-46,33.32435927,126.8431596,남부지역,제주,바다 전망,지역축제,정보없음,정보없음,정보없음,정보없음,정보없음,지역문화/이벤트,
KCLANPO23N000019885,설문대할망제,관광지,지역축제,제주특별자치도 제주시 조천읍 교래리 산101,정보없음,33.44798984,126.6617192,제주,지역축제,,,정보없음,정보없음,정보없음,정보없음,정보없음,지역문화/이벤트,
KCLANPO23N000019899,중문골프장달빛걷기,관광지,지역축제,제주특별자치도 서귀포시 색달동  2101,중문관광로72번길 60,33.25019116,126.4061439,제주,지역축제,,,정보없음,정보없음,정보없음,정보없음,정보없음,지역문화/이벤트,
KCLANPO23N000019948,제주국제관광마라톤축제,관광지,지역축제,제주특별자치도 제주시 구좌읍 김녕리 497-1,김녕로 209,33.55624976,126.7624029,동부지역,제주,지역축제,,정보없음,정보없음,정보없음,정보없음,정보없음,지역문화/이벤트,
KCLANPO23N000019974,제주해비치아트페스티벌,관광지,지역축제,제주특별자치도 서귀포시 표선면 표선리 40-69,민속해안로 537,33.32306288,126.8445793,남부지역,제주,바다 전망,지역축제,정보없음,정보없음,정보없음,정보없음,정보없음,지역문화/이벤트,
KCLANPO23N000020044,제주한여름밤의예술축제,관광지,지역축제,제주특별자치도 제주시 삼도이동  1262,중앙로 2,33.51822477,126.5240291,제주,지역축제,,,정보없음,정보없음,정보없음,정보없음,정보없음,지역문화/이벤트,
KCLANPO23N000020148,쇠소깍축제,관광지,지역축제,제주특별자치도 서귀포시 하효동  995-5,정보없음,33.25195212,126.6232739,제주,지역축제,,,정보없음,정보없음,정보없음,정보없음,정보없음,지역문화/이벤트,
KCLANPO23N000020151,도두오래물축제,관광지,지역축제,제주특별자치도 제주시 도두일동  257588,정보없음,33.50698514,126.4669463,제주,지역축제,,,정보없음,정보없음,정보없음,정보없음,정보없음,지역문화/이벤트,
KCLANPO23N000020171,제주국제관악제,관광지,지역축제,제주특별자치도 제주시 일도이동  852,동광로 69,33.5045323,126.5351628,제주,지역축제,,,정보없음,정보없음,정보없음,정보없음,정보없음,지역문화/이벤트,
KCLANPO23N000020180,서귀포야해페스티벌,관광지,지역축제,제주특별자치도 서귀포시 표선면 표선리 44-13,민속해안로 592,33.32591268,126.842367,남부지역,제주,바다 전망,지역축제,정보없음,정보없음,정보없음,정보없음,정보없음,지역문화/이벤트,
KCLANPO23N000020181,예래생태마을체험축제,관광지,지역축제,제주특별자치도 서귀포시 하예동  45681,예래로 213,33.2444442,126.3907972,제주,지역축제,,,정보없음,정보없음,정보없음,정보없음,정보없음,지역문화/이벤트,
KCLANPO23N000020197,제주뮤직페스티벌,관광지,지역축제,제주특별자치도 제주시 조천읍 교래리 산98,정보없음,33.44137424,126.6653561,제주,지역축제,,,정보없음,정보없음,정보없음,정보없음,정보없음,지역문화/이벤트,
KCLANPO23N000020240,추자도참굴비대축제,관광지,지역축제,제주특별자치도 제주시 추자면 대서리 147-16,정보없음,33.9623445,126.2944013,제주,지역축제,,,정보없음,정보없음,정보없음,정보없음,정보없음,지역문화/이벤트,
KCLANPO23N000020310,로봇스퀘어,관광지,일반관광지,제주특별자치도 제주시 구좌읍 한동리 1294,해맞이해안로 1032,33.53998487,126.8308968,동부지역,일반관광지,제주,바다 전망,정보없음,정보없음,정보없음,정보없음,정보없음,관광명소,
KCLANPO23N000020331,JDC지구촌축제,관광지,지역축제,제주특별자치도 서귀포시 대정읍 보성리 230136,정보없음,33.27894409,126.2732094,제주,지역축제,,,정보없음,정보없음,정보없음,정보없음,정보없음,지역문화/이벤트,
KCLANPO23N000020341,중문미로파크,관광지,테마공원/대형놀이공원,제주특별자치도 서귀포시 상예동  620974,정보없음,33.26317797,126.3814838,대형놀이공원,제주,테마공원,,정보없음,정보없음,정보없음,정보없음,정보없음,체험/레저,
KCLANPO23N000020477,캠핑홀리데이,관광지,캠핑홀리데이(캠핑),제주특별자치도 서귀포시 상효동  1562,정보없음,33.30521876,126.582543,캠핑홀리데이(캠핑),제주,,,정보없음,정보없음,정보없음,정보없음,정보없음,체험/레저,
KCLANPO23N000020550,알프스얼음보석궁전테마파크뮤지엄,관광지,일반관광지,제주특별자치도 제주시 한경면 청수리 958,연명로 147,33.29124336,126.2491127,일반관광지,제주,,,정보없음,정보없음,정보없음,정보없음,정보없음,관광명소,
KCLANPO23N000020572,한라산청정고사리축제,관광지,지역축제,제주특별자치도 서귀포시 남원읍 한남리 산76-7,서성로 788,33.3318344,126.677791,남부지역,제주,지역축제,,정보없음,정보없음,정보없음,정보없음,정보없음,지역문화/이벤트,
KCLANPO23N000020579,에어그라운드,관광지,캠핑장,제주특별자치도 서귀포시 남원읍 태흥리 1145-1,남태해안로 439,33.28205902,126.7465643,남부지역,바다 전망,제주,캠핑장,정보없음,정보없음,정보없음,정보없음,정보없음,체험/레저,
KCLANPO23N000020580,작은바람언덕,관광지,캠핑장,제주특별자치도 서귀포시 남원읍 남원리 1420-1,태위로 592,33.27647077,126.7101455,남부지역,제주,캠핑장,,정보없음,정보없음,정보없음,정보없음,정보없음,체험/레저,
KCLANPO23N000020638,수목원길,관광지,일반관광지,제주특별자치도 제주시 연동  1327,정보없음,33.47119857,126.4881139,일반관광지,제주,,,정보없음,정보없음,정보없음,정보없음,정보없음,관광명소,
KCLANPO23N000020649,제주신화월드신화테마파크,관광지,테마공원/대형놀이공원,제주특별자치도 서귀포시 안덕면 서광리 산35-16,신화역사로304번길 98,33.30503158,126.315021,대형놀이공원,제주,테마공원,,정보없음,정보없음,정보없음,정보없음,정보없음,체험/레저,
KCLANPO23N000020651,제주신화월드,관광지,유명관광지,제주특별자치도 서귀포시 안덕면 서광리 산24,신화역사로304번길 38,33.30425179,126.3176726,제주,유명관광지,,,정보없음,정보없음,정보없음,정보없음,정보없음,관광명소,
KCLANPO23N000020660,누웨마루거리,관광지,먹거리/패션거리,제주특별자치도 제주시 연동  272,정보없음,33.48784098,126.4907953,패션거리,먹거리,제주,,정보없음,정보없음,정보없음,정보없음,정보없음,기타,
KCLANPO23N000020707,디포레카라반파크,관광지,캠핑장,제주특별자치도 제주시 구좌읍 송당리 701,정보없음,33.46492671,126.782263,동부지역,제주,캠핑장,,정보없음,정보없음,정보없음,정보없음,정보없음,체험/레저,
KCLANPO23N000020732,오라메밀꽃밭,관광지,일반관광지,제주특별자치도 제주시 오라이동  산76,정보없음,33.42715043,126.5057508,일반관광지,제주,,,정보없음,정보없음,정보없음,정보없음,정보없음,관광명소,
KCLANPO23N000021171,번개레이싱,관광지,일반유원지/일반놀이공원,제주특별자치도 서귀포시 안덕면 서광리 산39,녹차분재로 218,33.30465482,126.2999354,일반유원지,제주,일반놀이공원,,정보없음,정보없음,정보없음,정보없음,정보없음,체험/레저,
KCLANPO23N000021400,제주불빛정원,관광지,테마공원/대형놀이공원,제주특별자치도 제주시 애월읍 유수암리 1083,평화로 2346,33.42168511,126.409489,대형놀이공원,제주,서부지역,테마공원,정보없음,정보없음,정보없음,정보없음,정보없음,체험/레저,
KCLANPO23N000021401,황우지해안,관광지,일반관광지,제주특별자치도 서귀포시 서홍동  765-1,남성로 92,33.24161287,126.5506016,일반관광지,제주,,,정보없음,정보없음,정보없음,정보없음,정보없음,관광명소,
KCLANPO23N000021403,봉봉감귤체험농장,관광지,일반관광지,제주특별자치도 서귀포시 남원읍 신례리 720-1,중산간동로7141번길 16,33.28162578,126.6298205,남부지역,일반관광지,제주,,정보없음,정보없음,정보없음,정보없음,정보없음,관광명소,
KCLANPO23N000021404,제주이야기,관광지,일반관광지,제주특별자치도 제주시 애월읍 애월리 212268,애월로 29,33.46153993,126.3118426,일반관광지,제주,서부지역,,정보없음,정보없음,정보없음,정보없음,정보없음,관광명소,
KCLANPO23N000021408,예래로벚꽃길,관광지,일반관광지,제주특별자치도 서귀포시 하예동  293,예래로 234,33.24402814,126.3886459,일반관광지,제주,,,정보없음,정보없음,정보없음,정보없음,정보없음,관광명소,
KCLANPO23N000021573,화조원,관광지,동물원,제주특별자치도 제주시 애월읍 납읍리 58,애원로 804,33.41059307,126.3722595,제주,서부지역,동물원,,정보없음,정보없음,정보없음,정보없음,정보없음,체험/레저,
KCLANPO23N000021695,로맨틱메이즈,관광지,일반관광지,제주특별자치도 서귀포시 법환동  877,법환상로2번길 97-13,33.24720044,126.5125947,일반관광지,제주,,,정보없음,정보없음,정보없음,정보없음,정보없음,관광명소,
KCLANPO23N000022098,남원큰엉해변,관광지,해수욕장,제주특별자치도 서귀포시 남원읍 남원리 175012,태위로 522-17,33.27296019,126.7033674,남부지역,해수욕장,제주,,정보없음,정보없음,정보없음,정보없음,정보없음,바다,
KCLANPO23N000022101,알작지해변,관광지,해수욕장,제주특별자치도 제주시 내도동  ,정보없음,33.49594287,126.4395065,해수욕장,제주,,,정보없음,정보없음,정보없음,정보없음,정보없음,바다,
KCLANPO23N000022102,엉알해안,관광지,해수욕장,제주특별자치도 제주시 한경면 고산리 ,정보없음,33.29957904,126.1674029,해수욕장,제주,,,정보없음,정보없음,정보없음,정보없음,정보없음,바다,
KCLANPO23N000022105,종달리해변,관광지,해수욕장,제주특별자치도 제주시 구좌읍 종달리 ,정보없음,33.49588816,126.9096139,동부지역,해수욕장,제주,,정보없음,정보없음,정보없음,정보없음,정보없음,바다,
KCLANPO23N000022217,후포해변,관광지,해수욕장,제주특별자치도 제주시 추자면 대서리 ,정보없음,33.96258466,126.289257,해수욕장,제주,,,정보없음,정보없음,정보없음,정보없음,정보없음,바다,
KCLANPO23N000022218,신대해안,관광지,해수욕장,제주특별자치도 제주시 추자면 예초리 ,정보없음,33.95266159,126.3381699,해수욕장,제주,,,정보없음,정보없음,정보없음,정보없음,정보없음,바다,
KCLANPO23N000022298,신풍마을,관광지,관광농원/허브마을,제주특별자치도 서귀포시 성산읍 신풍리 26054,신풍하동로 286,33.36302031,126.8645744,허브마을,제주,동부지역,관광농원,정보없음,정보없음,정보없음,정보없음,정보없음,체험/레저,
KCLANPO23N000022299,명도암참살이체험농장,관광지,관광농원/허브마을,제주특별자치도 제주시 봉개동  275-73,명림로 274,33.46293024,126.6116191,허브마을,제주,관광농원,,정보없음,정보없음,정보없음,정보없음,정보없음,체험/레저,
KCLANPO23N000022464,중문오프로드체험장,관광지,일반관광지,제주특별자치도 서귀포시 상예동  150,상예로 349,33.27585833,126.3968692,일반관광지,제주,,,정보없음,정보없음,정보없음,정보없음,정보없음,관광명소,
KCLANPO23N000022500,팜핑제주,관광지,캠핑장,제주특별자치도 서귀포시 도순동  1303,중산간서로400번길 105,33.2688161,126.4726855,제주,캠핑장,,,정보없음,정보없음,정보없음,정보없음,정보없음,체험/레저,
KCLANPO23N000022557,퍼시픽투어,관광지,기타,제주특별자치도 제주시 노형동  906-5,도령로 54,33.4886918,126.4846084,N,제주,,,정보없음,정보없음,정보없음,정보없음,정보없음,기타,
KCLANPO23N000022558,조아투어,관광지,기타,제주특별자치도 제주시 노형동  913-4,노연로 25,33.48626854,126.4828043,N,제주,,,정보없음,정보없음,정보없음,정보없음,정보없음,기타,
KCLANPO23N000022569,코쿤투어,관광지,기타,제주특별자치도 제주시 애월읍 하귀2리 2888,가문동남길 43,33.48267011,126.3909118,N,제주,서부지역,,정보없음,정보없음,정보없음,정보없음,정보없음,기타,
KCLANPO23N000022673,에코힐글램핑,관광지,캠핑장,제주특별자치도 제주시 애월읍 광령리 926-3,광령평화8길 22,33.44985607,126.441076,제주,서부지역,캠핑장,,정보없음,정보없음,정보없음,정보없음,정보없음,체험/레저,
KCLANPO23N000022688,신라호텔제주,관광지,캠핑장,제주특별자치도 서귀포시 색달동  416072,중문관광로72번길 75,33.24690923,126.4079541,제주,캠핑장,,,정보없음,정보없음,정보없음,정보없음,정보없음,체험/레저,
KCLANPO23N000022715,빠빠유기농블루베리,관광지,관광농원/허브마을,제주특별자치도 제주시 애월읍 봉성리 712,정보없음,33.39693307,126.3322699,허브마을,제주,서부지역,관광농원,정보없음,정보없음,정보없음,정보없음,정보없음,체험/레저,
KCLANPO23N000022773,이호테우해수욕장야영장,관광지,캠핑장,제주특별자치도 제주시 이호일동  1665-14,정보없음,33.49771554,126.453782,제주,캠핑장,,,정보없음,정보없음,정보없음,정보없음,정보없음,체험/레저,
KCLANPO23N000022788,함덕해수욕장야영장,관광지,캠핑장,제주특별자치도 제주시 조천읍 함덕리 산4-4,정보없음,33.54338071,126.6749868,제주,캠핑장,,,정보없음,정보없음,정보없음,정보없음,정보없음,체험/레저,
KCLANPO23N000022823,협재해수욕장캠핑장,관광지,캠핑장,제주특별자치도 제주시 한림읍 협재리 218112,정보없음,33.39236555,126.2386156,제주,서부지역,캠핑장,,정보없음,정보없음,정보없음,정보없음,정보없음,체험/레저,
KCLANPO23N000022863,이시돌농장,관광지,관광농원/허브마을,제주특별자치도 제주시 한림읍 금악리 583-1,금악북로 268-22,33.35230443,126.31296,허브마을,제주,서부지역,관광농원,정보없음,정보없음,정보없음,정보없음,정보없음,체험/레저,
KCLANPO23N000022865,제주왕감귤체험농장,관광지,관광농원/허브마을,제주특별자치도 서귀포시 남원읍 남원리 1151-1,남위남성로 10월 14일,33.28377654,126.7072774,허브마을,남부지역,제주,관광농원,정보없음,정보없음,정보없음,정보없음,정보없음,체험/레저,
KCLANPO23N000022886,제주별헤는밤,관광지,캠핑장,제주특별자치도 제주시 애월읍 유수암리 135173,광상로 348,33.44336227,126.3966757,제주,서부지역,캠핑장,,정보없음,정보없음,정보없음,정보없음,정보없음,체험/레저,
KCLANPO23N000022906,한국창의융합교육협회,관광지,기타,제주특별자치도 제주시 오라이동  58076,연미3길 9,33.48953259,126.5072168,N,제주,,,정보없음,정보없음,정보없음,정보없음,정보없음,기타,
KCLANPO23N000022912,유한회사범광투어,관광지,기타,제주특별자치도 제주시 용담일동  231-11,용남길 26,33.50978736,126.5141503,N,제주,,,정보없음,정보없음,정보없음,정보없음,정보없음,기타,
KCLANPO23N000022913,에스티씨제주,관광지,기타,제주특별자치도 제주시 이도이동  1010-1,중앙로 254,33.49728009,126.531186,N,제주,,,정보없음,정보없음,정보없음,정보없음,정보없음,기타,
KCLANPO23N000022918,우도사랑투어,관광지,기타,제주특별자치도 제주시 일도이동  16803,천수로 82,33.50566252,126.5445823,N,제주,,,정보없음,정보없음,정보없음,정보없음,정보없음,기타,
KCLANPO23N000022921,골드문,관광지,기타,제주특별자치도 제주시 연동  300-6,삼무로11길 15,33.49207896,126.4961462,N,제주,,,정보없음,정보없음,정보없음,정보없음,정보없음,기타,
KCLANPO23N000022952,아르츠스파앤풀빌라,관광지,기타,제주특별자치도 제주시 구좌읍 종달리 660,해맞이해안로 2486-23,33.48576158,126.9000991,동부지역,N,제주,바다 전망,정보없음,정보없음,정보없음,정보없음,정보없음,기타,
KCLANPO23N000022962,허니제주여행사,관광지,기타,제주특별자치도 제주시 용담삼동  1042-1,용마서길 1월 25일,33.51595329,126.5019561,N,제주,,,정보없음,정보없음,정보없음,정보없음,정보없음,기타,
KCLANPO23N000022970,개똥이동물원,관광지,관광농원/허브마을,제주특별자치도 제주시 조천읍 와흘리 95362,종인내길 135,33.49486016,126.6228924,허브마을,제주,관광농원,,정보없음,정보없음,정보없음,정보없음,정보없음,체험/레저,
KCLANPO23N000022977,교래생태체험장,관광지,캠핑장,제주특별자치도 제주시 조천읍 교래리 636,교래4길 20-13,33.4261585,126.6712376,제주,캠핑장,,,정보없음,정보없음,정보없음,정보없음,정보없음,체험/레저,
KCLANPO23N000023162,낭만농장귤밭76번지,관광지,관광농원/허브마을,제주특별자치도 서귀포시 안덕면 상창리 906,병악로 76,33.28306291,126.365207,허브마을,제주,관광농원,,정보없음,정보없음,정보없음,정보없음,정보없음,체험/레저,
KCLANPO23N000023180,미추홀항공여행사,관광지,기타,제주특별자치도 제주시 용담일동  120-1,서문로 75,33.51252704,126.5187555,N,제주,,,정보없음,정보없음,정보없음,정보없음,정보없음,기타,
KCLANPO23N000023186,투어뽕끄랑,관광지,기타,제주특별자치도 제주시 이도일동  1692-2,오현길 9,33.50615273,126.5275331,N,제주,,,정보없음,정보없음,정보없음,정보없음,정보없음,기타,
KCLANPO23N000023259,제주응,관광지,캠핑장,제주특별자치도 제주시 한경면 저지리 1794,용금로 758-1,33.33457012,126.2569979,제주,캠핑장,,,정보없음,정보없음,정보없음,정보없음,정보없음,체험/레저,
KCLANPO23N000023271,서귀포호텔카라반캠핑장,관광지,캠핑장,제주특별자치도 서귀포시 상예동  162,상예로 289,33.27356121,126.3933599,제주,캠핑장,,,정보없음,정보없음,정보없음,정보없음,정보없음,체험/레저,
KCLANPO23N000023284,서건도카라반,관광지,캠핑장,제주특별자치도 서귀포시 강정동  750,이어도로 826-51,33.23255737,126.5001276,제주,캠핑장,,,정보없음,정보없음,정보없음,정보없음,정보없음,체험/레저,
KCLANPO23N000023294,제주닷컴,관광지,기타,제주특별자치도 제주시 용담일동  264-1,남성로 57,33.50527992,126.5134307,N,제주,,,정보없음,정보없음,정보없음,정보없음,정보없음,기타,
KCLANPO23N000023327,비자림,관광지,휴양림/수목원,제주특별자치도 제주시 구좌읍 평대리 산15,정보없음,33.4878984,126.8082044,동부지역,휴양림,제주,수목원,정보없음,정보없음,정보없음,정보없음,정보없음,자연경관,
KCLANPO23N000023499,도련뜰블루베리2농원,관광지,관광농원/허브마을,제주특별자치도 제주시 도련일동  1326-2,정보없음,33.49746771,126.5903202,허브마을,제주,관광농원,,정보없음,정보없음,정보없음,정보없음,정보없음,체험/레저,
KCLANPO23N000023500,도련뜰블루베리1농원,관광지,관광농원/허브마을,제주특별자치도 제주시 도련일동  1019-2,정보없음,33.5005674,126.5923949,허브마을,제주,관광농원,,정보없음,정보없음,정보없음,정보없음,정보없음,체험/레저,
KCLANPO23N000023647,자연치유정원,관광지,휴양림/수목원,제주특별자치도 서귀포시 대포동  1161,이어도로 293-28,33.24684066,126.448569,휴양림,제주,수목원,,정보없음,정보없음,정보없음,정보없음,정보없음,자연경관,
KCLANPO23N000024386,제주시티투어버스,관광지,일반관광지,제주특별자치도 제주시 영평동  98708,첨단로 213-65,33.45247811,126.5727634,일반관광지,제주,,,정보없음,정보없음,정보없음,정보없음,정보없음,관광명소,
KCLANPO23N000024393,우도봉,관광지,기타,제주특별자치도 제주시 우도면 연평리 산37,정보없음,33.4922263,126.9641251,N,제주,,,정보없음,정보없음,정보없음,정보없음,정보없음,기타,
KCLANPO23N000024398,제주영어교육도시,관광지,기타,제주특별자치도 서귀포시 대정읍 구억리 1069,글로벌에듀로145번길 33,33.29741308,126.2879299,N,제주,,,정보없음,정보없음,정보없음,정보없음,정보없음,기타,
KCLANPO23N000024403,디스커버제주,관광지,기타,제주특별자치도 서귀포시 대정읍 동일리 438352,정보없음,33.22561182,126.2399198,N,제주,,,정보없음,정보없음,정보없음,정보없음,정보없음,기타,
KCLANPO23N000024408,오로라캔들앤플라워,관광지,기타,제주특별자치도 제주시 한림읍 금능리 455-1,금능남로 348,33.3595404,126.2484,N,제주,서부지역,,정보없음,정보없음,정보없음,정보없음,정보없음,기타,
KCLANPO23N000024413,따라비승마장,관광지,기타,제주특별자치도 서귀포시 표선면 가시리 3149-16,녹산로 381-17,33.38305876,126.7357907,남부지역,N,제주,,정보없음,정보없음,정보없음,정보없음,정보없음,기타,
KCLANPO23N000024437,제주동백마을,관광지,팜스테이,제주특별자치도 서귀포시 남원읍 신흥리 1759-2,한신로531번길 1월 22일,33.32047032,126.7451296,남부지역,팜스테이,제주,,정보없음,정보없음,정보없음,정보없음,정보없음,체험/레저,
KCLANPO23N000024496,한라산영실,관광지,기타,제주특별자치도 서귀포시 도순동  산1,1100로 740-168,33.32309046,126.4802325,N,제주,,,정보없음,정보없음,정보없음,정보없음,정보없음,기타,
KCLANPO23N000024568,호호초콜릿,관광지,기타,제주특별자치도 서귀포시 성산읍 수산리 1672,서성일로 895,33.43968796,126.875278,동부지역,N,제주,,정보없음,정보없음,정보없음,정보없음,정보없음,기타,
KCLANPO23N000024639,돈내코세미또,관광지,일반관광지,제주특별자치도 서귀포시 상효동  1463,돈내코로 137,33.30049679,126.5820042,일반관광지,제주,,,정보없음,정보없음,정보없음,정보없음,정보없음,관광명소,
KCLANPO23N000024649,하이디스토리교육농장,관광지,기타,제주특별자치도 제주시 봉개동  847-1,명림로 226-42,33.46607518,126.6060132,N,제주,,,정보없음,정보없음,정보없음,정보없음,정보없음,기타,
KCLANPO23N000024681,구좌읍조개잡이체험어장,관광지,기타,제주특별자치도 제주시 구좌읍 동복리 1594,동복로3길 8월 23일,33.55489247,126.7129007,동부지역,N,제주,,정보없음,정보없음,정보없음,정보없음,정보없음,기타,
KCLANPO23N000024686,장수물,관광지,기타,제주특별자치도 제주시 애월읍 수산리 2269,정보없음,33.45492501,126.4019,N,제주,서부지역,,정보없음,정보없음,정보없음,정보없음,정보없음,기타,
KCLANPO23N000024714,가시리농어촌체험휴양마을협의회,관광지,팜스테이,제주특별자치도 서귀포시 표선면 가시리 3149-33,녹산로 381-15,33.38309644,126.7362856,남부지역,팜스테이,제주,,정보없음,정보없음,정보없음,정보없음,정보없음,체험/레저,
KCLANPO23N000024740,제주이야기노형점,관광지,기타,제주특별자치도 제주시 노형동  908-5,원노형로 13,33.48744734,126.4847397,N,제주,,,정보없음,정보없음,정보없음,정보없음,정보없음,기타,
KCLANPO23N000024745,제주키위비자림농원,관광지,관광농원/허브마을,제주특별자치도 제주시 구좌읍 평대리 2850,비자림로동3길 77-81,33.50104334,126.8120724,허브마을,제주,동부지역,관광농원,정보없음,정보없음,정보없음,정보없음,정보없음,체험/레저,
KCLANPO23N000024824,이슬라보니따,관광지,기타,제주특별자치도 제주시 애월읍 하귀2리 261331,애월해안로 953-19,33.48393648,126.3955578,N,제주,서부지역,바다 전망,정보없음,정보없음,정보없음,정보없음,정보없음,기타,
KCLANPO23N000024834,고마워토토,관광지,일반관광지,제주특별자치도 제주시 애월읍 상귀리 152,고성북길 112,33.46981422,126.413086,일반관광지,제주,서부지역,,정보없음,정보없음,정보없음,정보없음,정보없음,관광명소,
KCLANPO23N000024961,코리아호스랜드,관광지,기타,제주특별자치도 서귀포시 표선면 가시리 441245,녹산로 180-21,33.3741799,126.7547248,남부지역,N,제주,,정보없음,정보없음,정보없음,정보없음,정보없음,기타,
KCLANPO23N000024962,좌배머들코지,관광지,기타,제주특별자치도 서귀포시 남원읍 위미리 1757-16,정보없음,33.27200831,126.6624,남부지역,N,제주,,정보없음,정보없음,정보없음,정보없음,정보없음,기타,
KCLANPO23N000024964,예술창작의집,관광지,기타,제주특별자치도 서귀포시 표선면 성읍리 943,성읍정의현로34번길 6,33.38593419,126.8023514,남부지역,N,제주,,정보없음,정보없음,정보없음,정보없음,정보없음,기타,
KCLANPO23N000024965,제단집,관광지,기타,제주특별자치도 서귀포시 대정읍 가파리 45675,정보없음,33.1688025,126.2786913,N,제주,,,정보없음,정보없음,정보없음,정보없음,정보없음,기타,
KCLANPO23N000025128,우녀천,관광지,기타,제주특별자치도 제주시 이도이동  379-6,청귤로1길 4월 1일,33.49972854,126.5368461,N,제주,,,정보없음,정보없음,정보없음,정보없음,정보없음,기타,
KCLANPO23N000025140,한경면,관광지,기타,제주특별자치도 제주시 한경면 조수리 2372,정보없음,33.32503733,126.2207547,N,제주,,,정보없음,정보없음,정보없음,정보없음,정보없음,기타,
KCLANPO23N000025195,고내촌,관광지,기타,제주특별자치도 제주시 애월읍 고내리 730-2,애상로 203-1,33.45281224,126.3419366,N,제주,서부지역,,정보없음,정보없음,정보없음,정보없음,정보없음,기타,
KCLANPO23N000025197,연동연대,관광지,기타,제주특별자치도 서귀포시 서호동  25628,이어도로1066번길 45,33.24256789,126.52375,N,제주,,,정보없음,정보없음,정보없음,정보없음,정보없음,기타,
KCLANPO23N000025198,평화통일의소,관광지,기타,제주특별자치도 제주시 우도면 연평리 2393,우목길 104,33.50975826,126.944175,N,제주,,,정보없음,정보없음,정보없음,정보없음,정보없음,기타,
KCLANPO23N000025267,추자도숭어체험장,관광지,기타,제주특별자치도 제주시 추자면 신양리 874-11,석두리길 4,33.93997357,126.3234431,N,제주,,,정보없음,정보없음,정보없음,정보없음,정보없음,기타,
KCLANPO23N000025277,제주물사랑홍보관,관광지,일반관광지,제주특별자치도 제주시 건입동  1192,산지로 5월 16일,33.51559757,126.5308845,일반관광지,제주,,,정보없음,정보없음,정보없음,정보없음,정보없음,관광명소,
KCLANPO23N000025303,우도동대공원,관광지,일반관광지,제주특별자치도 제주시 우도면 연평리 317-1,정보없음,33.49729366,126.9683793,일반관광지,제주,,,정보없음,정보없음,정보없음,정보없음,정보없음,관광명소,
KCLANPO23N000025331,한라산탐방로4,관광지,일반관광지,제주특별자치도 제주시 노형동  산20,1100로 2528-171,33.40692748,126.4980569,일반관광지,제주,,,정보없음,정보없음,정보없음,정보없음,정보없음,관광명소,
KCLANPO23N000027340,플레이토피아,관광지,테마공원/대형놀이공원,제주특별자치도 서귀포시 색달동  333194,중문관광로72번길 35,33.24855967,126.4105842,대형놀이공원,제주,테마공원,,정보없음,정보없음,정보없음,정보없음,정보없음,체험/레저,
KCLANPO23N000027394,마레보카라반,관광지,캠핑장,제주특별자치도 제주시 애월읍 고내리 41,신엄안3길 135,33.47030018,126.3537983,제주,서부지역,캠핑장,,정보없음,정보없음,정보없음,정보없음,정보없음,체험/레저,
KCLANPO23N000027658,제주보타리자연농원,관광지,관광농원/허브마을,제주특별자치도 제주시 애월읍 봉성리 1300,정보없음,33.39824117,126.3258454,허브마을,제주,서부지역,관광농원,정보없음,정보없음,정보없음,정보없음,정보없음,체험/레저,
KCLANPO23N000028614,제주허브동산별빛놀이,관광지,지역축제,제주특별자치도 서귀포시 표선면 표선리 257863,정보없음,33.33033318,126.8155951,남부지역,제주,지역축제,,정보없음,정보없음,정보없음,정보없음,정보없음,지역문화/이벤트,
KCLANPO23N000028639,메이더카라반,관광지,캠핑장,제주특별자치도 제주시 구좌읍 동복리 1651-1,일주동로 1622,33.55261332,126.7059251,동부지역,제주,캠핑장,,정보없음,정보없음,정보없음,정보없음,정보없음,체험/레저,
KCLANPO23N000028640,무거카라반,관광지,캠핑장,제주특별자치도 제주시 조천읍 신흥리 15,조함해안로 352,33.5488013,126.6549082,바다 전망,제주,캠핑장,,정보없음,정보없음,정보없음,정보없음,정보없음,체험/레저,
KCLANPO23N000028641,농사체험야영장,관광지,야영장,제주특별자치도 서귀포시 성산읍 고성리 352-52,섭지코지로25번길 116,33.4486335,126.920118,동부지역,제주,야영장,,정보없음,정보없음,정보없음,정보없음,정보없음,체험/레저,
KCLANPO23N000028642,쇠소깍오토파크,관광지,캠핑장,제주특별자치도 서귀포시 하효동  1213-3,칠십리로 638,33.24953932,126.6145065,제주,캠핑장,,,정보없음,정보없음,정보없음,정보없음,정보없음,체험/레저,
KCLANPO23N000028678,제주카페스타,관광지,지역축제,제주특별자치도 서귀포시 중문동  2700,중문관광로 224,33.24126807,126.4245559,남부지역,제주,지역축제,,정보없음,정보없음,정보없음,정보없음,정보없음,지역문화/이벤트,
KCLANPO23N000028679,제주라프별빛축제,관광지,지역축제,제주특별자치도 제주시 조천읍 선흘리 600-12,정보없음,33.4863496,126.7070885,제주,지역축제,,,정보없음,정보없음,정보없음,정보없음,정보없음,지역문화/이벤트,
KCLANPO23N000028968,한담해안산책로,관광지,일반관광지,제주특별자치도 제주시 애월읍 곽지리 1359,정보없음,33.45911457,126.3105926,일반관광지,제주,서부지역,,정보없음,정보없음,정보없음,정보없음,정보없음,관광명소,
KCLANPO23N000029552,새별오름나홀로나무,관광지,기타,제주특별자치도 제주시 한림읍 금악리 산30-8,정보없음,33.35085967,126.3495245,N,제주,서부지역,,정보없음,정보없음,정보없음,정보없음,정보없음,기타,
KCLANPO23N000029594,가파도청보리축제,관광지,지역축제,제주특별자치도 서귀포시 대정읍 가파리 276,정보없음,33.16981051,126.2712406,제주,지역축제,,,정보없음,정보없음,정보없음,정보없음,정보없음,지역문화/이벤트,
KCLANPO23N000030012,귤밭에콘테나,관광지,관광농원/허브마을,제주특별자치도 제주시 조천읍 와산리 851-2,정보없음,33.49850776,126.6791841,허브마을,제주,관광농원,,정보없음,정보없음,정보없음,정보없음,정보없음,체험/레저,
KCLANPO23N000030257,9.81파크,관광지,테마공원/대형놀이공원,제주특별자치도 제주시 애월읍 어음리 3916,천덕로 880-24,33.39001744,126.3662926,대형놀이공원,제주,서부지역,테마공원,정보없음,정보없음,정보없음,정보없음,정보없음,체험/레저,
KCLANPO23N000030261,서프라이즈테마파크,관광지,기타,제주특별자치도 제주시 조천읍 와흘리 2988,남조로 2243,33.46527964,126.6596289,N,제주,,,정보없음,정보없음,정보없음,정보없음,정보없음,기타,
KCLANPO23N000030262,고흐의정원,관광지,테마공원/대형놀이공원,제주특별자치도 서귀포시 성산읍 삼달리 1182,삼달신풍로 132,33.3733994,126.8437259,동부지역,대형놀이공원,제주,테마공원,정보없음,정보없음,정보없음,정보없음,정보없음,체험/레저,
KCLANPO23N000030633,재리쥬,관광지,동물원,제주특별자치도 서귀포시 표선면 세화리 106744,가시로 351-9,33.3435037,126.7887511,남부지역,제주,동물원,,정보없음,정보없음,정보없음,정보없음,정보없음,체험/레저,
KCLANPO23N000030839,제주왕벚꽃축제,관광지,지역축제,제주특별자치도 제주시 삼도일동  273,정보없음,33.50430193,126.5231675,제주,지역축제,,,정보없음,정보없음,정보없음,정보없음,정보없음,지역문화/이벤트,
KCLANPO23N000030841,짠페스티벌,관광지,지역축제,제주특별자치도 서귀포시 성산읍 고성리 297-1,동류암로 20,33.44985053,126.9182149,동부지역,제주,지역축제,,정보없음,정보없음,정보없음,정보없음,정보없음,지역문화/이벤트,
KCLANPO23N000031238,제주실내영상스튜디오,관광지,드라마/영화촬영지,제주특별자치도 제주시 한경면 저지리 2114-37,저지12길 53,33.33978417,126.2621946,제주,드라마,영화촬영지,,정보없음,정보없음,정보없음,정보없음,정보없음,체험/레저,
KCLANPO23N000031268,왕복짚라인,관광지,일반관광지,제주특별자치도 제주시 해안동  2109,해안마을북길 5월 14일,33.46486375,126.4534146,일반관광지,제주,바다 전망,,정보없음,정보없음,정보없음,정보없음,정보없음,관광명소,
KCLANPO23N000031692,금능으뜸원해변야영장,관광지,캠핑장,제주특별자치도 제주시 한림읍 금능리 2029,정보없음,33.39076661,126.2365271,제주,서부지역,캠핑장,,정보없음,정보없음,정보없음,정보없음,정보없음,체험/레저,
KCLANPO23N000031782,서빈백사해수욕장야영장,관광지,야영장,제주특별자치도 제주시 우도면 연평리 242889,정보없음,33.501124,126.943592,제주,야영장,,,정보없음,정보없음,정보없음,정보없음,정보없음,체험/레저,
KCLANPO23N000031823,금모래캠핑장,관광지,캠핑장,제주특별자치도 서귀포시 안덕면 화순리 813-8,화순해안로 85,33.24007188,126.3349715,바다 전망,제주,캠핑장,,정보없음,정보없음,정보없음,정보없음,정보없음,체험/레저,
KCLANPO23N000032306,인트로제주,관광지,기타,제주특별자치도 제주시 연동  1320,은수길 69,33.47069717,126.4881552,N,제주,,,정보없음,정보없음,정보없음,정보없음,정보없음,기타,
KCLANPO23N000032599,유수암캠핑장,관광지,야영장,제주특별자치도 제주시 애월읍 유수암리 2994,하소로 684-25,33.42258653,126.3940625,서부지역,제주,야영장,,정보없음,정보없음,정보없음,정보없음,정보없음,체험/레저,
KCLANPO23N000033495,제주유리의성별빛축제,관광지,지역축제,제주특별자치도 제주시 한경면 저지리 451076,녹차분재로 462,33.31463394,126.2733854,제주,지역축제,,,정보없음,정보없음,정보없음,정보없음,정보없음,지역문화/이벤트,
KCLANPO23N000033866,소길리녹색농촌체험휴양마을,관광지,팜스테이,제주특별자치도 제주시 애월읍 소길리 650-1,소길1길 15,33.44005419,126.379859,팜스테이,제주,서부지역,,정보없음,정보없음,정보없음,정보없음,정보없음,체험/레저,
KCLANPO23N000033867,동광리농촌체험마을,관광지,팜스테이,제주특별자치도 서귀포시 안덕면 동광리 976,동광로 107,33.30667486,126.33705,팜스테이,제주,,,정보없음,정보없음,정보없음,정보없음,정보없음,체험/레저,
KCLANPO23N000033976,송악산둘레길,관광지,먹거리/패션거리,제주특별자치도 서귀포시 대정읍 상모리 산2-13,최남단해안로 548-96,33.19738436,126.2937302,패션거리,먹거리,제주,바다 전망,정보없음,정보없음,정보없음,정보없음,정보없음,기타,
KCLANPO23N000034428,뽀로로&타요테마파크,관광지,테마공원/대형놀이공원,제주특별자치도 서귀포시 안덕면 상창리 79,병악로 269,33.30048422,126.3708118,대형놀이공원,제주,테마공원,,정보없음,정보없음,정보없음,정보없음,정보없음,체험/레저,
KCLANPO23N000034598,월정리카페거리,관광지,먹거리/패션거리,제주특별자치도 제주시 구좌읍 월정리 652-4,정보없음,33.5552795,126.7971365,패션거리,먹거리,제주,동부지역,정보없음,정보없음,정보없음,정보없음,정보없음,기타,
KCLANPO23N000034719,제주국제실험예술제,관광지,지역축제,제주특별자치도 서귀포시 서귀동  405-3,중정로 76,33.24791512,126.5644832,제주,지역축제,,,정보없음,정보없음,정보없음,정보없음,정보없음,지역문화/이벤트,
KCLANPO23N000034734,서중천탐방로,관광지,일반관광지,제주특별자치도 서귀포시 남원읍 한남리 1656,남한로420번길 64-23,33.31055189,126.7043906,남부지역,일반관광지,제주,,정보없음,정보없음,정보없음,정보없음,정보없음,관광명소,
KCLANPO23N000035258,행국이농장,관광지,관광농원/허브마을,제주특별자치도 제주시 한경면 낙천리 1479-1,낙산로 99,33.31566026,126.2312198,허브마을,제주,관광농원,,정보없음,정보없음,정보없음,정보없음,정보없음,체험/레저,
KCLANPO23N000035440,녹산로유채꽃도로,관광지,기타,제주특별자치도 서귀포시 표선면 가시리 산87-15,정보없음,33.39770803,126.7202046,남부지역,N,제주,,정보없음,정보없음,정보없음,정보없음,정보없음,기타,
KCLANPO23N000035443,오라CC벚꽃길,관광지,기타,제주특별자치도 제주시 오라이동  264-1,정보없음,33.45443783,126.5125533,N,제주,,,정보없음,정보없음,정보없음,정보없음,정보없음,기타,
KCLANPO23N000035452,하논분화구방문자센타,관광지,관광안내소/매표소,제주특별자치도 서귀포시 서홍동  1356-3,일주동로 8823,33.25436703,126.5462188,매표소,제주,관광안내소,,정보없음,정보없음,정보없음,정보없음,정보없음,관광안내소/매표소,
KCLANPO23N000035495,주간명월,관광지,유명관광지,제주특별자치도 제주시 우도면 연평리 산25,정보없음,33.49161473,126.961887,제주,유명관광지,,,정보없음,정보없음,정보없음,정보없음,정보없음,관광명소,
KCLANPO23N000035504,용머리해안탐방안내소,관광지,관광안내소/매표소,제주특별자치도 서귀포시 안덕면 사계리 116-7,사계남로216번길 24-30,33.23347003,126.313692,매표소,제주,관광안내소,,정보없음,정보없음,정보없음,정보없음,정보없음,관광안내소/매표소,
KCLANPO23N000035505,지질트레일,관광지,일반관광지,제주특별자치도 서귀포시 성산읍 오조리 24838,오조로 30,33.45667446,126.9149233,동부지역,일반관광지,제주,,정보없음,정보없음,정보없음,정보없음,정보없음,관광명소,
KCLANPO23N000036440,제주밭담축제,관광지,지역축제,제주특별자치도 제주시 구좌읍 월정리 1400-14,정보없음,33.56331281,126.7784969,동부지역,제주,지역축제,,정보없음,정보없음,정보없음,정보없음,정보없음,지역문화/이벤트,
KCLANPO23N000036514,걸세악감귤체험농장,관광지,관광농원/허브마을,제주특별자치도 서귀포시 남원읍 하례리 969,하례로 377,33.28010502,126.6207241,허브마을,남부지역,제주,관광농원,정보없음,정보없음,정보없음,정보없음,정보없음,체험/레저,
KCLANPO23N000037117,제주동백수목원,관광지,휴양림/수목원,제주특별자치도 서귀포시 남원읍 위미리 927,정보없음,33.27496671,126.6780302,남부지역,휴양림,제주,수목원,정보없음,정보없음,정보없음,정보없음,정보없음,자연경관,
KCLANPO23N000037614,제주카페거리,관광지,먹거리/패션거리,제주특별자치도 제주시 용담삼동  2363,서해안로 488,33.51913625,126.4912392,패션거리,먹거리,제주,바다 전망,정보없음,정보없음,정보없음,정보없음,정보없음,기타,
KCLANPO23N000037615,종달리수국길,관광지,먹거리/패션거리,제주특별자치도 제주시 구좌읍 종달리 45658,정보없음,33.50813679,126.910565,패션거리,먹거리,제주,동부지역,정보없음,정보없음,정보없음,정보없음,정보없음,기타,
KCLANPO23N000037616,두맹이골목,관광지,먹거리/패션거리,제주특별자치도 제주시 일도이동  990-1,동문로16길 6월 17일,33.51215403,126.5350724,패션거리,먹거리,제주,,정보없음,정보없음,정보없음,정보없음,정보없음,기타,
KCLANPO23N000037617,칠성로쇼핑거리,관광지,먹거리/패션거리,제주특별자치도 제주시 일도일동  1301-7,정보없음,33.5143897,126.5255113,패션거리,먹거리,제주,,정보없음,정보없음,정보없음,정보없음,정보없음,기타,
KCLANPO23N000037618,홍가시나무길,관광지,먹거리/패션거리,제주특별자치도 서귀포시 하원동  산101,정보없음,33.2857055,126.4590436,패션거리,먹거리,제주,,정보없음,정보없음,정보없음,정보없음,정보없음,기타,
KCLANPO23N000037619,남수각하늘길벽화거리,관광지,먹거리/패션거리,제주특별자치도 제주시 일도일동  1100-6,정보없음,33.51143823,126.5279609,패션거리,먹거리,제주,,정보없음,정보없음,정보없음,정보없음,정보없음,기타,
KCLANPO23N000037620,조천비석거리,관광지,먹거리/패션거리,제주특별자치도 제주시 조천읍 조천리 280568,조함해안로 26,33.53956246,126.6373396,패션거리,먹거리,제주,바다 전망,정보없음,정보없음,정보없음,정보없음,정보없음,기타,
KCLANPO23N000037621,신화의거리,관광지,먹거리/패션거리,제주특별자치도 제주시 연동  273,정보없음,33.4873346,126.4901259,패션거리,먹거리,제주,,정보없음,정보없음,정보없음,정보없음,정보없음,기타,
KCLANPO23N000037623,해병대길,관광지,먹거리/패션거리,제주특별자치도 서귀포시 표선면 토산리 ,정보없음,33.30465014,126.7936428,패션거리,먹거리,제주,남부지역,정보없음,정보없음,정보없음,정보없음,정보없음,기타,
KCLANPO23N000037624,신천리마을올레,관광지,먹거리/패션거리,제주특별자치도 서귀포시 성산읍 신천리 1085,정보없음,33.34285963,126.8531199,패션거리,먹거리,제주,동부지역,정보없음,정보없음,정보없음,정보없음,정보없음,기타,
KCLANPO23N000037625,내수면둑방길,관광지,먹거리/패션거리,제주특별자치도 서귀포시 성산읍 오조리 2210,일주동로4098번길 112-18,33.45611727,126.9228403,패션거리,먹거리,제주,동부지역,정보없음,정보없음,정보없음,정보없음,정보없음,기타,
KCLANPO23N000037626,천지연기정길,관광지,먹거리/패션거리,제주특별자치도 서귀포시 서귀동  850-2,정보없음,33.24733524,126.5549742,패션거리,먹거리,제주,,정보없음,정보없음,정보없음,정보없음,정보없음,기타,
KCLANPO23N000037627,신촌가는옛길,관광지,먹거리/패션거리,제주특별자치도 제주시 삼양일동  725,원당북로 70,33.53145269,126.6002674,패션거리,먹거리,제주,,정보없음,정보없음,정보없음,정보없음,정보없음,기타,
KCLANPO23N000037628,이시돌길,관광지,먹거리/패션거리,제주특별자치도 제주시 한림읍 금악리 371-2,정보없음,33.34836847,126.3208142,패션거리,먹거리,제주,서부지역,정보없음,정보없음,정보없음,정보없음,정보없음,기타,
KCLANPO23N000037629,뒷동산아리랑길,관광지,먹거리/패션거리,제주특별자치도 제주시 한경면 저지리 1242-3,정보없음,33.33546909,126.2395622,패션거리,먹거리,제주,,정보없음,정보없음,정보없음,정보없음,정보없음,기타,
KCLANPO23N000037850,애월카페거리,관광지,먹거리/패션거리,제주특별자치도 제주시 애월읍 애월리 2540,애월로1길 25,33.46260787,126.3092394,패션거리,먹거리,제주,서부지역,정보없음,정보없음,정보없음,정보없음,정보없음,기타,
KCLANPO23N000037851,샤이니숲길,관광지,먹거리/패션거리,제주특별자치도 제주시 조천읍 교래리 산86-1,정보없음,33.42692204,126.6619691,패션거리,먹거리,제주,,정보없음,정보없음,정보없음,정보없음,정보없음,기타,
KCLANPO23N000037852,보롬왓수국길,관광지,먹거리/패션거리,제주특별자치도 서귀포시 표선면 성읍리 3178-23,정보없음,33.41225197,126.7538717,패션거리,먹거리,제주,남부지역,정보없음,정보없음,정보없음,정보없음,정보없음,기타,
KCLANPO23N000037853,도두추억애거리,관광지,먹거리/패션거리,제주특별자치도 제주시 도두일동  2634,정보없음,33.50365904,126.4633663,패션거리,먹거리,제주,,정보없음,정보없음,정보없음,정보없음,정보없음,기타,
KCLANPO23N000037854,화북비석거리,관광지,먹거리/패션거리,제주특별자치도 제주시 화북일동  5749,정보없음,33.52044458,126.5605645,패션거리,먹거리,제주,,정보없음,정보없음,정보없음,정보없음,정보없음,기타,
KCLANPO23N000037856,고성윗마을갈림길,관광지,먹거리/패션거리,제주특별자치도 서귀포시 성산읍 고성리 1547-1,산성효자로 75,33.4482488,126.9058823,패션거리,먹거리,제주,동부지역,정보없음,정보없음,정보없음,정보없음,정보없음,기타,
KCLANPO23N000037857,예초리기정길끝,관광지,먹거리/패션거리,제주특별자치도 제주시 추자면 예초리 191-2,정보없음,33.95612631,126.3344962,패션거리,먹거리,제주,,정보없음,정보없음,정보없음,정보없음,정보없음,기타,
KCLANPO23N000038372,윈드1947카트테마파크,관광지,테마공원/대형놀이공원,제주특별자치도 서귀포시 토평동  1799,토평공단로 78-27,33.28958201,126.5889748,대형놀이공원,제주,테마공원,,정보없음,정보없음,정보없음,정보없음,정보없음,체험/레저,
KCLANPO23N000038795,제주벚꽃길,관광지,먹거리/패션거리,제주특별자치도 제주시 아라일동  358-2,정보없음,33.45894809,126.5576232,패션거리,먹거리,제주,,정보없음,정보없음,정보없음,정보없음,정보없음,기타,
KCLANPO23N000038859,사프리카더캠프,관광지,야영장,제주특별자치도 제주시 우도면 연평리 428,정보없음,33.49909819,126.9598283,제주,야영장,,,정보없음,정보없음,정보없음,정보없음,정보없음,체험/레저,
KCLANPO23N000038866,도두동무지개해안도로,관광지,일반관광지,제주특별자치도 제주시 도두일동  1734,정보없음,33.50954339,126.4731505,일반관광지,제주,,,정보없음,정보없음,정보없음,정보없음,정보없음,관광명소,
KCLANPO23N000039448,고상돈로,관광지,일반관광지,제주특별자치도 서귀포시 색달동  산1-2,정보없음,33.35812477,126.4630226,일반관광지,제주,,,정보없음,정보없음,정보없음,정보없음,정보없음,관광명소,
KCLANPO23N000039449,헌마공신김만일로,관광지,일반관광지,제주특별자치도 서귀포시 남원읍 한남리 1002-1,정보없음,33.33556052,126.6887042,남부지역,일반관광지,제주,,정보없음,정보없음,정보없음,정보없음,정보없음,관광명소,
KCLANPO23N000039450,호국영웅강승우로,관광지,일반관광지,제주특별자치도 서귀포시 성산읍 시흥리 271102,정보없음,33.47842079,126.9075203,동부지역,일반관광지,제주,,정보없음,정보없음,정보없음,정보없음,정보없음,관광명소,
KCLANPO23N000039451,호국영웅김문성로,관광지,일반관광지,제주특별자치도 서귀포시 하효동  156-1,정보없음,33.26353799,126.615092,일반관광지,제주,,,정보없음,정보없음,정보없음,정보없음,정보없음,관광명소,
KCLANPO23N000039452,3.1만세로,관광지,일반관광지,제주특별자치도 제주시 조천읍 조천리 3462,조천8길 1월 14일,33.54073734,126.6443118,일반관광지,제주,,,정보없음,정보없음,정보없음,정보없음,정보없음,관광명소,
KCLANPO23N000039453,고상돈로,관광지,일반관광지,제주특별자치도 제주시 해안동  산220-3,정보없음,33.38994543,126.4873819,일반관광지,제주,,,정보없음,정보없음,정보없음,정보없음,정보없음,관광명소,
KCLANPO23N000039454,김대건신부로,관광지,일반관광지,제주특별자치도 제주시 한경면 용수리 867088,정보없음,33.3226954,126.166586,일반관광지,제주,,,정보없음,정보없음,정보없음,정보없음,정보없음,관광명소,
KCLANPO23N000039455,이일옥길,관광지,일반관광지,제주특별자치도 제주시 한경면 판포리 337577,정보없음,33.36350037,126.2011052,일반관광지,제주,,,정보없음,정보없음,정보없음,정보없음,정보없음,관광명소,
KCLANPO23N000039456,정석항공로,관광지,일반관광지,제주특별자치도 제주시 조천읍 교래리 산11-3,정보없음,33.42886222,126.7246395,일반관광지,제주,,,정보없음,정보없음,정보없음,정보없음,정보없음,관광명소,
KCLANPO23N000039457,호국영웅한규택로,관광지,일반관광지,제주특별자치도 제주시 애월읍 하귀2리 1887-1,정보없음,33.47992954,126.4026984,일반관광지,제주,서부지역,,정보없음,정보없음,정보없음,정보없음,정보없음,관광명소,
KCLANPO23N000039573,마노르블랑,관광지,지역축제,제주특별자치도 서귀포시 안덕면 덕수리 2953,정보없음,33.25481696,126.2949881,제주,지역축제,,,정보없음,정보없음,정보없음,정보없음,정보없음,지역문화/이벤트,
KCLANPO23N000039653,수월봉지질트레일,관광지,기타,제주특별자치도 제주시 한경면 고산리 3760,정보없음,33.29483169,126.1633358,N,제주,,,정보없음,정보없음,정보없음,정보없음,정보없음,기타,
KCLANPO23N000039971,스누피가든,관광지,관광농원/허브마을,제주특별자치도 제주시 구좌읍 송당리 147253,금백조로 930,33.4441142,126.7783667,허브마을,제주,동부지역,관광농원,정보없음,정보없음,정보없음,정보없음,정보없음,체험/레저,
KCLANPO23N000040118,세계유산축전,관광지,지역축제,제주특별자치도 제주시 조천읍 선흘리 481,정보없음,33.45677893,126.7147547,제주,지역축제,,,정보없음,정보없음,정보없음,정보없음,정보없음,지역문화/이벤트,
KCLANPO23N000040136,서귀포칠십리축제,관광지,지역축제,제주특별자치도 서귀포시 서귀동  25569,정보없음,33.24355321,126.5690429,제주,지역축제,,,정보없음,정보없음,정보없음,정보없음,정보없음,지역문화/이벤트,
KCLANPO23N000040137,제주캠핑앤레저페어,관광지,지역축제,제주특별자치도 제주시 도남동  582,연삼로 286,33.49175552,126.5228158,제주,지역축제,,,정보없음,정보없음,정보없음,정보없음,정보없음,지역문화/이벤트,
KCLANPO23N000040344,무민랜드제주,관광지,테마공원/대형놀이공원,제주특별자치도 서귀포시 안덕면 상천리 470-6,병악로 420,33.30656733,126.3818108,대형놀이공원,제주,테마공원,,정보없음,정보없음,정보없음,정보없음,정보없음,체험/레저,
KCLANPO23N000040406,제주도해안길,관광지,일반관광지,제주특별자치도 제주시 한림읍 금능리 1600-3,정보없음,33.38825607,126.2224038,일반관광지,제주,서부지역,,정보없음,정보없음,정보없음,정보없음,정보없음,관광명소,
KCLANPO23N000040723,제주올레걷기축제,관광지,지역축제,제주특별자치도 서귀포시 서귀동  316-1,중정로 22,33.24742426,126.5586359,제주,지역축제,,,정보없음,정보없음,정보없음,정보없음,정보없음,지역문화/이벤트,
KCLANPO23N000040728,제주드라이브잇쇼,관광지,지역축제,제주특별자치도 제주시 오라일동  1165,서광로2길 24,33.49799794,126.5147188,제주,지역축제,,,정보없음,정보없음,정보없음,정보없음,정보없음,지역문화/이벤트,
KCLANPO23N000041032,동백포레스트,관광지,일반관광지,제주특별자치도 서귀포시 남원읍 신례리 1767,생기악로 53-38,33.30031983,126.6362025,남부지역,일반관광지,제주,,정보없음,정보없음,정보없음,정보없음,정보없음,관광명소,
KCLANPO23N000041334,한러수교30주년기념디지털아트동화특별전,관광지,지역축제,제주특별자치도 제주시 애월읍 신엄리 317214,애월해안로 516-7,33.47769963,126.3599301,제주,서부지역,바다 전망,지역축제,정보없음,정보없음,정보없음,정보없음,정보없음,지역문화/이벤트,
KCLANPO23N000041341,제주탐나라공화국,관광지,테마공원/대형놀이공원,제주특별자치도 제주시 한림읍 금악리 29799,한창로 897,33.33402874,126.3260163,대형놀이공원,제주,서부지역,테마공원,정보없음,정보없음,정보없음,정보없음,정보없음,체험/레저,
KCLANPO23N000041365,장한철생가,관광지,고택/생가/민속마을,제주특별자치도 제주시 애월읍 애월리 2532,애월로1길 26,33.4624852,126.3099801,민속마을,고택,제주,생가,정보없음,정보없음,정보없음,정보없음,정보없음,역사/문화유산,서부지역
KCLANPO23N000041609,닭머르해안길,관광지,유명관광지,제주특별자치도 제주시 조천읍 신촌리 132981,정보없음,33.53722414,126.6183229,제주,유명관광지,,,정보없음,정보없음,정보없음,정보없음,정보없음,관광명소,
KCLANPO23N000041662,제주해양레저안내센터,관광지,관광안내소/매표소,제주특별자치도 제주시 연동  310-12,신대로7길 7,33.49196856,126.4975829,매표소,제주,관광안내소,,정보없음,정보없음,정보없음,정보없음,정보없음,관광안내소/매표소,
KCLANPO23N000041664,닭머르해안길1코스,관광지,일반관광지,제주특별자치도 제주시 조천읍 신촌리 148714,정보없음,33.53719527,126.6162463,일반관광지,제주,,,정보없음,정보없음,정보없음,정보없음,정보없음,관광명소,
KCLANPO23N000041666,한라산둘레길천아숲길,관광지,일반관광지,제주특별자치도 제주시 애월읍 봉성리 산1,정보없음,33.36510079,126.4464811,일반관광지,제주,서부지역,,정보없음,정보없음,정보없음,정보없음,정보없음,관광명소,
KCLANPO23N000041676,천야계곡,관광지,폭포/계곡,제주특별자치도 제주시 애월읍 광령리 산184,정보없음,33.39642003,126.4592744,폭포,계곡,제주,서부지역,정보없음,정보없음,정보없음,정보없음,정보없음,산,
KCLANPO23N000042385,토종흑염소목장,관광지,일반관광지,제주특별자치도 서귀포시 남원읍 한남리 산14,정보없음,33.31983594,126.6584685,남부지역,일반관광지,제주,,정보없음,정보없음,정보없음,정보없음,정보없음,관광명소,
KCLANPO23N000042475,곽지관광지,관광지,일반관광지,제주특별자치도 제주시 애월읍 곽지리 1566,정보없음,33.44996996,126.3041395,일반관광지,제주,서부지역,,정보없음,정보없음,정보없음,정보없음,정보없음,관광명소,
KCLANPO23N000042486,월정리어촌해양관광센터,관광지,관광안내소/매표소,제주특별자치도 제주시 구좌읍 월정리 552,월정3길 Jun.53,33.55652976,126.7950586,동부지역,매표소,제주,관광안내소,정보없음,정보없음,정보없음,정보없음,정보없음,관광안내소/매표소,
KCLANPO23N000042489,협재관광지,관광지,유명관광지,제주특별자치도 제주시 한림읍 협재리 2450,정보없음,33.393434,126.2385161,제주,서부지역,유명관광지,,정보없음,정보없음,정보없음,정보없음,정보없음,관광명소,
KCLANPO23N000042693,엉덩물계곡,관광지,폭포/계곡,제주특별자치도 서귀포시 색달동  542113,정보없음,33.24793077,126.4136802,폭포,계곡,제주,,정보없음,정보없음,정보없음,정보없음,정보없음,산,
KCLANPO23N000042694,우도봉수대,관광지,유명관광지,제주특별자치도 제주시 우도면 연평리 797,우도해안길 602,33.52462742,126.9522828,제주,바다 전망,유명관광지,,정보없음,정보없음,정보없음,정보없음,정보없음,관광명소,
KCLANPO23N000042794,송훈파크,관광지,일반관광지,제주특별자치도 제주시 애월읍 상가리 산106,상가목장길 84,33.39301619,126.3829278,일반관광지,제주,서부지역,,정보없음,정보없음,정보없음,정보없음,정보없음,관광명소,
KCLANPO23N000042797,산방산유채꽃밭,관광지,일반관광지,제주특별자치도 서귀포시 안덕면 사계리 495-2,정보없음,33.24346971,126.3056006,일반관광지,제주,,,정보없음,정보없음,정보없음,정보없음,정보없음,관광명소,
KCLANPO23N000043165,곶자왈생태관광지원센터,관광지,관광안내소/매표소,제주특별자치도 제주시 한경면 청수리 113-2,연명로 344,33.3020718,126.2589195,매표소,제주,관광안내소,,정보없음,정보없음,정보없음,정보없음,정보없음,관광안내소/매표소,
KCLANPO23N000043167,노형수퍼마켓2,관광지,기타,제주특별자치도 제주시 해안동  86565,노형로 89,33.46496202,126.455131,N,제주,,,정보없음,정보없음,정보없음,정보없음,정보없음,기타,
KCLANPO23N000043171,도리관광농원,관광지,관광농원/허브마을,제주특별자치도 제주시 조천읍 교래리 465-3,비자림로 607,33.4339474,126.6726617,허브마을,제주,관광농원,,정보없음,정보없음,정보없음,정보없음,정보없음,체험/레저,
KCLANPO23N000043260,제주전농로벚꽃거리,관광지,유명관광지,제주특별자치도 제주시 삼도일동  1230,정보없음,33.50441962,126.5181578,제주,유명관광지,,,정보없음,정보없음,정보없음,정보없음,정보없음,관광명소,
KCLANPO23N000043278,에코그린캠핑장,관광지,캠핑장,제주특별자치도 제주시 애월읍 납읍리 1883,중산간서로 5587,33.44424469,126.3335233,제주,서부지역,캠핑장,,정보없음,정보없음,정보없음,정보없음,정보없음,체험/레저,
KCLANPO23N000043418,제주유채꽃도로,관광지,먹거리/패션거리,제주특별자치도 서귀포시 표선면 가시리 산54-1,정보없음,33.38435273,126.737467,패션거리,먹거리,제주,남부지역,정보없음,정보없음,정보없음,정보없음,정보없음,기타,
KCLANPO23N000043433,고산일과해안도로,관광지,먹거리/패션거리,제주특별자치도 서귀포시 대정읍 신도리 451076,정보없음,33.27345172,126.1725322,패션거리,먹거리,제주,,정보없음,정보없음,정보없음,정보없음,정보없음,기타,
KCLANPO23N000043434,열리해안도로,관광지,먹거리/패션거리,제주특별자치도 서귀포시 하예동  532-1,정보없음,33.23557792,126.3862664,패션거리,먹거리,제주,,정보없음,정보없음,정보없음,정보없음,정보없음,기타,
KCLANPO23N000043438,일과리해안도로,관광지,먹거리/패션거리,제주특별자치도 서귀포시 대정읍 일과리 7703,정보없음,33.24319736,126.2203798,패션거리,먹거리,제주,,정보없음,정보없음,정보없음,정보없음,정보없음,기타,
KCLANPO23N000043445,보목해안도로,관광지,먹거리/패션거리,제주특별자치도 서귀포시 보목동  1348-4,정보없음,33.23652848,126.5975038,패션거리,먹거리,제주,,정보없음,정보없음,정보없음,정보없음,정보없음,기타,
KCLANPO23N000043446,영락해안도로,관광지,먹거리/패션거리,제주특별자치도 서귀포시 대정읍 일과리 1257-2,정보없음,33.23432318,126.2363121,패션거리,먹거리,제주,,정보없음,정보없음,정보없음,정보없음,정보없음,기타,
KCLANPO23N000043744,리썸카라반,관광지,캠핑장,제주특별자치도 서귀포시 대정읍 일과리 1303-10,일과대수로27번길 12,33.23935652,126.2301691,제주,캠핑장,,,정보없음,정보없음,정보없음,정보없음,정보없음,체험/레저,
KCLANPO23N000044174,스타빌,관광지,캠핑장,제주특별자치도 서귀포시 안덕면 광평리 산31-1,광평로 34-154,33.33878342,126.3955237,제주,캠핑장,,,정보없음,정보없음,정보없음,정보없음,정보없음,체험/레저,
KCLANPO23N000044226,산양곶자왈,관광지,일반관광지,제주특별자치도 제주시 한경면 청수리 산6,정보없음,33.29659764,126.2517684,일반관광지,제주,,,정보없음,정보없음,정보없음,정보없음,정보없음,관광명소,
KCLANPO23N000044227,답다니수국밭,관광지,일반관광지,제주특별자치도 서귀포시 월평동  151-3,월평로50번길 17-34,33.24426799,126.4646764,일반관광지,제주,,,정보없음,정보없음,정보없음,정보없음,정보없음,관광명소,
KCLANPO23N000044376,비밀의숲,관광지,휴양림/수목원,제주특별자치도 제주시 구좌읍 송당리 2172,정보없음,33.45401639,126.7551569,동부지역,휴양림,제주,수목원,정보없음,정보없음,정보없음,정보없음,정보없음,자연경관,
KCLANPO23N000044389,안성리수국길,관광지,일반관광지,제주특별자치도 서귀포시 대정읍 안성리 995-1,정보없음,33.26967524,126.2837784,일반관광지,제주,,,정보없음,정보없음,정보없음,정보없음,정보없음,관광명소,
KCLANPO23N000044514,캐니언파크,관광지,동물원,제주특별자치도 제주시 연동  281-20,삼무로 51,33.49023564,126.4922242,제주,동물원,,,정보없음,정보없음,정보없음,정보없음,정보없음,체험/레저,
KCLANPO23N000044515,태웃개,관광지,기타,제주특별자치도 서귀포시 남원읍 위미리 25569,태위로398번길 57,33.2703513,126.6911785,남부지역,N,제주,,정보없음,정보없음,정보없음,정보없음,정보없음,기타,
KCLANPO23N000044729,신흥해수욕장,관광지,해수욕장,제주특별자치도 제주시 조천읍 신흥리 731-13,정보없음,33.55169451,126.6486863,해수욕장,제주,,,정보없음,정보없음,정보없음,정보없음,정보없음,바다,
KCLANPO23N000045243,성읍민속마을구경하는집,관광지,일반관광지,제주특별자치도 서귀포시 표선면 성읍리 594-1,성읍정의현로 94,33.39085654,126.8010889,남부지역,일반관광지,제주,,정보없음,정보없음,정보없음,정보없음,정보없음,관광명소,
KCLANPO23N000045412,숲속야영장휴림,관광지,야영장,제주특별자치도 제주시 애월읍 광령리 2873,광령남서길 40,33.44377846,126.4287826,서부지역,제주,야영장,,정보없음,정보없음,정보없음,정보없음,정보없음,체험/레저,
KCLANPO23N000045498,제주한옥,관광지,팜스테이,제주특별자치도 제주시 한경면 저지리 3140,녹차분재로 505,33.31700207,126.2697995,팜스테이,제주,,,정보없음,정보없음,정보없음,정보없음,정보없음,체험/레저,
KCLANPO23N000045847,상명정낭정보화마을,관광지,기타,제주특별자치도 제주시 한림읍 상명리 1015-1,상한로 4,33.35794829,126.2741083,N,제주,서부지역,,정보없음,정보없음,정보없음,정보없음,정보없음,기타,
KCLANPO23N000046160,훈데르트바서파크,관광지,테마공원/대형놀이공원,제주특별자치도 제주시 우도면 연평리 1706-1,우도해안길 Dec.32,33.493205,126.9561321,대형놀이공원,제주,바다 전망,테마공원,정보없음,정보없음,정보없음,정보없음,정보없음,체험/레저,
KCLANPO23N000046161,서광동리곶자왈생태탐방로,관광지,일반관광지,제주특별자치도 서귀포시 안덕면 서광리 산6,정보없음,33.28201893,126.3361509,일반관광지,제주,,,정보없음,정보없음,정보없음,정보없음,정보없음,관광명소,
KCLANPO23N000046231,오름농장,관광지,기타,제주특별자치도 제주시 구좌읍 김녕리 1028,김녕남8길 Nov.31,33.54849958,126.7547066,동부지역,N,제주,,정보없음,정보없음,정보없음,정보없음,정보없음,기타,
KCLANPO23N000046276,한남시험림,관광지,휴양림/수목원,제주특별자치도 서귀포시 남원읍 한남리 산3,서성로651번길 235,33.33619743,126.6470323,남부지역,휴양림,제주,수목원,정보없음,정보없음,정보없음,정보없음,정보없음,자연경관,
KCLANPO23N000046372,이호테우말등대,관광지,일반관광지,제주특별자치도 제주시 이호일동  375-43,정보없음,33.50184912,126.4520811,일반관광지,제주,,,정보없음,정보없음,정보없음,정보없음,정보없음,관광명소,
KCLANPO23N000046485,상가리야자숲,관광지,일반관광지,제주특별자치도 제주시 애월읍 상가리 536,고하상로 326,33.43944198,126.3584774,일반관광지,제주,서부지역,,정보없음,정보없음,정보없음,정보없음,정보없음,관광명소,
KCLANPO23N000046576,나바론절벽,관광지,일반관광지,제주특별자치도 제주시 추자면 영흥리 산26-1,정보없음,33.95624898,126.2936081,일반관광지,제주,,,정보없음,정보없음,정보없음,정보없음,정보없음,관광명소,
KCLANPO23N000046670,황우지선녀탕,관광지,일반관광지,제주특별자치도 서귀포시 서홍동  795-6,정보없음,33.2399795,126.5483319,일반관광지,제주,,,정보없음,정보없음,정보없음,정보없음,정보없음,관광명소,
KCLANPO23N000046865,비양도연평리야영지,관광지,야영장,제주특별자치도 제주시 우도면 연평리 3,정보없음,33.51539776,126.9684631,제주,야영장,,,정보없음,정보없음,정보없음,정보없음,정보없음,체험/레저,
KCLANPO23N000046947,짱구네유채꽃밭,관광지,일반관광지,제주특별자치도 서귀포시 성산읍 수산리 1021,정보없음,33.43960456,126.8787671,동부지역,일반관광지,제주,,정보없음,정보없음,정보없음,정보없음,정보없음,관광명소,
KCLANPO23N000047178,제주청수리마을,관광지,팜스테이,제주특별자치도 제주시 한경면 청수리 113-3,연명로 348,33.30227093,126.2590267,팜스테이,제주,,,정보없음,정보없음,정보없음,정보없음,정보없음,체험/레저,
KCLANPO23N000047326,캠핑스토리,관광지,캠핑장,제주특별자치도 제주시 애월읍 유수암리 2891,하소로 746,33.41738079,126.3950028,제주,서부지역,캠핑장,,정보없음,정보없음,정보없음,정보없음,정보없음,체험/레저,
KCLANPO23N000047413,대왕수천예래생태공원,관광지,일반관광지,제주특별자치도 서귀포시 상예동  849,정보없음,33.24933513,126.3975336,일반관광지,제주,,,정보없음,정보없음,정보없음,정보없음,정보없음,관광명소,
KCLANPO23N000047415,산양큰엉곶,관광지,일반관광지,제주특별자치도 제주시 한경면 청수리 956-6,연명로 179,33.29092813,126.2506443,일반관광지,제주,,,정보없음,정보없음,정보없음,정보없음,정보없음,관광명소,
KCLANPO23N000047453,K글램핑,관광지,캠핑장,제주특별자치도 제주시 애월읍 소길리 995-2,소길남길 120,33.42423047,126.3763946,제주,서부지역,캠핑장,,정보없음,정보없음,정보없음,정보없음,정보없음,체험/레저,
KCLANPO23N000047529,머체왓숲길방문객지원센터,관광지,관광안내소/매표소,제주특별자치도 서귀포시 남원읍 한남리 1622-3,서성로 755,33.33054354,126.6738641,남부지역,매표소,제주,관광안내소,정보없음,정보없음,정보없음,정보없음,정보없음,관광안내소/매표소,
KCLANPO23N000047777,종달야영장,관광지,야영장,제주특별자치도 제주시 구좌읍 종달리 2764-17,세종로 353,33.49877966,126.8906922,동부지역,제주,야영장,,정보없음,정보없음,정보없음,정보없음,정보없음,체험/레저,
KCLANPO23N000047851,오저여,관광지,일반관광지,제주특별자치도 제주시 구좌읍 행원리 1-91,정보없음,33.5611065,126.8150093,동부지역,일반관광지,제주,,정보없음,정보없음,정보없음,정보없음,정보없음,관광명소,
KCLANPO23N000047856,하도해녀체험마을,관광지,팜스테이,제주특별자치도 제주시 구좌읍 하도리 45952,해맞이해안로 1897-27,33.52003684,126.9040565,동부지역,팜스테이,제주,바다 전망,정보없음,정보없음,정보없음,정보없음,정보없음,체험/레저,
KCLANPO23N000047896,제주양떼목장,관광지,팜스테이,제주특별자치도 제주시 애월읍 납읍리 114,도치돌길 289-13,33.41115857,126.3653761,팜스테이,제주,서부지역,,정보없음,정보없음,정보없음,정보없음,정보없음,체험/레저,
KCLANPO23N000047937,녹고뫼캠핑장관광농원,관광지,관광농원/허브마을,제주특별자치도 제주시 애월읍 유수암리 3268,유수암평화10길 175-78,33.41310304,126.4182328,허브마을,제주,서부지역,관광농원,정보없음,정보없음,정보없음,정보없음,정보없음,체험/레저,
KCLANPO23N000048104,코난해변,관광지,해수욕장,제주특별자치도 제주시 구좌읍 행원리 575-6,정보없음,33.55752396,126.8111767,동부지역,해수욕장,제주,,정보없음,정보없음,정보없음,정보없음,정보없음,바다,
KCLANPO23N000048197,어라운드폴리캠프,관광지,캠핑장,제주특별자치도 서귀포시 성산읍 난산리 285653,서성일로 431,33.41540572,126.8349714,동부지역,제주,캠핑장,,정보없음,정보없음,정보없음,정보없음,정보없음,체험/레저,
KCLANPO23N000048339,귤의정원바령,관광지,관광농원/허브마을,제주특별자치도 제주시 조천읍 선흘리 1396,선흘남3길 87,33.50538572,126.7060517,허브마을,제주,관광농원,,정보없음,정보없음,정보없음,정보없음,정보없음,체험/레저,
KCLANPO23N000048609,제주어른이집,관광지,일반관광지,제주특별자치도 제주시 구좌읍 김녕리 2540,김녕로4길 30,33.55269457,126.7439418,동부지역,일반관광지,제주,,정보없음,정보없음,정보없음,정보없음,정보없음,관광명소,
KCLANPO23N000048610,탐라신들의고향,관광지,일반관광지,제주특별자치도 제주시 조천읍 선흘리 1818,선교로 474,33.46337558,126.7099651,일반관광지,제주,,,정보없음,정보없음,정보없음,정보없음,정보없음,관광명소,
KCLANPO23N000048612,북촌환해장성,관광지,성/성터,제주특별자치도 제주시 조천읍 북촌리 ,정보없음,33.55018472,126.6904397,성터,성,제주,,정보없음,정보없음,정보없음,정보없음,정보없음,역사/문화유산,
KCLANPO23N000048749,하얀보트,관광지,캠핑장,제주특별자치도 서귀포시 법환동  161-13,막숙포로 Jan.66,33.2355927,126.5145717,제주,캠핑장,,,정보없음,정보없음,정보없음,정보없음,정보없음,체험/레저,
KCLANPO23N000048799,영어마을세탁소,관광지,영어마을,제주특별자치도 서귀포시 대정읍 보성리 2477,글로벌에듀로 370,33.28072922,126.2782333,영어마을,제주,,,정보없음,정보없음,정보없음,정보없음,정보없음,체험/레저,
KCLANPO23N000048800,아이올레인포레스트캠핑,관광지,캠핑장,제주특별자치도 제주시 구좌읍 행원리 2963,덕행로 363,33.51757584,126.7875121,동부지역,제주,캠핑장,,정보없음,정보없음,정보없음,정보없음,정보없음,체험/레저,
KCLANPO23N000048915,강정해오름노을길,관광지,일반관광지,제주특별자치도 서귀포시 강정동  1119683,말질로 279,33.22790309,126.477992,일반관광지,제주,,,정보없음,정보없음,정보없음,정보없음,정보없음,관광명소,
KCLANPO23N000049064,이스트몽블루카라반캠핑,관광지,캠핑장,제주특별자치도 제주시 구좌읍 종달리 582,종달동길 Jan.73,33.49160686,126.9069433,동부지역,제주,캠핑장,,정보없음,정보없음,정보없음,정보없음,정보없음,체험/레저,
KCLANPO23N000049166,다인카라반,관광지,캠핑장,제주특별자치도 제주시 애월읍 고내리 29037,애월해안로 400-19,33.47064814,126.3514318,바다 전망,제주,서부지역,캠핑장,정보없음,정보없음,정보없음,정보없음,정보없음,체험/레저,
KCLANPO23N000049168,선양캠핑장,관광지,캠핑장,제주특별자치도 제주시 조천읍 와흘리 262,와흘로 350,33.47468116,126.6437975,제주,캠핑장,,,정보없음,정보없음,정보없음,정보없음,정보없음,체험/레저,
KCLANPO23N000049250,태봉왓,관광지,캠핑장,제주특별자치도 서귀포시 대정읍 가파리 45677,가파로 101,33.16834876,126.2757007,제주,캠핑장,,,정보없음,정보없음,정보없음,정보없음,정보없음,체험/레저,
KCLANPO23N000049302,봉이나라글램핑장,관광지,캠핑장,제주특별자치도 제주시 조천읍 선흘리 3075,중산간동로 1063-24,33.49748409,126.6897235,제주,캠핑장,,,정보없음,정보없음,정보없음,정보없음,정보없음,체험/레저,
KCLANPO23N000049320,제주올레캠핑,관광지,캠핑장,제주특별자치도 제주시 애월읍 소길리 1363-9,평화로 2032-18,33.40370969,126.3851324,제주,서부지역,캠핑장,,정보없음,정보없음,정보없음,정보없음,정보없음,체험/레저,
KCLANPO23N000049375,제주올리브스탠다드,관광지,관광농원/허브마을,제주특별자치도 서귀포시 대정읍 안성리 693-2,평화로89번길 99,33.26573167,126.2884865,허브마을,제주,관광농원,,정보없음,정보없음,정보없음,정보없음,정보없음,체험/레저,
KCLANPO23N000049566,런닝맨,관광지,테마공원/대형놀이공원,제주특별자치도 서귀포시 색달동  2629,중문관광로 42,33.25494658,126.408922,대형놀이공원,제주,테마공원,,정보없음,정보없음,정보없음,정보없음,정보없음,체험/레저,
KCLANPO23N000049571,수월봉전망대,관광지,일반관광지,제주특별자치도 제주시 한경면 고산리 656009,정보없음,33.29502213,126.1635409,일반관광지,제주,,,정보없음,정보없음,정보없음,정보없음,정보없음,관광명소,
KCLANPO23N000049913,귤라라,관광지,기타,제주특별자치도 서귀포시 남원읍 한남리 1534-12,정보없음,33.31109023,126.6740044,남부지역,N,제주,,정보없음,정보없음,정보없음,정보없음,정보없음,기타,
KCLANPO23N000050046,팜스테이,관광지,팜스테이,제주특별자치도 서귀포시 호근동  569-8,정보없음,33.25047779,126.5368185,팜스테이,제주,,,정보없음,정보없음,정보없음,정보없음,정보없음,체험/레저,
KCLANPO23N000050060,호영팜스테이,관광지,팜스테이,제주특별자치도 제주시 한림읍 귀덕리 3474,귀덕4길 55-47,33.43589759,126.286067,팜스테이,제주,서부지역,,정보없음,정보없음,정보없음,정보없음,정보없음,체험/레저,
KCLANPO23N000050236,노을해안캠핑장,관광지,캠핑장,제주특별자치도 서귀포시 대정읍 영락리 1580-2,노을해안로 232,33.24607491,126.2048895,바다 전망,제주,캠핑장,,정보없음,정보없음,정보없음,정보없음,정보없음,체험/레저,
KCLANPO23N000050284,제주보롬왓,관광지,일반관광지,제주특별자치도 서귀포시 표선면 성읍리 485500,번영로 2350-104,33.41355741,126.7524733,남부지역,일반관광지,제주,,정보없음,정보없음,정보없음,정보없음,정보없음,관광명소,
KCLANPO23N000050301,메밀문화원,관광지,기타,제주특별자치도 서귀포시 표선면 표선리 14611,민속해안로 631-34,33.32420476,126.8410477,남부지역,N,제주,바다 전망,정보없음,정보없음,정보없음,정보없음,정보없음,기타,
KCLANPO23N000050320,씨엘빌리지,관광지,팜스테이,제주특별자치도 서귀포시 표선면 세화리 353,세성로 Feb.67,33.31217682,126.8037013,남부지역,팜스테이,제주,,정보없음,정보없음,정보없음,정보없음,정보없음,체험/레저,
KCLANPO23N000050353,곽지몬스터캠핑,관광지,캠핑장,제주특별자치도 제주시 애월읍 곽지리 1385,일주서로 Mar.83,33.45446699,126.308317,제주,서부지역,캠핑장,,정보없음,정보없음,정보없음,정보없음,정보없음,체험/레저,
KCLANPO23N000050863,유어제주,관광지,관광농원/허브마을,제주특별자치도 서귀포시 남원읍 태흥리 206-1,태신삼석로91번길 6,33.300559,126.7525337,허브마을,남부지역,제주,관광농원,정보없음,정보없음,정보없음,정보없음,정보없음,체험/레저,
KCLANPO23N000050941,닭머르해안길,관광지,일반관광지,제주특별자치도 제주시 조천읍 신촌리 4005,신촌9길 14,33.53683912,126.6173751,일반관광지,제주,,,정보없음,정보없음,정보없음,정보없음,정보없음,관광명소,
KCLANPO23N000050942,닭머르,관광지,일반관광지,제주특별자치도 제주시 조천읍 신촌리 3403,정보없음,33.53648586,126.6119286,일반관광지,제주,,,정보없음,정보없음,정보없음,정보없음,정보없음,관광명소,
KCLANPO23N000050943,따라비오름,관광지,일반관광지,제주특별자치도 서귀포시 표선면 가시리 산63,정보없음,33.38870738,126.7528953,남부지역,일반관광지,제주,,정보없음,정보없음,정보없음,정보없음,정보없음,관광명소,
KCLANPO23N000051133,북촌리등명대,관광지,일반관광지,제주특별자치도 제주시 조천읍 북촌리 1363-1,북촌7길 37,33.55123094,126.6932721,일반관광지,제주,,,정보없음,정보없음,정보없음,정보없음,정보없음,관광명소,
