id,name,theme,address,address_detail,lat,lng,description,main_menu,opening_hours,closed,phone,theme_category
KCLANPO23N000000109,동산물감귤체험농장,체험마을,제주특별자치도 서귀포시 성산읍 수산리 1948,서성일로 809,33.43626012,126.8672266,정보없음,정보없음,정보없음,정보없음,정보없음,액티비티형
KCLANPO23N000000189,제주돌마을공원,공원,제주특별자치도 제주시 한림읍 금능리 368-2,금능남로 421,33.35379119,126.2536938,정보없음,정보없음,정보없음,정보없음,정보없음,자연/경치형
KCLANPO23N000000461,제주마방목지,체험마을,제주특별자치도 제주시 용강동  산14-34,516로 2480,33.42769728,126.603715,정보없음,정보없음,정보없음,정보없음,정보없음,액티비티형
KCLANPO23N000000547,우도등대공원우도등대,공원,제주특별자치도 제주시 우도면 연평리 337,우도봉길 105,33.49257948,126.9657905,정보없음,정보없음,정보없음,정보없음,정보없음,자연/경치형
KCLANPO23N000000561,제주드림랜드,체험마을,제주특별자치도 제주시 애월읍 봉성리 4554,평화로 1529,33.36301766,126.3641092,정보없음,정보없음,정보없음,정보없음,정보없음,액티비티형
KCLANPO23N000000619,일출랜드,테마파크,제주특별자치도 서귀포시 성산읍 삼달리 1010,중산간동로 4150-30,33.38321007,126.8414037,정보없음,정보없음,정보없음,정보없음,정보없음,액티비티형
KCLANPO23N000000621,소인국테마파크,테마파크,제주특별자치도 서귀포시 안덕면 서광리 725,중산간서로 1878,33.29010357,126.3225065,정보없음,정보없음,정보없음,정보없음,정보없음,액티비티형
KCLANPO23N000000622,제주미니랜드,테마파크,제주특별자치도 제주시 조천읍 교래리 산56-4,비자림로 606,33.43316296,126.6739975,정보없음,정보없음,정보없음,정보없음,정보없음,액티비티형
KCLANPO23N000000623,퍼시픽리솜,테마파크,제주특별자치도 서귀포시 색달동  2950-17,중문관광로 154-17,33.24387572,126.4156193,정보없음,정보없음,정보없음,정보없음,정보없음,액티비티형
KCLANPO23N000000624,도깨비공원,테마파크,제주특별자치도 제주시 조천읍 선흘리 799519,번영로 1488,33.46336387,126.692139,정보없음,정보없음,정보없음,정보없음,정보없음,액티비티형
KCLANPO23N000001052,여미지식물원,공원,제주특별자치도 서귀포시 색달동  213304,중문관광로 93,33.252661,126.414292,정보없음,정보없음,정보없음,정보없음,정보없음,자연/경치형
KCLANPO23N000003441,갯깍주상절리대,바다,제주특별자치도 서귀포시 상예동  978,정보없음,33.24076097,126.3962622,정보없음,정보없음,정보없음,정보없음,정보없음,자연/경치형
KCLANPO23N000003442,거린사슴전망대,산,제주특별자치도 서귀포시 대포동  산2-11,1100로 823,33.30732548,126.4540557,정보없음,정보없음,정보없음,정보없음,정보없음,자연/경치형
KCLANPO23N000003443,거믄여해안경승지,바다,제주특별자치도 서귀포시 토평동  475-4,정보없음,33.24379929,126.5816265,정보없음,정보없음,정보없음,정보없음,정보없음,자연/경치형
KCLANPO23N000003445,렛츠런팜,체험마을,제주특별자치도 제주시 조천읍 교래리 산25-2,남조로 1660,33.41589177,126.6793436,정보없음,정보없음,정보없음,정보없음,정보없음,액티비티형
KCLANPO23N000003456,귀덕해안도로,드라이브,제주특별자치도 제주시 한림읍 귀덕리 417229,정보없음,33.44319079,126.2886439,정보없음,정보없음,정보없음,정보없음,정보없음,자연/경치형
KCLANPO23N000003462,김녕미로공원,공원,제주특별자치도 제주시 구좌읍 김녕리 산16,만장굴길 122,33.53680399,126.7724507,정보없음,정보없음,정보없음,정보없음,정보없음,자연/경치형
KCLANPO23N000003463,김녕해안도로,드라이브,제주특별자치도 제주시 구좌읍 김녕리 483-4,정보없음,33.5602704,126.7628007,정보없음,정보없음,정보없음,정보없음,정보없음,자연/경치형
KCLANPO23N000003469,남도리쉼터,바다,제주특별자치도 제주시 애월읍 신엄리 331093,정보없음,33.47716898,126.3535976,정보없음,정보없음,정보없음,정보없음,정보없음,자연/경치형
KCLANPO23N000003473,남원해안도로,드라이브,제주특별자치도 서귀포시 남원읍 남원리 1408-2,태위로 536,33.27489731,126.7090426,정보없음,정보없음,정보없음,정보없음,정보없음,자연/경치형
KCLANPO23N000003479,논짓물,바다,제주특별자치도 서귀포시 하예동  568,정보없음,33.23723652,126.3891241,정보없음,정보없음,정보없음,정보없음,정보없음,자연/경치형
KCLANPO23N000003482,다랑쉬오름,산,제주특별자치도 제주시 구좌읍 세화리 산6,정보없음,33.47637057,126.8214831,정보없음,정보없음,정보없음,정보없음,정보없음,자연/경치형
KCLANPO23N000003487,대유랜드,스포츠시설,제주특별자치도 서귀포시 상예동  144,상예로 381,33.27773158,126.3953294,정보없음,정보없음,정보없음,정보없음,정보없음,액티비티형
KCLANPO23N000003488,대포주상절리대,바다,제주특별자치도 서귀포시 중문동  317032,이어도로 36-30,33.23794234,126.4259332,정보없음,정보없음,정보없음,정보없음,정보없음,자연/경치형
KCLANPO23N000003490,도깨비도로,드라이브,제주특별자치도 제주시 아라일동  산67-5,정보없음,33.4364641,126.5552395,정보없음,정보없음,정보없음,정보없음,정보없음,자연/경치형
KCLANPO23N000003491,신비의도로,드라이브,제주특별자치도 제주시 노형동  3766,우평로 10,33.44910122,126.488051,정보없음,정보없음,정보없음,정보없음,정보없음,자연/경치형
KCLANPO23N000003496,돈내코유원지,강,제주특별자치도 서귀포시 상효동  1503,돈내코로 128-1,33.3009572,126.5851924,정보없음,정보없음,정보없음,정보없음,정보없음,자연/경치형
KCLANPO23N000003497,돌칸이,바다,제주특별자치도 제주시 우도면 연평리 1707,우도해안길 32-24,33.49273601,126.9578463,정보없음,정보없음,정보없음,정보없음,정보없음,자연/경치형
KCLANPO23N000003499,돔베낭골,바다,제주특별자치도 서귀포시 호근동  1608-2,정보없음,33.23965677,126.5330932,정보없음,정보없음,정보없음,정보없음,정보없음,자연/경치형
KCLANPO23N000003500,동복관광체험어장,체험마을,제주특별자치도 제주시 구좌읍 동복리 687-10,구좌해안로 35,33.55553881,126.7188131,정보없음,정보없음,정보없음,정보없음,정보없음,액티비티형
KCLANPO23N000003501,동복해안도로,드라이브,제주특별자치도 제주시 구좌읍 동복리 716-2,정보없음,33.5538527,126.7169343,정보없음,정보없음,정보없음,정보없음,정보없음,자연/경치형
KCLANPO23N000003510,만장굴,동굴,제주특별자치도 제주시 구좌읍 월정리 산41-15,만장굴길 182,33.52816783,126.7700321,정보없음,정보없음,정보없음,정보없음,정보없음,자연/경치형
KCLANPO23N000003524,별도봉공원,산,제주특별자치도 제주시 화북일동  4502,사라봉동길 74-17,33.51838918,126.549414,정보없음,정보없음,정보없음,정보없음,정보없음,자연/경치형
KCLANPO23N000003531,봉개관광승마장,체험마을,제주특별자치도 제주시 봉개동  275-86,정보없음,33.46272859,126.6113705,정보없음,정보없음,정보없음,정보없음,정보없음,액티비티형
KCLANPO23N000003534,생각하는정원,테마파크,제주특별자치도 제주시 한경면 저지리 1534,녹차분재로 675,33.32557563,126.2550285,정보없음,정보없음,정보없음,정보없음,정보없음,액티비티형
KCLANPO23N000003535,불사리탑사,사찰,제주특별자치도 제주시 조천읍 조천리 134411,일주동로 884,33.53194572,126.6362106,정보없음,정보없음,정보없음,정보없음,정보없음,역사/문화형
KCLANPO23N000003537,형제해안도로,드라이브,제주특별자치도 서귀포시 안덕면 사계리 2294-35,정보없음,33.22676683,126.3009557,정보없음,정보없음,정보없음,정보없음,정보없음,자연/경치형
KCLANPO23N000003538,사라봉공원,공원,제주특별자치도 제주시 건입동  387-1,사라봉동길 74,33.51754104,126.5453362,정보없음,정보없음,정보없음,정보없음,정보없음,자연/경치형
KCLANPO23N000003540,산굼부리,산,제주특별자치도 제주시 조천읍 교래리 342-2,비자림로 768,33.43294721,126.6930254,정보없음,정보없음,정보없음,정보없음,정보없음,자연/경치형
KCLANPO23N000003551,섭지코지,산,제주특별자치도 서귀포시 성산읍 고성리 127-2,섭지코지로 107,33.4302398,126.9280752,정보없음,정보없음,정보없음,정보없음,정보없음,자연/경치형
KCLANPO23N000003552,성산일출봉,산,제주특별자치도 서귀포시 성산읍 성산리 1,정보없음,33.45840755,126.9424991,정보없음,정보없음,정보없음,정보없음,정보없음,자연/경치형
KCLANPO23N000003555,세화해안도로,드라이브,제주특별자치도 제주시 구좌읍 하도리 3200-23,정보없음,33.52500973,126.8630529,정보없음,정보없음,정보없음,정보없음,정보없음,자연/경치형
KCLANPO23N000003560,송악해안도로,드라이브,제주특별자치도 서귀포시 대정읍 상모리 130-1,정보없음,33.20859858,126.2914075,정보없음,정보없음,정보없음,정보없음,정보없음,자연/경치형
KCLANPO23N000003564,수월봉,산,제주특별자치도 제주시 한경면 고산리 3761,정보없음,33.29457638,126.1629597,정보없음,정보없음,정보없음,정보없음,정보없음,자연/경치형
KCLANPO23N000003567,쉬리의언덕,바다,제주특별자치도 서귀포시 색달동  3039-41,정보없음,33.24555159,126.4072914,정보없음,정보없음,정보없음,정보없음,정보없음,자연/경치형
KCLANPO23N000003568,신산해안도로,드라이브,제주특별자치도 서귀포시 성산읍 신산리 1130-7,정보없음,33.37645849,126.876999,정보없음,정보없음,정보없음,정보없음,정보없음,자연/경치형
KCLANPO23N000003570,신양해안도로,드라이브,제주특별자치도 서귀포시 성산읍 고성리 602-4,정보없음,33.4323132,126.9152101,정보없음,정보없음,정보없음,정보없음,정보없음,자연/경치형
KCLANPO23N000003572,신창풍차해안도로,드라이브,제주특별자치도 제주시 한경면 신창리 542-9,한경해안로 565,33.34605593,126.1799646,정보없음,정보없음,정보없음,정보없음,정보없음,자연/경치형
KCLANPO23N000003578,애월해안도로,드라이브,제주특별자치도 제주시 애월읍 애월리 397-3,정보없음,33.46601948,126.3271673,정보없음,정보없음,정보없음,정보없음,정보없음,자연/경치형
KCLANPO23N000003586,어승생악,산,제주특별자치도 제주시 해안동  산220-12,정보없음,33.39632448,126.4892747,정보없음,정보없음,정보없음,정보없음,정보없음,자연/경치형
KCLANPO23N000003594,옹포해안도로,드라이브,제주특별자치도 제주시 한림읍 동명리 ,정보없음,33.40994778,126.2559436,정보없음,정보없음,정보없음,정보없음,정보없음,자연/경치형
KCLANPO23N000003595,외돌개,바다,제주특별자치도 서귀포시 호근동  336,정보없음,33.23977448,126.5439329,정보없음,정보없음,정보없음,정보없음,정보없음,자연/경치형
KCLANPO23N000003598,용두암공원,바다,제주특별자치도 제주시 용담이동  488-5,서해안로 687-1,33.51600348,126.5120296,정보없음,정보없음,정보없음,정보없음,정보없음,자연/경치형
KCLANPO23N000003599,용두암해안도로,드라이브,제주특별자치도 제주시 용담삼동  1134-3,정보없음,33.52024001,126.4963016,정보없음,정보없음,정보없음,정보없음,정보없음,자연/경치형
KCLANPO23N000003600,용머리촬영지,촬영지,제주특별자치도 서귀포시 안덕면 사계리 115,정보없음,33.23444272,126.3129506,정보없음,정보없음,정보없음,정보없음,정보없음,역사/문화형
KCLANPO23N000003601,용머리해안,바다,제주특별자치도 서귀포시 안덕면 사계리 112-3,정보없음,33.23215622,126.3147159,정보없음,정보없음,정보없음,정보없음,정보없음,자연/경치형
KCLANPO23N000003603,용수해안도로,드라이브,제주특별자치도 제주시 한경면 용수리 966493,정보없음,33.32064807,126.1676331,정보없음,정보없음,정보없음,정보없음,정보없음,자연/경치형
KCLANPO23N000003606,우도잠수함,체험마을,제주특별자치도 서귀포시 성산읍 성산리 347-9,성산등용로 130-19,33.47289331,126.9336716,정보없음,정보없음,정보없음,정보없음,정보없음,액티비티형
KCLANPO23N000003608,웅지승마센터,체험마을,제주특별자치도 제주시 애월읍 상가리 2156-15,산록서로 81,33.39092993,126.3796719,정보없음,정보없음,정보없음,정보없음,정보없음,액티비티형
KCLANPO23N000003616,이호해안도로,드라이브,제주특별자치도 제주시 이호일동  375-53,정보없음,33.50069,126.4548581,정보없음,정보없음,정보없음,정보없음,정보없음,자연/경치형
KCLANPO23N000003618,일과해안도로,드라이브,제주특별자치도 서귀포시 대정읍 일과리 1415-3,정보없음,33.24170736,126.2244311,정보없음,정보없음,정보없음,정보없음,정보없음,자연/경치형
KCLANPO23N000003634,유채꽃재배단지,공원,제주특별자치도 서귀포시 성산읍 고성리 270,정보없음,33.45480924,126.9250877,정보없음,정보없음,정보없음,정보없음,정보없음,자연/경치형
KCLANPO23N000003636,제주돌문화공원,공원,제주특별자치도 제주시 조천읍 교래리 산119,남조로 2023,33.44802966,126.6616058,정보없음,정보없음,정보없음,정보없음,정보없음,자연/경치형
KCLANPO23N000003637,제주랜드카트제주랜드ATV,스포츠시설,제주특별자치도 서귀포시 표선면 성읍리 2429,번영로 2561,33.40503004,126.7807807,정보없음,정보없음,정보없음,정보없음,정보없음,액티비티형
KCLANPO23N000003638,제주러브랜드,테마파크,제주특별자치도 제주시 연동  680-26,1100로 2894-72,33.45182487,126.4892166,정보없음,정보없음,정보없음,정보없음,정보없음,액티비티형
KCLANPO23N000003641,제주조각공원,공원,제주특별자치도 서귀포시 안덕면 덕수리 산27,일주서로 1836,33.25189543,126.3229808,정보없음,정보없음,정보없음,정보없음,정보없음,자연/경치형
KCLANPO23N000003643,행원풍력발전단지,바다,제주특별자치도 제주시 구좌읍 행원리 5,정보없음,33.55795026,126.8227758,정보없음,정보없음,정보없음,정보없음,정보없음,자연/경치형
KCLANPO23N000003644,제지기오름,산,제주특별자치도 서귀포시 보목동  275-1,정보없음,33.24177721,126.6094358,정보없음,정보없음,정보없음,정보없음,정보없음,자연/경치형
KCLANPO23N000003647,종달리해안도로,드라이브,제주특별자치도 제주시 구좌읍 종달리 457-3,정보없음,33.50493609,126.9127565,정보없음,정보없음,정보없음,정보없음,정보없음,자연/경치형
KCLANPO23N000003648,종달해안도로,드라이브,제주특별자치도 서귀포시 성산읍 오조리 368-3,정보없음,33.46997399,126.9190617,정보없음,정보없음,정보없음,정보없음,정보없음,자연/경치형
KCLANPO23N000003653,천연돌염전,바다,제주특별자치도 제주시 애월읍 구엄리 609-1,애월해안로 708,33.48365251,126.3765988,정보없음,정보없음,정보없음,정보없음,정보없음,자연/경치형
KCLANPO23N000003670,추사적거지,고택,제주특별자치도 서귀포시 대정읍 안성리 1661-1,추사로 44,33.24993322,126.2781921,정보없음,정보없음,정보없음,정보없음,정보없음,역사/문화형
KCLANPO23N000003683,하도리철새도래지,드라이브,제주특별자치도 제주시 구좌읍 하도리 19391,정보없음,33.51211743,126.8979422,정보없음,정보없음,정보없음,정보없음,정보없음,자연/경치형
KCLANPO23N000003689,한동해안도로,드라이브,제주특별자치도 제주시 구좌읍 한동리 1641,해맞이해안로 932,33.54660149,126.8278034,정보없음,정보없음,정보없음,정보없음,정보없음,자연/경치형
KCLANPO23N000003692,한림공원,공원,제주특별자치도 제주시 한림읍 협재리 2487,한림로 300,33.38934652,126.2405756,정보없음,정보없음,정보없음,정보없음,정보없음,자연/경치형
KCLANPO23N000003694,함덕해안도로,드라이브,제주특별자치도 제주시 조천읍 함덕리 1004-56,정보없음,33.54266853,126.6678405,정보없음,정보없음,정보없음,정보없음,정보없음,자연/경치형
KCLANPO23N000003699,제주서커스월드,테마파크,제주특별자치도 서귀포시 안덕면 동광리 886,동광로 214,33.31437259,126.3447392,정보없음,정보없음,정보없음,정보없음,정보없음,액티비티형
KCLANPO23N000003705,혼인지,유적지,제주특별자치도 서귀포시 성산읍 온평리 1695-1,혼인지로 39-42,33.4158434,126.8944062,정보없음,정보없음,정보없음,정보없음,정보없음,역사/문화형
KCLANPO23N000003917,알뜨르비행장,유적지,제주특별자치도 서귀포시 대정읍 상모리 1489,정보없음,33.21066454,126.2786798,정보없음,정보없음,정보없음,정보없음,정보없음,역사/문화형
KCLANPO23N000004005,명도암휴양목장,체험마을,제주특별자치도 제주시 봉개동  848-49,정보없음,33.46495763,126.6104295,정보없음,정보없음,정보없음,정보없음,정보없음,액티비티형
KCLANPO23N000004017,굼부리,산,제주특별자치도 서귀포시 표선면 성읍리 530-6,중산간동로 4585,33.38848724,126.8049982,정보없음,정보없음,정보없음,정보없음,정보없음,자연/경치형
KCLANPO23N000004039,산지등대,바다,제주특별자치도 제주시 건입동  340-2,사라봉동길 108-1,33.52142579,126.5455974,정보없음,정보없음,정보없음,정보없음,정보없음,자연/경치형
KCLANPO23N000004067,저지문화예술인마을,미술관,제주특별자치도 제주시 한경면 저지리 2114-64,저지12길 Mar.85,33.33895949,126.2652598,정보없음,정보없음,정보없음,정보없음,정보없음,역사/문화형
KCLANPO23N000004068,녹차미로공원,공원,제주특별자치도 서귀포시 색달동  산52,산록남로 1246,33.29325909,126.4213347,정보없음,정보없음,정보없음,정보없음,정보없음,자연/경치형
KCLANPO23N000004069,제주옹기마을,체험마을,제주특별자치도 제주시 한경면 조수리 688881,신정로 514,33.29896607,126.2193837,정보없음,정보없음,정보없음,정보없음,정보없음,액티비티형
KCLANPO23N000004070,종달리체험어장,체험마을,제주특별자치도 제주시 구좌읍 종달리 485-1,해맞이해안로 2286,33.49625186,126.9100556,정보없음,정보없음,정보없음,정보없음,정보없음,액티비티형
KCLANPO23N000019135,삼사석지,유적지,제주특별자치도 제주시 화북일동  1380-1,정보없음,33.52102968,126.5738739,정보없음,정보없음,정보없음,정보없음,정보없음,역사/문화형
KCLANPO23N000019281,무병장수테마파크,체험마을,제주특별자치도 제주시 애월읍 어음리 476,어음13길 196-11,33.3953304,126.3603837,정보없음,정보없음,정보없음,정보없음,정보없음,액티비티형
KCLANPO23N000019290,제주마테마파크,테마파크,제주특별자치도 서귀포시 성산읍 난산리 260451,서성일로 500-8,33.41785147,126.8419583,정보없음,정보없음,정보없음,정보없음,정보없음,액티비티형
KCLANPO23N000019293,참귀한농장,체험마을,제주특별자치도 서귀포시 성산읍 온평리 2454,정보없음,33.40280314,126.8838855,정보없음,정보없음,정보없음,정보없음,정보없음,액티비티형
KCLANPO23N000019297,서귀포치유의숲,산,제주특별자치도 서귀포시 호근동  산1,산록남로 2271,33.29199078,126.5269492,정보없음,정보없음,정보없음,정보없음,정보없음,자연/경치형
KCLANPO23N000019302,제주민속마을,체험마을,제주특별자치도 제주시 구좌읍 행원리 3503,월덕로 474,33.50978368,126.7707914,정보없음,정보없음,정보없음,정보없음,정보없음,액티비티형
KCLANPO23N000020310,로봇스퀘어,테마파크,제주특별자치도 제주시 구좌읍 한동리 1294,해맞이해안로 1032,33.53998487,126.8308968,정보없음,정보없음,정보없음,정보없음,정보없음,액티비티형
KCLANPO23N000020341,중문미로파크,테마파크,제주특별자치도 서귀포시 상예동  620974,정보없음,33.26317797,126.3814838,정보없음,정보없음,정보없음,정보없음,정보없음,액티비티형
KCLANPO23N000020550,알프스얼음보석궁전테마파크뮤지엄,테마파크,제주특별자치도 제주시 한경면 청수리 958,연명로 147,33.29124336,126.2491127,정보없음,정보없음,정보없음,정보없음,정보없음,액티비티형
KCLANPO23N000020638,수목원길,공원,제주특별자치도 제주시 연동  1327,정보없음,33.47119857,126.4881139,정보없음,정보없음,정보없음,정보없음,정보없음,자연/경치형
KCLANPO23N000020651,제주신화월드,테마파크,제주특별자치도 서귀포시 안덕면 서광리 산24,신화역사로304번길 38,33.30425179,126.3176726,정보없음,정보없음,정보없음,정보없음,정보없음,액티비티형
KCLANPO23N000020732,오라메밀꽃밭,공원,제주특별자치도 제주시 오라이동  산76,정보없음,33.42715043,126.5057508,정보없음,정보없음,정보없음,정보없음,정보없음,자연/경치형
KCLANPO23N000021171,번개레이싱,스포츠시설,제주특별자치도 서귀포시 안덕면 서광리 산39,녹차분재로 218,33.30465482,126.2999354,정보없음,정보없음,정보없음,정보없음,정보없음,액티비티형
KCLANPO23N000021400,제주불빛정원,공원,제주특별자치도 제주시 애월읍 유수암리 1083,평화로 2346,33.42168511,126.409489,정보없음,정보없음,정보없음,정보없음,정보없음,자연/경치형
KCLANPO23N000021401,황우지해안,바다,제주특별자치도 서귀포시 서홍동  765-1,남성로 92,33.24161287,126.5506016,정보없음,정보없음,정보없음,정보없음,정보없음,자연/경치형
KCLANPO23N000021403,봉봉감귤체험농장,체험마을,제주특별자치도 서귀포시 남원읍 신례리 720-1,중산간동로7141번길 16,33.28162578,126.6298205,정보없음,정보없음,정보없음,정보없음,정보없음,액티비티형
KCLANPO23N000021408,예래로벚꽃길,공원,제주특별자치도 서귀포시 하예동  293,예래로 234,33.24402814,126.3886459,정보없음,정보없음,정보없음,정보없음,정보없음,자연/경치형
KCLANPO23N000021573,화조원,테마파크,제주특별자치도 제주시 애월읍 납읍리 58,애원로 804,33.41059307,126.3722595,정보없음,정보없음,정보없음,정보없음,정보없음,액티비티형
KCLANPO23N000021695,로맨틱메이즈,공원,제주특별자치도 서귀포시 법환동  877,법환상로2번길 97-13,33.24720044,126.5125947,정보없음,정보없음,정보없음,정보없음,정보없음,자연/경치형
KCLANPO23N000022098,남원큰엉해변,바다,제주특별자치도 서귀포시 남원읍 남원리 175012,태위로 522-17,33.27296019,126.7033674,정보없음,정보없음,정보없음,정보없음,정보없음,자연/경치형
KCLANPO23N000022101,알작지해변,바다,제주특별자치도 제주시 내도동  ,정보없음,33.49594287,126.4395065,정보없음,정보없음,정보없음,정보없음,정보없음,자연/경치형
KCLANPO23N000022102,엉알해안,바다,제주특별자치도 제주시 한경면 고산리 ,정보없음,33.29957904,126.1674029,정보없음,정보없음,정보없음,정보없음,정보없음,자연/경치형
KCLANPO23N000022105,종달리해변,바다,제주특별자치도 제주시 구좌읍 종달리 ,정보없음,33.49588816,126.9096139,정보없음,정보없음,정보없음,정보없음,정보없음,자연/경치형
KCLANPO23N000022217,후포해변,바다,제주특별자치도 제주시 추자면 대서리 ,정보없음,33.96258466,126.289257,정보없음,정보없음,정보없음,정보없음,정보없음,자연/경치형
KCLANPO23N000022218,신대해안,바다,제주특별자치도 제주시 추자면 예초리 ,정보없음,33.95266159,126.3381699,정보없음,정보없음,정보없음,정보없음,정보없음,자연/경치형
KCLANPO23N000022464,중문오프로드체험장,스포츠시설,제주특별자치도 서귀포시 상예동  150,상예로 349,33.27585833,126.3968692,정보없음,정보없음,정보없음,정보없음,정보없음,액티비티형
KCLANPO23N000022715,빠빠유기농블루베리,체험마을,제주특별자치도 제주시 애월읍 봉성리 712,정보없음,33.39693307,126.3322699,정보없음,정보없음,정보없음,정보없음,정보없음,액티비티형
KCLANPO23N000022863,이시돌농장,체험마을,제주특별자치도 제주시 한림읍 금악리 583-1,금악북로 268-22,33.35230443,126.31296,정보없음,정보없음,정보없음,정보없음,정보없음,액티비티형
KCLANPO23N000022865,제주왕감귤체험농장,체험마을,제주특별자치도 서귀포시 남원읍 남원리 1151-1,남위남성로 10월 14일,33.28377654,126.7072774,정보없음,정보없음,정보없음,정보없음,정보없음,액티비티형
KCLANPO23N000022970,새미동산,체험마을,제주특별자치도 제주시 조천읍 와흘리 95362,종인내길 135,33.49486016,126.6228924,정보없음,정보없음,정보없음,정보없음,정보없음,액티비티형
KCLANPO23N000023162,낭만농장귤밭76번지,체험마을,제주특별자치도 서귀포시 안덕면 상창리 906,병악로 76,33.28306291,126.365207,정보없음,정보없음,정보없음,정보없음,정보없음,액티비티형
KCLANPO23N000023327,비자림,공원,제주특별자치도 제주시 구좌읍 평대리 산15,정보없음,33.4878984,126.8082044,정보없음,정보없음,정보없음,정보없음,정보없음,자연/경치형
KCLANPO23N000023500,도련뜰블루베리,체험마을,제주특별자치도 제주시 도련일동  1019-2,정보없음,33.5005674,126.5923949,정보없음,정보없음,정보없음,정보없음,정보없음,액티비티형
KCLANPO23N000023647,자연치유정원,공원,제주특별자치도 서귀포시 대포동  1161,이어도로 293-28,33.24684066,126.448569,정보없음,정보없음,정보없음,정보없음,정보없음,자연/경치형
KCLANPO23N000024393,우도봉,산,제주특별자치도 제주시 우도면 연평리 산37,정보없음,33.4922263,126.9641251,정보없음,정보없음,정보없음,정보없음,정보없음,자연/경치형
KCLANPO23N000024413,따라비승마장,체험마을,제주특별자치도 서귀포시 표선면 가시리 3149-16,녹산로 381-17,33.38305876,126.7357907,정보없음,정보없음,정보없음,정보없음,정보없음,액티비티형
KCLANPO23N000024437,제주동백마을,공원,제주특별자치도 서귀포시 남원읍 신흥리 1759-2,한신로531번길 1월 22일,33.32047032,126.7451296,정보없음,정보없음,정보없음,정보없음,정보없음,자연/경치형
KCLANPO23N000024496,무오법정사,사찰,제주특별자치도 서귀포시 도순동  산1,1100로 740-168,33.32309046,126.4802325,정보없음,정보없음,정보없음,정보없음,정보없음,역사/문화형
KCLANPO23N000024639,돈내코원앙폭포,강,제주특별자치도 서귀포시 상효동  1463,돈내코로 137,33.30049679,126.5820042,정보없음,정보없음,정보없음,정보없음,정보없음,자연/경치형
KCLANPO23N000024834,고마워토토,체험마을,제주특별자치도 제주시 애월읍 상귀리 152,고성북길 112,33.46981422,126.413086,정보없음,정보없음,정보없음,정보없음,정보없음,액티비티형
KCLANPO23N000025197,연동연대,유적지,제주특별자치도 서귀포시 서호동  25628,이어도로1066번길 45,33.24256789,126.52375,정보없음,정보없음,정보없음,정보없음,정보없음,역사/문화형
KCLANPO23N000025303,우도동대공원,공원,제주특별자치도 제주시 우도면 연평리 317-1,정보없음,33.49729366,126.9683793,정보없음,정보없음,정보없음,정보없음,정보없음,자연/경치형
KCLANPO23N000025331,한라산탐방로4,산,제주특별자치도 제주시 노형동  산20,1100로 2528-171,33.40692748,126.4980569,정보없음,정보없음,정보없음,정보없음,정보없음,자연/경치형
KCLANPO23N000027340,플레이토피아,스포츠시설,제주특별자치도 서귀포시 색달동  333194,중문관광로72번길 35,33.24855967,126.4105842,정보없음,정보없음,정보없음,정보없음,정보없음,액티비티형
KCLANPO23N000027658,제주보타리자연농원,체험마을,제주특별자치도 제주시 애월읍 봉성리 1300,정보없음,33.39824117,126.3258454,정보없음,정보없음,정보없음,정보없음,정보없음,액티비티형
KCLANPO23N000028968,한담해안산책로,바다,제주특별자치도 제주시 애월읍 곽지리 1359,정보없음,33.45911457,126.3105926,정보없음,정보없음,정보없음,정보없음,정보없음,자연/경치형
KCLANPO23N000030012,귤밭에콘테나,체험마을,제주특별자치도 제주시 조천읍 와산리 851-2,정보없음,33.49850776,126.6791841,정보없음,정보없음,정보없음,정보없음,정보없음,액티비티형
KCLANPO23N000030257,9.81파크,스포츠시설,제주특별자치도 제주시 애월읍 어음리 3916,천덕로 880-24,33.39001744,126.3662926,정보없음,정보없음,정보없음,정보없음,정보없음,액티비티형
KCLANPO23N000030261,서프라이즈테마파크,촬영지,제주특별자치도 제주시 조천읍 와흘리 2988,남조로 2243,33.46527964,126.6596289,정보없음,정보없음,정보없음,정보없음,정보없음,역사/문화형
KCLANPO23N000030262,고흐의정원,미술관,제주특별자치도 서귀포시 성산읍 삼달리 1182,삼달신풍로 132,33.3733994,126.8437259,정보없음,정보없음,정보없음,정보없음,정보없음,역사/문화형
KCLANPO23N000031268,왕복짚라인,스포츠시설,제주특별자치도 제주시 해안동  2109,해안마을북길 5월 14일,33.46486375,126.4534146,정보없음,정보없음,정보없음,정보없음,정보없음,액티비티형
KCLANPO23N000033866,소길리녹색농촌체험휴양마을,체험마을,제주특별자치도 제주시 애월읍 소길리 650-1,소길1길 15,33.44005419,126.379859,정보없음,정보없음,정보없음,정보없음,정보없음,액티비티형
KCLANPO23N000033867,동광리농촌체험마을,체험마을,제주특별자치도 서귀포시 안덕면 동광리 976,동광로 107,33.30667486,126.33705,정보없음,정보없음,정보없음,정보없음,정보없음,액티비티형
KCLANPO23N000034428,뽀로로&타요테마파크,테마파크,제주특별자치도 서귀포시 안덕면 상창리 79,병악로 269,33.30048422,126.3708118,정보없음,정보없음,정보없음,정보없음,정보없음,액티비티형
KCLANPO23N000034734,서중천탐방로,산,제주특별자치도 서귀포시 남원읍 한남리 1656,남한로420번길 64-23,33.31055189,126.7043906,정보없음,정보없음,정보없음,정보없음,정보없음,자연/경치형
KCLANPO23N000035440,녹산로유채꽃도로,드라이브,제주특별자치도 서귀포시 표선면 가시리 산87-15,정보없음,33.39770803,126.7202046,정보없음,정보없음,정보없음,정보없음,정보없음,자연/경치형
KCLANPO23N000035443,오라CC벚꽃길,드라이브,제주특별자치도 제주시 오라이동  264-1,정보없음,33.45443783,126.5125533,정보없음,정보없음,정보없음,정보없음,정보없음,자연/경치형
KCLANPO23N000035495,주간명월,바다,제주특별자치도 제주시 우도면 연평리 산25,정보없음,33.49161473,126.961887,정보없음,정보없음,정보없음,정보없음,정보없음,자연/경치형
KCLANPO23N000035505,지질트레일,산,제주특별자치도 서귀포시 성산읍 오조리 24838,오조로 30,33.45667446,126.9149233,정보없음,정보없음,정보없음,정보없음,정보없음,자연/경치형
KCLANPO23N000036514,걸세악감귤체험농장,체험마을,제주특별자치도 서귀포시 남원읍 하례리 969,하례로 377,33.28010502,126.6207241,정보없음,정보없음,정보없음,정보없음,정보없음,액티비티형
KCLANPO23N000037117,제주동백수목원,공원,제주특별자치도 서귀포시 남원읍 위미리 927,정보없음,33.27496671,126.6780302,정보없음,정보없음,정보없음,정보없음,정보없음,자연/경치형
KCLANPO23N000038372,윈드1947카트테마파크,스포츠시설,제주특별자치도 서귀포시 토평동  1799,토평공단로 78-27,33.28958201,126.5889748,정보없음,정보없음,정보없음,정보없음,정보없음,액티비티형
KCLANPO23N000038795,제주벚꽃길,드라이브,제주특별자치도 제주시 아라일동  358-2,정보없음,33.45894809,126.5576232,정보없음,정보없음,정보없음,정보없음,정보없음,자연/경치형
KCLANPO23N000038866,도두동무지개해안도로,드라이브,제주특별자치도 제주시 도두일동  1734,정보없음,33.50954339,126.4731505,정보없음,정보없음,정보없음,정보없음,정보없음,자연/경치형
KCLANPO23N000039448,고상돈로,드라이브,제주특별자치도 서귀포시 색달동  산1-2,정보없음,33.35812477,126.4630226,정보없음,정보없음,정보없음,정보없음,정보없음,자연/경치형
KCLANPO23N000039449,헌마공신김만일로,유적지,제주특별자치도 서귀포시 남원읍 한남리 1002-1,정보없음,33.33556052,126.6887042,정보없음,정보없음,정보없음,정보없음,정보없음,역사/문화형
KCLANPO23N000039450,호국영웅강승우로,유적지,제주특별자치도 서귀포시 성산읍 시흥리 271102,정보없음,33.47842079,126.9075203,정보없음,정보없음,정보없음,정보없음,정보없음,역사/문화형
KCLANPO23N000039451,호국영웅김문성로,유적지,제주특별자치도 서귀포시 하효동  156-1,정보없음,33.26353799,126.615092,정보없음,정보없음,정보없음,정보없음,정보없음,역사/문화형
KCLANPO23N000039653,수월봉지질트레일,산,제주특별자치도 제주시 한경면 고산리 3760,정보없음,33.29483169,126.1633358,정보없음,정보없음,정보없음,정보없음,정보없음,자연/경치형
KCLANPO23N000039971,스누피가든,테마파크,제주특별자치도 제주시 구좌읍 송당리 147253,금백조로 930,33.4441142,126.7783667,정보없음,정보없음,정보없음,정보없음,정보없음,액티비티형
KCLANPO23N000040344,무민랜드제주,테마파크,제주특별자치도 서귀포시 안덕면 상천리 470-6,병악로 420,33.30656733,126.3818108,정보없음,정보없음,정보없음,정보없음,정보없음,액티비티형
KCLANPO23N000040406,제주도해안길,드라이브,제주특별자치도 제주시 한림읍 금능리 1600-3,정보없음,33.38825607,126.2224038,정보없음,정보없음,정보없음,정보없음,정보없음,자연/경치형
KCLANPO23N000041032,동백포레스트,공원,제주특별자치도 서귀포시 남원읍 신례리 1767,생기악로 53-38,33.30031983,126.6362025,정보없음,정보없음,정보없음,정보없음,정보없음,자연/경치형
KCLANPO23N000041341,제주탐나라공화국,테마파크,제주특별자치도 제주시 한림읍 금악리 29799,한창로 897,33.33402874,126.3260163,정보없음,정보없음,정보없음,정보없음,정보없음,액티비티형
KCLANPO23N000041365,장한철생가,고택,제주특별자치도 제주시 애월읍 애월리 2532,애월로1길 26,33.4624852,126.3099801,정보없음,정보없음,정보없음,정보없음,정보없음,역사/문화형
KCLANPO23N000041666,한라산둘레길천아숲길,산,제주특별자치도 제주시 애월읍 봉성리 산1,정보없음,33.36510079,126.4464811,정보없음,정보없음,정보없음,정보없음,정보없음,자연/경치형
KCLANPO23N000041676,천야계곡,강,제주특별자치도 제주시 애월읍 광령리 산184,정보없음,33.39642003,126.4592744,정보없음,정보없음,정보없음,정보없음,정보없음,자연/경치형
KCLANPO23N000042385,토종흑염소목장,체험마을,제주특별자치도 서귀포시 남원읍 한남리 산14,정보없음,33.31983594,126.6584685,정보없음,정보없음,정보없음,정보없음,정보없음,액티비티형
KCLANPO23N000042475,곽지관광지,바다,제주특별자치도 제주시 애월읍 곽지리 1566,정보없음,33.44996996,126.3041395,정보없음,정보없음,정보없음,정보없음,정보없음,자연/경치형
KCLANPO23N000042489,협재관광지,바다,제주특별자치도 제주시 한림읍 협재리 2450,정보없음,33.393434,126.2385161,정보없음,정보없음,정보없음,정보없음,정보없음,자연/경치형
KCLANPO23N000042693,엉덩물계곡,강,제주특별자치도 서귀포시 색달동  542113,정보없음,33.24793077,126.4136802,정보없음,정보없음,정보없음,정보없음,정보없음,자연/경치형
KCLANPO23N000042794,송훈파크,공원,제주특별자치도 제주시 애월읍 상가리 산106,상가목장길 84,33.39301619,126.3829278,정보없음,정보없음,정보없음,정보없음,정보없음,자연/경치형
KCLANPO23N000042797,산방산유채꽃밭,공원,제주특별자치도 서귀포시 안덕면 사계리 495-2,정보없음,33.24346971,126.3056006,정보없음,정보없음,정보없음,정보없음,정보없음,자연/경치형
KCLANPO23N000043167,노형수퍼마켓2,미술관,제주특별자치도 제주시 해안동  86565,노형로 89,33.46496202,126.455131,정보없음,정보없음,정보없음,정보없음,정보없음,역사/문화형
KCLANPO23N000043260,제주전농로벚꽃거리,공원,제주특별자치도 제주시 삼도일동  1230,정보없음,33.50441962,126.5181578,정보없음,정보없음,정보없음,정보없음,정보없음,자연/경치형
KCLANPO23N000044226,산양곶자왈,산,제주특별자치도 제주시 한경면 청수리 산6,정보없음,33.29659764,126.2517684,정보없음,정보없음,정보없음,정보없음,정보없음,자연/경치형
KCLANPO23N000044227,답다니수국밭,공원,제주특별자치도 서귀포시 월평동  151-3,월평로50번길 17-34,33.24426799,126.4646764,정보없음,정보없음,정보없음,정보없음,정보없음,자연/경치형
KCLANPO23N000044376,비밀의숲,공원,제주특별자치도 제주시 구좌읍 송당리 2172,정보없음,33.45401639,126.7551569,정보없음,정보없음,정보없음,정보없음,정보없음,자연/경치형
KCLANPO23N000044389,안성리수국길,공원,제주특별자치도 서귀포시 대정읍 안성리 995-1,정보없음,33.26967524,126.2837784,정보없음,정보없음,정보없음,정보없음,정보없음,자연/경치형
KCLANPO23N000044514,캐니언파크,테마파크,제주특별자치도 제주시 연동  281-20,삼무로 51,33.49023564,126.4922242,정보없음,정보없음,정보없음,정보없음,정보없음,액티비티형
KCLANPO23N000044515,태웃개,바다,제주특별자치도 서귀포시 남원읍 위미리 25569,태위로398번길 57,33.2703513,126.6911785,정보없음,정보없음,정보없음,정보없음,정보없음,자연/경치형
KCLANPO23N000044729,신흥해수욕장,바다,제주특별자치도 제주시 조천읍 신흥리 731-13,정보없음,33.55169451,126.6486863,정보없음,정보없음,정보없음,정보없음,정보없음,자연/경치형
KCLANPO23N000045243,성읍민속마을구경하는집,체험마을,제주특별자치도 서귀포시 표선면 성읍리 594-1,성읍정의현로 94,33.39085654,126.8010889,정보없음,정보없음,정보없음,정보없음,정보없음,액티비티형
KCLANPO23N000046160,훈데르트바서파크,테마파크,제주특별자치도 제주시 우도면 연평리 1706-1,우도해안길 Dec.32,33.493205,126.9561321,정보없음,정보없음,정보없음,정보없음,정보없음,액티비티형
KCLANPO23N000046161,서광동리곶자왈생태탐방로,산,제주특별자치도 서귀포시 안덕면 서광리 산6,정보없음,33.28201893,126.3361509,정보없음,정보없음,정보없음,정보없음,정보없음,자연/경치형
KCLANPO23N000046276,한남시험림,산,제주특별자치도 서귀포시 남원읍 한남리 산3,서성로651번길 235,33.33619743,126.6470323,정보없음,정보없음,정보없음,정보없음,정보없음,자연/경치형
KCLANPO23N000046372,이호테우말등대,바다,제주특별자치도 제주시 이호일동  375-43,정보없음,33.50184912,126.4520811,정보없음,정보없음,정보없음,정보없음,정보없음,자연/경치형
KCLANPO23N000046485,상가리야자숲,공원,제주특별자치도 제주시 애월읍 상가리 536,고하상로 326,33.43944198,126.3584774,정보없음,정보없음,정보없음,정보없음,정보없음,자연/경치형
KCLANPO23N000046576,나바론절벽,바다,제주특별자치도 제주시 추자면 영흥리 산26-1,정보없음,33.95624898,126.2936081,정보없음,정보없음,정보없음,정보없음,정보없음,자연/경치형
KCLANPO23N000046670,황우지선녀탕,바다,제주특별자치도 서귀포시 서홍동  795-6,정보없음,33.2399795,126.5483319,정보없음,정보없음,정보없음,정보없음,정보없음,자연/경치형
KCLANPO23N000046947,짱구네유채꽃밭,공원,제주특별자치도 서귀포시 성산읍 수산리 1021,정보없음,33.43960456,126.8787671,정보없음,정보없음,정보없음,정보없음,정보없음,자연/경치형
KCLANPO23N000047178,제주청수리마을,체험마을,제주특별자치도 제주시 한경면 청수리 113-3,연명로 348,33.30227093,126.2590267,정보없음,정보없음,정보없음,정보없음,정보없음,액티비티형
KCLANPO23N000047413,대왕수천예래생태공원,공원,제주특별자치도 서귀포시 상예동  849,정보없음,33.24933513,126.3975336,정보없음,정보없음,정보없음,정보없음,정보없음,자연/경치형
KCLANPO23N000047415,산양큰엉곶,산,제주특별자치도 제주시 한경면 청수리 956-6,연명로 179,33.29092813,126.2506443,정보없음,정보없음,정보없음,정보없음,정보없음,자연/경치형
KCLANPO23N000047529,머체왓숲길,산,제주특별자치도 서귀포시 남원읍 한남리 1622-3,서성로 755,33.33054354,126.6738641,정보없음,정보없음,정보없음,정보없음,정보없음,자연/경치형
KCLANPO23N000047851,오저여,바다,제주특별자치도 제주시 구좌읍 행원리 1-91,정보없음,33.5611065,126.8150093,정보없음,정보없음,정보없음,정보없음,정보없음,자연/경치형
KCLANPO23N000047856,하도해녀체험마을,체험마을,제주특별자치도 제주시 구좌읍 하도리 45952,해맞이해안로 1897-27,33.52003684,126.9040565,정보없음,정보없음,정보없음,정보없음,정보없음,액티비티형
KCLANPO23N000047896,제주양떼목장,체험마을,제주특별자치도 제주시 애월읍 납읍리 114,도치돌길 289-13,33.41115857,126.3653761,정보없음,정보없음,정보없음,정보없음,정보없음,액티비티형
KCLANPO23N000048104,코난해변,바다,제주특별자치도 제주시 구좌읍 행원리 575-6,정보없음,33.55752396,126.8111767,정보없음,정보없음,정보없음,정보없음,정보없음,자연/경치형
KCLANPO23N000048339,귤의정원바령,체험마을,제주특별자치도 제주시 조천읍 선흘리 1396,선흘남3길 87,33.50538572,126.7060517,정보없음,정보없음,정보없음,정보없음,정보없음,액티비티형
KCLANPO23N000048609,제주어른이집,체험마을,제주특별자치도 제주시 구좌읍 김녕리 2540,김녕로4길 30,33.55269457,126.7439418,정보없음,정보없음,정보없음,정보없음,정보없음,액티비티형
KCLANPO23N000048610,탐라신들의고향,유적지,제주특별자치도 제주시 조천읍 선흘리 1818,선교로 474,33.46337558,126.7099651,정보없음,정보없음,정보없음,정보없음,정보없음,역사/문화형
KCLANPO23N000048612,북촌환해장성,바다,제주특별자치도 제주시 조천읍 북촌리 ,정보없음,33.55018472,126.6904397,정보없음,정보없음,정보없음,정보없음,정보없음,자연/경치형
KCLANPO23N000049375,제주올리브스탠다드,체험마을,제주특별자치도 서귀포시 대정읍 안성리 693-2,평화로89번길 99,33.26573167,126.2884865,정보없음,정보없음,정보없음,정보없음,정보없음,액티비티형
KCLANPO23N000049566,런닝맨,테마파크,제주특별자치도 서귀포시 색달동  2629,중문관광로 42,33.25494658,126.408922,정보없음,정보없음,정보없음,정보없음,정보없음,액티비티형
KCLANPO23N000050284,제주보롬왓,공원,제주특별자치도 서귀포시 표선면 성읍리 485500,번영로 2350-104,33.41355741,126.7524733,정보없음,정보없음,정보없음,정보없음,정보없음,자연/경치형
KCLANPO23N000050301,제주민속촌,체험마을,제주특별자치도 서귀포시 표선면 표선리 14611,민속해안로 631-34,33.32420476,126.8410477,정보없음,정보없음,정보없음,정보없음,정보없음,액티비티형
KCLANPO23N000050941,닭머르해안길,바다,제주특별자치도 제주시 조천읍 신촌리 4005,신촌9길 14,33.53683912,126.6173751,정보없음,정보없음,정보없음,정보없음,정보없음,자연/경치형
KCLANPO23N000050943,따라비오름,산,제주특별자치도 서귀포시 표선면 가시리 산63,정보없음,33.38870738,126.7528953,정보없음,정보없음,정보없음,정보없음,정보없음,자연/경치형
KCLANPO23N000051133,북촌리등명대,바다,제주특별자치도 제주시 조천읍 북촌리 1363-1,북촌7길 37,33.55123094,126.6932721,정보없음,정보없음,정보없음,정보없음,정보없음,자연/경치형
KCLANPO23N000004272,귤향체험농원,체험마을,제주특별자치도 서귀포시 성산읍 수산리 279-7,정보없음,33.44432801,126.8928465,정보없음,정보없음,정보없음,정보없음,정보없음,액티비티형
KCLANPO23N000004282,대일관광농원,체험마을,제주특별자치도 제주시 애월읍 광령리 1477-1,무수천길 77,33.46423282,126.443564,정보없음,정보없음,정보없음,정보없음,정보없음,액티비티형
KCLANPO23N000004323,삼다감귤,체험마을,제주특별자치도 서귀포시 하효동  753,효돈순환로 296,33.25966246,126.614813,정보없음,정보없음,정보없음,정보없음,정보없음,액티비티형
KCLANPO23N000004325,삼정관광농원,체험마을,제주특별자치도 제주시 구좌읍 한동리 1247,일주동로 Mar.63,33.53759684,126.8313356,정보없음,정보없음,정보없음,정보없음,정보없음,액티비티형
KCLANPO23N000004362,어멍아방잔치마을,체험마을,제주특별자치도 서귀포시 성산읍 신풍리 500-1,신풍하동로 39,33.36188103,126.8406845,정보없음,정보없음,정보없음,정보없음,정보없음,액티비티형
KCLANPO23N000004593,산방산랜드,테마파크,제주특별자치도 서귀포시 안덕면 사계리 117-2,정보없음,33.23382318,126.3117118,정보없음,정보없음,정보없음,정보없음,정보없음,액티비티형
KCLANPO23N000004701,가마해안도로,드라이브,제주특별자치도 서귀포시 표선면 세화리 171-1,정보없음,33.30486274,126.8108962,정보없음,정보없음,정보없음,정보없음,정보없음,자연/경치형
KCLANPO23N000004703,고산해안도로,드라이브,제주특별자치도 제주시 한경면 고산리 640332,노을해안로 1032-20,33.30629136,126.1642073,정보없음,정보없음,정보없음,정보없음,정보없음,자연/경치형
KCLANPO23N000004738,하원동탐라왕자묘,유적지,제주특별자치도 서귀포시 하원동  13,정보없음,33.27775928,126.4712233,정보없음,정보없음,정보없음,정보없음,정보없음,역사/문화형
KCLANPO23N000004747,제주민속관광타운,체험마을,제주특별자치도 제주시 일도이동  837-20,신산로 82,33.50576654,126.5342559,정보없음,정보없음,정보없음,정보없음,정보없음,액티비티형
KCLANPO23N000004756,하늘여행행글라이더,스포츠시설 ,제주특별자치도 서귀포시 안덕면 서광리 775,중산간서로 1877,33.28871324,126.3220846,정보없음,정보없음,정보없음,정보없음,정보없음,액티비티형
KCLANPO23N000005418,마라도잠수함,스포츠시설 ,제주특별자치도 서귀포시 안덕면 사계리 2147-32,형제해안로 13,33.22807644,126.3053907,정보없음,정보없음,정보없음,정보없음,정보없음,액티비티형
KCLANPO23N000005419,더마파크,테마파크,제주특별자치도 제주시 한림읍 월림리 2364,월림7길 155,33.354272,126.2431023,정보없음,정보없음,정보없음,정보없음,정보없음,액티비티형
KCLANPO23N000005420,제주아트랜드,테마파크,제주특별자치도 제주시 구좌읍 송당리 315571,번영로 2172-80,33.42343839,126.7434082,정보없음,정보없음,정보없음,정보없음,정보없음,액티비티형
KCLANPO23N000005622,관음사,사찰,제주특별자치도 제주시 오등동  산180-3,산록북로 588,33.42219331,126.5495077,정보없음,정보없음,정보없음,정보없음,정보없음,역사/문화형
KCLANPO23N000005628,제주올레1,산책,제주특별자치도 서귀포시 성산읍 시흥리 1214-4,시흥상동로 113,33.47847921,126.8959676,정보없음,정보없음,정보없음,정보없음,정보없음,자연/경치형 
KCLANPO23N000005629,제주올레2,산책,제주특별자치도 서귀포시 성산읍 고성리 224-1,일출로 88-19,33.45185012,126.9239448,정보없음,정보없음,정보없음,정보없음,정보없음,자연/경치형 
KCLANPO23N000005630,제주올레3,산책,제주특별자치도 서귀포시 성산읍 온평리 1001-2,정보없음,33.40235453,126.9027068,정보없음,정보없음,정보없음,정보없음,정보없음,자연/경치형 
KCLANPO23N000005631,제주올레4,산책,제주특별자치도 서귀포시 표선면 표선리 14885,민속해안로 566-1,33.32522716,126.8448381,정보없음,정보없음,정보없음,정보없음,정보없음,자연/경치형 
KCLANPO23N000005632,제주올레5,산책,제주특별자치도 서귀포시 남원읍 남원리 128-6,정보없음,33.27753511,126.7182113,정보없음,정보없음,정보없음,정보없음,정보없음,자연/경치형 
KCLANPO23N000005633,제주올레6,산책,제주특별자치도 서귀포시 하효동  995,쇠소깍로 128,33.25225994,126.6230527,정보없음,정보없음,정보없음,정보없음,정보없음,자연/경치형 
KCLANPO23N000005634,제주올레7,산책,제주특별자치도 서귀포시 서홍동  784-3,남성로 56,33.24105508,126.5463899,정보없음,정보없음,정보없음,정보없음,정보없음,자연/경치형 
KCLANPO23N000005635,제주올레8,산책,제주특별자치도 서귀포시 월평동  671-1,말질로 471,33.23485333,126.4631506,정보없음,정보없음,정보없음,정보없음,정보없음,자연/경치형 
KCLANPO23N000005636,제주올레9,산책,제주특별자치도 서귀포시 안덕면 감산리 982-3,정보없음,33.237191,126.3614788,정보없음,정보없음,정보없음,정보없음,정보없음,자연/경치형 
KCLANPO23N000005637,제주올레10,산책,제주특별자치도 서귀포시 안덕면 화순리 823,화순중앙로 132,33.24049677,126.3348349,정보없음,정보없음,정보없음,정보없음,정보없음,자연/경치형 
KCLANPO23N000005638,제주올레11,산책,제주특별자치도 서귀포시 대정읍 하모리 694,최남단해안로 69,33.21429828,126.252713,정보없음,정보없음,정보없음,정보없음,정보없음,자연/경치형 
KCLANPO23N000005639,제주올레12,산책,제주특별자치도 서귀포시 대정읍 무릉리 595-1,정보없음,33.27352589,126.2361333,정보없음,정보없음,정보없음,정보없음,정보없음,자연/경치형 
KCLANPO23N000006211,제주라프,스포츠시설,제주특별자치도 제주시 조천읍 선흘리 600-6,선교로 115-1,33.48675906,126.7069304,정보없음,정보없음,정보없음,정보없음,정보없음,액티비티형
KCLANPO23N000006751,종달리전망대,바다,제주특별자치도 제주시 구좌읍 종달리 451-5,정보없음,33.50308776,126.9130483,정보없음,정보없음,정보없음,정보없음,정보없음,자연/경치형
KCLANPO23N000007737,태양을삼켜라세트장,촬영지,제주특별자치도 서귀포시 남원읍 위미리 산68-8,정보없음,33.32064622,126.6421255,정보없음,정보없음,정보없음,정보없음,정보없음,역사/문화형
KCLANPO23N000007741,제주올레13,산책,제주특별자치도 제주시 한경면 용수리 855247,정보없음,33.32326312,126.1672897,정보없음,정보없음,정보없음,정보없음,정보없음,자연/경치형
KCLANPO23N000007742,제주올레14,산책,제주특별자치도 제주시 한경면 저지리 1863-1,중산간서로 3675,33.33252218,126.2557382,정보없음,정보없음,정보없음,정보없음,정보없음,자연/경치형
KCLANPO23N000009816,두모연대,유적지,제주특별자치도 제주시 한경면 두모리 2605,정보없음,33.35751337,126.1818474,정보없음,정보없음,정보없음,정보없음,정보없음,역사/문화형
KCLANPO23N000009817,귀덕연대,유적지,제주특별자치도 제주시 한림읍 귀덕리 1118,귀덕14길 5월 14일,33.44203096,126.2934734,정보없음,정보없음,정보없음,정보없음,정보없음,역사/문화형
KCLANPO23N000009818,최영장군사당,유적지,제주특별자치도 제주시 추자면 대서리 368,정보없음,33.96514778,126.2954202,정보없음,정보없음,정보없음,정보없음,정보없음,역사/문화형
KCLANPO23N000009819,곽지패총,유적지,제주특별자치도 제주시 애월읍 곽지리 52232,정보없음,33.44599436,126.3070748,정보없음,정보없음,정보없음,정보없음,정보없음,역사/문화형
KCLANPO23N000009820,애월연대,유적지,제주특별자치도 제주시 애월읍 애월리 1975,정보없음,33.46565729,126.3130605,정보없음,정보없음,정보없음,정보없음,정보없음,역사/문화형
KCLANPO23N000009821,납읍난대림지대,유적지,제주특별자치도 제주시 애월읍 납읍리 1457-1,정보없음,33.43433437,126.3302605,정보없음,정보없음,정보없음,정보없음,정보없음,역사/문화형
KCLANPO23N000009822,남두연대,유적지,제주특별자치도 제주시 애월읍 신엄리 321415,정보없음,33.4792219,126.3584559,정보없음,정보없음,정보없음,정보없음,정보없음,역사/문화형
KCLANPO23N000009823,당포연대,유적지,제주특별자치도 서귀포시 하예동  1729,정보없음,33.23411624,126.3766079,정보없음,정보없음,정보없음,정보없음,정보없음,역사/문화형
KCLANPO23N000009824,대포연대,유적지,제주특별자치도 서귀포시 대포동  2519,정보없음,33.2365913,126.4318165,정보없음,정보없음,정보없음,정보없음,정보없음,역사/문화형
KCLANPO23N000009825,선사무덤,유적지,제주특별자치도 제주시 용담이동  741,정보없음,33.50302597,126.5026643,정보없음,정보없음,정보없음,정보없음,정보없음,역사/문화형
KCLANPO23N000009826,서귀포층의패류화석,유적지,제주특별자치도 서귀포시 서홍동  707,남성중로 43,33.23979221,126.5582441,정보없음,정보없음,정보없음,정보없음,정보없음,역사/문화형
KCLANPO23N000009827,신촌향사,유적지,제주특별자치도 제주시 조천읍 신촌리 93504,신촌5길 27,33.53644148,126.620534,정보없음,정보없음,정보없음,정보없음,정보없음,역사/문화형
KCLANPO23N000009828,함덕연대,유적지,제주특별자치도 제주시 조천읍 함덕리 92043,정보없음,33.5245697,126.6565029,정보없음,정보없음,정보없음,정보없음,정보없음,역사/문화형
KCLANPO23N000009829,위미동백나무군락,유적지,제주특별자치도 서귀포시 남원읍 위미리 904-3,위미중앙로300번길 15,33.27297879,126.6748717,정보없음,정보없음,정보없음,정보없음,정보없음,역사/문화형
KCLANPO23N000009830,북촌리선사주거지유적,유적지,제주특별자치도 제주시 조천읍 북촌리 275,정보없음,33.54748425,126.7001781,정보없음,정보없음,정보없음,정보없음,정보없음,역사/문화형
KCLANPO23N000009831,동백나무군락,유적지,제주특별자치도 서귀포시 남원읍 신흥리 1159,정보없음,33.33044297,126.7523407,정보없음,정보없음,정보없음,정보없음,정보없음,역사/문화형
KCLANPO23N000009832,당처물동굴,동굴,제주특별자치도 제주시 구좌읍 월정리 1457,정보없음,33.55708868,126.7847735,정보없음,정보없음,정보없음,정보없음,정보없음,자연/경치형
KCLANPO23N000009833,조일훈가옥,고택,제주특별자치도 서귀포시 표선면 성읍리 872,성읍정의현로34번길 32,33.38683361,126.8017709,정보없음,정보없음,정보없음,정보없음,정보없음,역사/문화형
KCLANPO23N000009834,고상은가옥,고택,제주특별자치도 서귀포시 표선면 성읍리 862,성읍정의현로34번길 5월 6일,33.3862785,126.8018586,정보없음,정보없음,정보없음,정보없음,정보없음,역사/문화형
KCLANPO23N000009835,한봉일가옥,고택,제주특별자치도 서귀포시 표선면 성읍리 928,성읍정의현로34번길 10월 22일,33.38715023,126.8033025,정보없음,정보없음,정보없음,정보없음,정보없음,역사/문화형
KCLANPO23N000009836,좌가연대,유적지,제주특별자치도 제주시 구좌읍 한동리 1683-1,정보없음,33.54986313,126.8255775,정보없음,정보없음,정보없음,정보없음,정보없음,역사/문화형
KCLANPO23N000009837,천미연대,유적지,제주특별자치도 서귀포시 성산읍 신천리 280,정보없음,33.34399172,126.8513958,정보없음,정보없음,정보없음,정보없음,정보없음,역사/문화형
KCLANPO23N000009838,말등포연대,유적지,제주특별자치도 서귀포시 성산읍 온평리 1355-1,정보없음,33.39567497,126.8961454,정보없음,정보없음,정보없음,정보없음,정보없음,역사/문화형
KCLANPO23N000009839,오소포연대,유적지,제주특별자치도 서귀포시 성산읍 오조리 392,정보없음,33.47163157,126.9164639,정보없음,정보없음,정보없음,정보없음,정보없음,역사/문화형
KCLANPO23N000009906,초콜릿뮤지움,테마파크,제주특별자치도 서귀포시 대정읍 가파리 685,마라로 113,33.11415403,126.2673331,정보없음,정보없음,정보없음,정보없음,정보없음,액티비티형
KCLANPO23N000009913,마라도등대,바다,제주특별자치도 서귀포시 대정읍 가파리 639,마라로 165,33.11665453,126.2694847,정보없음,정보없음,정보없음,정보없음,정보없음,자연/경치형
KCLANPO23N000010016,이상한나라의앨리스,테마파크,제주특별자치도 서귀포시 안덕면 서광리 717-3,중산간서로 1881,33.28893247,126.321797,정보없음,정보없음,정보없음,정보없음,정보없음,액티비티형
KCLANPO23N000010018,제주카트체험장,스포츠시설,제주특별자치도 제주시 한림읍 월림리 341-2,중산간서로 3853,33.34780209,126.2559044,정보없음,정보없음,정보없음,정보없음,정보없음,액티비티형
KCLANPO23N000010020,제주올레15,산책,제주특별자치도 제주시 애월읍 고내리 1156-4,정보없음,33.46726493,126.3375376,정보없음,정보없음,정보없음,정보없음,정보없음,자연/경치형
KCLANPO23N000010022,제주올레16,산책,제주특별자치도 제주시 한림읍 한림리 1377-45,한림해안로 81,33.41250359,126.2559551,정보없음,정보없음,정보없음,정보없음,정보없음,자연/경치형
KCLANPO23N000010063,하효쇠소깍해수욕장,바다,제주특별자치도 서귀포시 하효동  ,정보없음,33.25122227,126.6227513,정보없음,정보없음,정보없음,정보없음,정보없음,자연/경치형
KCLANPO23N000010173,아흔아홉골,강,제주특별자치도 제주시 노형동  산17-5,정보없음,33.41607706,126.4889775,정보없음,정보없음,정보없음,정보없음,정보없음,자연/경치형
KCLANPO23N000010205,인생은아름다워촬영지,촬영지,제주특별자치도 서귀포시 대정읍 상모리 170-3,정보없음,33.20577961,126.2889489,정보없음,정보없음,정보없음,정보없음,정보없음,역사/문화형
KCLANPO23N000010206,쇠소깍관광지,산,제주특별자치도 서귀포시 하효동  990-4,정보없음,33.25206717,126.623293,정보없음,정보없음,정보없음,정보없음,정보없음,자연/경치형
KCLANPO23N000010209,카멜리아힐,공원,제주특별자치도 서귀포시 안덕면 상창리 271,병악로 166,33.29036819,126.3696757,정보없음,정보없음,정보없음,정보없음,정보없음,자연/경치형
KCLANPO23N000010333,제주승마공원,스포츠시설 ,제주특별자치도 제주시 애월읍 유수암리 1175,녹고메길 152-1,33.40560634,126.4064859,정보없음,정보없음,정보없음,정보없음,정보없음,액티비티형
KCLANPO23N000010405,설문대할망테마공원,테마파크,제주특별자치도 서귀포시 성산읍 신풍리 1292,남산봉로 83-40,33.36736102,126.8282409,정보없음,정보없음,정보없음,정보없음,정보없음,액티비티형
KCLANPO23N000010407,가뫼물제주농촌생태공원,공원,제주특별자치도 서귀포시 남원읍 남원리 87812,남위남성로 168,33.29019558,126.6931993,정보없음,정보없음,정보없음,정보없음,정보없음,자연/경치형
KCLANPO23N000010419,용천동굴,동굴,제주특별자치도 제주시 구좌읍 월정리 1837-1,정보없음,33.54814322,126.7780861,정보없음,정보없음,정보없음,정보없음,정보없음,역사/문화형
KCLANPO23N000010454,하도철새탐조대,바다,제주특별자치도 제주시 구좌읍 하도리 53-66,정보없음,33.51207934,126.8965269,정보없음,정보없음,정보없음,정보없음,정보없음,자연/경치형
KCLANPO23N000010456,덕천관광한농원,공원,제주특별자치도 제주시 구좌읍 덕천리 200,덕평로 394,33.50120117,126.7742839,정보없음,정보없음,정보없음,정보없음,정보없음,자연/경치형
KCLANPO23N000010457,서가름,고택,제주특별자치도 서귀포시 표선면 성읍리 1468-10,중산간동로 4678,33.38921017,126.7959764,정보없음,정보없음,정보없음,정보없음,정보없음,역사/문화형
KCLANPO23N000010485,점보빌리지,테마파크,제주특별자치도 서귀포시 안덕면 서광리 2351,평화로319번길 Nov.31,33.27622489,126.3051417,정보없음,정보없음,정보없음,정보없음,정보없음,액티비티형
KCLANPO23N000010514,녹차테마파크,테마파크,제주특별자치도 제주시 조천읍 선흘리 1696,정보없음,33.48490578,126.7070734,정보없음,정보없음,정보없음,정보없음,정보없음,액티비티형
KCLANPO23N000010515,에코랜드테마파크,테마파크,제주특별자치도 제주시 조천읍 교래리 385-1,번영로 1278-169,33.44759341,126.6695281,정보없음,정보없음,정보없음,정보없음,정보없음,액티비티형
KCLANPO23N000010667,캐릭파크,테마파크,제주특별자치도 제주시 조천읍 선흘리 2019,선교로 264,33.47958591,126.7005316,정보없음,정보없음,정보없음,정보없음,정보없음,액티비티형
KCLANPO23N000010757,동쪽송당,공원,제주특별자치도 제주시 구좌읍 송당리 268514,비자림로 1189,33.43604579,126.7311953,정보없음,정보없음,정보없음,정보없음,정보없음,자연/경치형
KCLANPO23N000010816,메이즈랜드,테마파크,제주특별자치도 제주시 구좌읍 평대리 3322,비자림로 2134-47,33.48796618,126.8012364,정보없음,정보없음,정보없음,정보없음,정보없음,액티비티형
KCLANPO23N000010837,516도로숲터널,드라이브,제주특별자치도 서귀포시 남원읍 신례리 산2-17,정보없음,33.36794889,126.6244952,정보없음,정보없음,정보없음,정보없음,정보없음,자연/경치형
KCLANPO23N000011161,펀테마파크,테마파크,제주특별자치도 제주시 조천읍 선흘리 43586,선교로 266-4,33.47895963,126.7006885,정보없음,정보없음,정보없음,정보없음,정보없음,액티비티형
KCLANPO23N000011964,상효원,공원,제주특별자치도 서귀포시 상효동  산25,산록남로 2847-37,33.30720382,126.5860374,정보없음,정보없음,정보없음,정보없음,정보없음,자연/경치형
KCLANPO23N000012046,농원목장,체험마을,제주특별자치도 제주시 월평동  155,첨단동길 160-20,33.45478212,126.5860819,정보없음,정보없음,정보없음,정보없음,정보없음,액티비티형
KCLANPO23N000012430,레포츠랜드,테마파크,제주특별자치도 제주시 조천읍 와흘리 870,와흘상서2길 47,33.48203189,126.6387484,정보없음,정보없음,정보없음,정보없음,정보없음,액티비티형
KCLANPO23N000013466,제주올레17,산책,제주특별자치도 제주시 애월읍 광령리 1271-1,광성로 302,33.46083971,126.4393658,정보없음,정보없음,정보없음,정보없음,정보없음,자연/경치형
KCLANPO23N000013467,제주올레18,산책,제주특별자치도 제주시 일도일동  1498,정보없음,33.51315376,126.527134,정보없음,정보없음,정보없음,정보없음,정보없음,자연/경치형
KCLANPO23N000013499,무수천,강,제주특별자치도 제주시 애월읍 광령리 4228,정보없음,33.46118483,126.4476896,정보없음,정보없음,정보없음,정보없음,정보없음,자연/경치형
KCLANPO23N000013533,최남단농촌체험테마공원,체험마을,제주특별자치도 서귀포시 남원읍 남원리 2019,남위남성로 164,33.28994088,126.6936314,정보없음,정보없음,정보없음,정보없음,정보없음,액티비티형
KCLANPO23N000013763,토이파크,테마파크,제주특별자치도 서귀포시 안덕면 동광리 383,동광로 267-7,33.31897704,126.3453865,정보없음,정보없음,정보없음,정보없음,정보없음,액티비티형
KCLANPO23N000013785,백록담흰사슴테마파크,테마파크,제주특별자치도 서귀포시 안덕면 서광리 164,화순서동로 347,33.28178929,126.3316884,정보없음,정보없음,정보없음,정보없음,정보없음,액티비티형
KCLANPO23N000013786,수목원테마파크,공원,제주특별자치도 제주시 연동  1326,은수길 65,33.4707498,126.4874201,정보없음,정보없음,정보없음,정보없음,정보없음,자연/경치형
KCLANPO23N000013787,아쿠아플라넷,테마파크,제주특별자치도 서귀포시 성산읍 고성리 127-3,섭지코지로 95,33.43290634,126.9276251,정보없음,정보없음,정보없음,정보없음,정보없음,액티비티형
KCLANPO23N000013788,노리매공원,공원,제주특별자치도 서귀포시 대정읍 구억리 654-1,중산간서로 2260-15,33.28288252,126.2869693,정보없음,정보없음,정보없음,정보없음,정보없음,자연/경치형
KCLANPO23N000013791,한라산탐방로1,산,제주특별자치도 제주시 오등동  산180-4,산록북로 585,33.42251756,126.5492616,정보없음,정보없음,정보없음,정보없음,정보없음,자연/경치형
KCLANPO23N000013792,한라산탐방로2,산,제주특별자치도 서귀포시 하원동  산1-1,영실로 497,33.3483562,126.4965848,정보없음,정보없음,정보없음,정보없음,정보없음,자연/경치형
KCLANPO23N000013793,한라산탐방로3,산,제주특별자치도 서귀포시 상효동  2071,정보없음,33.31057812,126.5709255,정보없음,정보없음,정보없음,정보없음,정보없음,자연/경치형
KCLANPO23N000013808,환상숲곶자왈공원,공원,제주특별자치도 제주시 한경면 저지리 346557,정보없음,33.3228818,126.2631248,정보없음,정보없음,정보없음,정보없음,정보없음,자연/경치형
KCLANPO23N000013966,월정리해수욕장,바다,제주특별자치도 제주시 구좌읍 월정리 ,정보없음,33.55580871,126.79654,정보없음,정보없음,정보없음,정보없음,정보없음,자연/경치형
KCLANPO23N000013994,건축학개론촬영지,촬영지,제주특별자치도 서귀포시 남원읍 위미리 2975,위미해안로 86,33.26941811,126.6555925,정보없음,정보없음,정보없음,정보없음,정보없음,역사/문화형
KCLANPO23N000014027,원앙폭포,강,제주특별자치도 서귀포시 상효동  산156,정보없음,33.30010266,126.5811049,정보없음,정보없음,정보없음,정보없음,정보없음,자연/경치형
KCLANPO23N000014168,와흘본향당,유적지,제주특별자치도 제주시 조천읍 와흘리 1274-1,정보없음,33.50231479,126.6389986,정보없음,정보없음,정보없음,정보없음,정보없음,역사/문화형
KCLANPO23N000014182,두멩이골목,산책,제주특별자치도 제주시 일도이동  995-6,동문로14길 1월 16일,33.51216954,126.5332795,정보없음,정보없음,정보없음,정보없음,정보없음,자연/경치형
KCLANPO23N000014183,서귀다원,공원,제주특별자치도 서귀포시 상효동  1155-17,516로 717,33.31213232,126.5969285,정보없음,정보없음,정보없음,정보없음,정보없음,자연/경치형
KCLANPO23N000014636,홍익수목원,공원,제주특별자치도 서귀포시 남원읍 신례리 1750,신례동로 166,33.30106732,126.6327257,정보없음,정보없음,정보없음,정보없음,정보없음,자연/경치형
KCLANPO23N000014709,방선문계곡,강,제주특별자치도 제주시 오라이동  701206,정보없음,33.45231863,126.5178155,정보없음,정보없음,정보없음,정보없음,정보없음,자연/경치형
KCLANPO23N000014758,중문관광단지,유적지,제주특별자치도 서귀포시 색달동  240332,중문관광로 38,33.2548394,126.4137805,정보없음,정보없음,정보없음,정보없음,정보없음,역사/문화형
KCLANPO23N000014821,서귀포감귤박물관아열대식물원,공원,제주특별자치도 서귀포시 신효동  1201-3,정보없음,33.27252581,126.6084541,정보없음,정보없음,정보없음,정보없음,정보없음,자연/경치형
KCLANPO23N000014849,붉은오름자연휴양림,산,제주특별자치도 서귀포시 표선면 가시리 산158,남조로 1487-73,33.40175444,126.6753684,정보없음,정보없음,정보없음,정보없음,정보없음,자연/경치형
KCLANPO23N000015002,송당본향당,유적지,제주특별자치도 제주시 구좌읍 송당리 산199-1,정보없음,33.46842699,126.7757082,정보없음,정보없음,정보없음,정보없음,정보없음,역사/문화형
KCLANPO23N000015074,섭지코지자연공원,공원,제주특별자치도 서귀포시 성산읍 고성리 140,정보없음,33.42879776,126.9295858,정보없음,정보없음,정보없음,정보없음,정보없음,자연/경치형
KCLANPO23N000015162,인어공주촬영지,촬영지,제주특별자치도 제주시 우도면 연평리 307,정보없음,33.49898631,126.9698857,정보없음,정보없음,정보없음,정보없음,정보없음,역사/문화형
KCLANPO23N000015197,올레바당체험마을,체험마을,제주특별자치도 제주시 한림읍 수원리 724-5,정보없음,33.42508259,126.264321,정보없음,정보없음,정보없음,정보없음,정보없음,액티비티형
KCLANPO23N000015258,제주코코몽에코파크,테마파크,제주특별자치도 서귀포시 남원읍 남원리 2380,태위로 536,33.27456701,126.7062825,정보없음,정보없음,정보없음,정보없음,정보없음,액티비티형
KCLANPO23N000015259,중문랜드,체험마을,제주특별자치도 서귀포시 상예동  2802,소보리당로164번길 62,33.2637098,126.3857578,정보없음,정보없음,정보없음,정보없음,정보없음,액티비티형
KCLANPO23N000015331,박수기정,바다,제주특별자치도 서귀포시 안덕면 감산리 982-2,정보없음,33.23719491,126.3613547,정보없음,정보없음,정보없음,정보없음,정보없음,자연/경치형
KCLANPO23N000015366,글라스힐링파크,테마파크,제주특별자치도 제주시 노형동  242-1,1100로 3049,33.45840302,126.485025,정보없음,정보없음,정보없음,정보없음,정보없음,액티비티형
KCLANPO23N000015368,레일바이크,스포츠시설,제주특별자치도 제주시 구좌읍 종달리 4639,용눈이오름로 641,33.46433128,126.836623,정보없음,정보없음,정보없음,정보없음,정보없음,액티비티형
KCLANPO23N000015369,제주올레19,산책,제주특별자치도 제주시 조천읍 조천리 1156,신북로 303,33.53981728,126.6419385,정보없음,정보없음,정보없음,정보없음,정보없음,자연/경치형
KCLANPO23N000015370,제주올레20,산책,제주특별자치도 제주시 구좌읍 김녕리 4074,정보없음,33.55742098,126.744984,정보없음,정보없음,정보없음,정보없음,정보없음,자연/경치형
KCLANPO23N000015371,제주올레21,산책,제주특별자치도 제주시 구좌읍 세화리 45659,해녀박물관길 19,33.52267703,126.862576,정보없음,정보없음,정보없음,정보없음,정보없음,자연/경치형
KCLANPO23N000015425,상추자전망대,바다,제주특별자치도 제주시 추자면 대서리 산175,정보없음,33.96394239,126.2901692,정보없음,정보없음,정보없음,정보없음,정보없음,자연/경치형
KCLANPO23N000015461,도두잠수함,스포츠시설,제주특별자치도 제주시 도두일동  257498,도두항길 26,33.50682008,126.4669776,정보없음,정보없음,정보없음,정보없음,정보없음,액티비티형
KCLANPO23N000015526,김경숙해바라기,체험마을,제주특별자치도 제주시 회천동  391,번영로 854-1,33.47741813,126.6275884,정보없음,정보없음,정보없음,정보없음,정보없음,액티비티형
KCLANPO23N000015660,별내린전망대,바다,제주특별자치도 서귀포시 색달동  379124,정보없음,33.24765639,126.4167389,정보없음,정보없음,정보없음,정보없음,정보없음,자연/경치형
KCLANPO23N000015670,제주김성룡승마트래킹,스포츠시설,제주특별자치도 제주시 애월읍 유수암리 888,정보없음,33.43085327,126.4072408,정보없음,정보없음,정보없음,정보없음,정보없음,자연/경치형
KCLANPO23N000015735,한마음체험농원,체험마을,제주특별자치도 서귀포시 성산읍 수산리 278,서성일로 1063,33.44415254,126.8922688,정보없음,정보없음,정보없음,정보없음,정보없음,액티비티형
KCLANPO23N000015736,한담해변,바다,제주특별자치도 제주시 애월읍 애월리 ,정보없음,33.46221429,126.3101513,정보없음,정보없음,정보없음,정보없음,정보없음,자연/경치형
KCLANPO23N000015820,천상연폭포,강,제주특별자치도 서귀포시 색달동  540927,색달로189번길 27,33.25437868,126.4184459,정보없음,정보없음,정보없음,정보없음,정보없음,자연/경치형
KCLANPO23N000015833,베니스랜드,테마파크,제주특별자치도 서귀포시 성산읍 난산리 2570,서성일로 474,33.4153736,126.8407154,정보없음,정보없음,정보없음,정보없음,정보없음,액티비티형
KCLANPO23N000015993,광령리지석묘,유적지,제주특별자치도 제주시 애월읍 광령리 1665,정보없음,33.4757191,126.4376458,정보없음,정보없음,정보없음,정보없음,정보없음,역사/문화형
KCLANPO23N000016050,종달고망난돌쉼터,산책,제주특별자치도 제주시 구좌읍 종달리 112-4,정보없음,33.51020292,126.9069079,정보없음,정보없음,정보없음,정보없음,정보없음,자연/경치형
KCLANPO23N000016052,뽀빠이돌공원,테마파크,제주특별자치도 서귀포시 회수동  576,정보없음,33.25192893,126.4456041,정보없음,정보없음,정보없음,정보없음,정보없음,액티비티형
KCLANPO23N000016110,짚라인제주,스포츠시설,제주특별자치도 제주시 조천읍 선흘리 600,선교로 117,33.48690456,126.706032,정보없음,정보없음,정보없음,정보없음,정보없음,액티비티형
KCLANPO23N000016144,추사유배길인연의길,산책,제주특별자치도 서귀포시 안덕면 서광리 산50-8,정보없음,33.3049319,126.2881999,정보없음,정보없음,정보없음,정보없음,정보없음,자연/경치형
KCLANPO23N000016317,정의현객사,고택,제주특별자치도 서귀포시 표선면 성읍리 875,성읍정의현로34번길 5월 14일,33.38716342,126.8014132,정보없음,정보없음,정보없음,정보없음,정보없음,역사/문화형
KCLANPO23N000016533,황우치해변,바다,제주특별자치도 서귀포시 안덕면 사계리 ,정보없음,33.2373502,126.3174704,정보없음,정보없음,정보없음,정보없음,정보없음,자연/경치형
KCLANPO23N000016616,제주성서식물원비블리아,공원,제주특별자치도 제주시 한림읍 상명리 279-3,정보없음,33.35603984,126.2753304,정보없음,정보없음,정보없음,정보없음,정보없음,자연/경치형
KCLANPO23N000016681,모진이해수욕장,바다,제주특별자치도 제주시 추자면 신양리 ,정보없음,33.94580251,126.3342938,정보없음,정보없음,정보없음,정보없음,정보없음,자연/경치형
KCLANPO23N000016879,정모시쉼터,강,제주특별자치도 서귀포시 서귀동  962,소암로 28,33.2466957,126.5717936,정보없음,정보없음,정보없음,정보없음,정보없음,자연/경치형
KCLANPO23N000016910,평대해수욕장,바다,제주특별자치도 제주시 구좌읍 평대리 ,정보없음,33.53375666,126.8409403,정보없음,정보없음,정보없음,정보없음,정보없음,자연/경치형
KCLANPO23N000016984,한라산전망대,산,제주특별자치도 서귀포시 색달동  2937,정보없음,33.24843662,126.4159903,정보없음,정보없음,정보없음,정보없음,정보없음,자연/경치형
KCLANPO23N000017132,하늘아래수목원,공원,제주특별자치도 서귀포시 서홍동  2590,호근북로 368,33.28570143,126.5333405,정보없음,정보없음,정보없음,정보없음,정보없음,자연/경치형
KCLANPO23N000017158,제주오션파크,테마파크,제주특별자치도 서귀포시 성산읍 시흥리 ,정보없음,33.4794415,126.9135853,정보없음,정보없음,정보없음,정보없음,정보없음,액티비티형
KCLANPO23N000017202,수산본향당,유적지,제주특별자치도 서귀포시 성산읍 수산리 451,산성효자로 228-27,33.45144212,126.8930968,정보없음,정보없음,정보없음,정보없음,정보없음,역사/문화형
KCLANPO23N000017689,한동환해장성,유적지,제주특별자치도 제주시 구좌읍 한동리 1696-9,정보없음,33.55035553,126.8288695,정보없음,정보없음,정보없음,정보없음,정보없음,역사/문화형
KCLANPO23N000017756,유채꽃프라자,체험마을,제주특별자치도 서귀포시 표선면 가시리 3665-85,녹산로 464-65,33.39375139,126.7317322,정보없음,정보없음,정보없음,정보없음,정보없음,액티비티형
KCLANPO23N000017784,신대산전망터,산,제주특별자치도 제주시 추자면 예초리 산7,정보없음,33.9547219,126.3408861,정보없음,정보없음,정보없음,정보없음,정보없음,자연/경치형
KCLANPO23N000017850,동백동산,산,제주특별자치도 제주시 조천읍 선흘리 산20,정보없음,33.51100432,126.7148727,정보없음,정보없음,정보없음,정보없음,정보없음,자연/경치형
KCLANPO23N000017875,한라봉체험농장,체험마을,제주특별자치도 서귀포시 호근동  1499-1,일주동로 8987,33.24789512,126.5325737,정보없음,정보없음,정보없음,정보없음,정보없음,액티비티형
KCLANPO23N000017909,한국성경식물원,공원,제주특별자치도 서귀포시 성산읍 난산리 2219,정보없음,33.42140701,126.8558683,정보없음,정보없음,정보없음,정보없음,정보없음,자연/경치형
KCLANPO23N000017911,에코피아테마파크,테마파크,제주특별자치도 제주시 애월읍 소길리 155-101,평화로 2157,33.4124581,126.3920847,정보없음,정보없음,정보없음,정보없음,정보없음,액티비티형
KCLANPO23N000017947,해품은체험농장,체험마을,제주특별자치도 서귀포시 성산읍 수산리 279-3,서성일로 1073,33.44435334,126.8933413,정보없음,정보없음,정보없음,정보없음,정보없음,액티비티형
KCLANPO23N000018001,제주도세계지질공원,바다,제주특별자치도 제주시 조천읍 선흘리 478,선교로 569-36,33.45701104,126.7148456,정보없음,정보없음,정보없음,정보없음,정보없음,자연/경치형
KCLANPO23N000018015,가시리국산화풍력발전단지,산,제주특별자치도 서귀포시 표선면 가시리 3840,정보없음,33.39016246,126.7338939,정보없음,정보없음,정보없음,정보없음,정보없음,자연/경치형
KCLANPO23N000018214,제주한림용암동굴지대,동굴,제주특별자치도 제주시 한림읍 협재리 617,정보없음,33.3692414,126.2587462,정보없음,정보없음,정보없음,정보없음,정보없음,자연/경치형
KCLANPO23N000018217,중엄리새물,바다,제주특별자치도 제주시 애월읍 신엄리 929-2,애월해안로 620,33.47844297,126.3692717,정보없음,정보없음,정보없음,정보없음,정보없음,자연/경치형
KCLANPO23N000018253,영프라자,테마파크,제주특별자치도 제주시 건입동  1442,임항로 17,33.51692277,126.5271469,정보없음,정보없음,정보없음,정보없음,정보없음,액티비티형
KCLANPO23N000018371,거상김만덕객주터,유적지,제주특별자치도 제주시 건입동  984-41,임항로 68,33.51641432,126.5319882,정보없음,정보없음,정보없음,정보없음,정보없음,역사/문화형
KCLANPO23N000018605,한라산트래킹,산책,제주특별자치도 제주시 조천읍 교래리 산137-2,정보없음,33.37970858,126.5762391,정보없음,정보없음,정보없음,정보없음,정보없음,자연/경치형
KCLANPO23N000018614,비자림로,드라이브,제주특별자치도 제주시 구좌읍 송당리 161074,정보없음,33.44340177,126.7541031,정보없음,정보없음,정보없음,정보없음,정보없음,자연/경치형
KCLANPO23N000018622,돔베낭길,산책,제주특별자치도 서귀포시 호근동  332-5,정보없음,33.2403409,126.5448249,정보없음,정보없음,정보없음,정보없음,정보없음,자연/경치형
KCLANPO23N000018623,월대,강,제주특별자치도 제주시 외도이동  230-1,정보없음,33.49284413,126.4361845,정보없음,정보없음,정보없음,정보없음,정보없음,자연/경치형
KCLANPO23N000018626,제주올레22,산책,제주특별자치도 제주시 우도면 연평리 1737-14,우도해안길 73,33.49298203,126.9511591,정보없음,정보없음,정보없음,정보없음,정보없음,자연/경치형
KCLANPO23N000018627,제주올레23,산책,제주특별자치도 제주시 추자면 대서리 147-2,정보없음,33.96259689,126.2944902,정보없음,정보없음,정보없음,정보없음,정보없음,자연/경치형
KCLANPO23N000018662,충혼탑,유적지,제주특별자치도 제주시 노형동  3834,정보없음,33.41222793,126.4963644,정보없음,정보없음,정보없음,정보없음,정보없음,역사/문화형
KCLANPO23N000018679,동홍동솔오름전망대,산,제주특별자치도 서귀포시 동홍동  91313,정보없음,33.29161672,126.5558875,정보없음,정보없음,정보없음,정보없음,정보없음,자연/경치형
KCLANPO23N000018704,광치기해변,바다,제주특별자치도 서귀포시 성산읍 고성리 ,정보없음,33.45188359,126.9243921,정보없음,정보없음,정보없음,정보없음,정보없음,자연/경치형
KCLANPO23N000018706,성산환해장성,유적지,제주특별자치도 서귀포시 성산읍 신산리 ,정보없음,33.38875108,126.8946309,정보없음,정보없음,정보없음,정보없음,정보없음,역사/문화형
KCLANPO23N000018707,한라산국립공원성판악탐방로,산,제주특별자치도 제주시 조천읍 교래리 산137-24,516로 1865,33.38481237,126.6191127,정보없음,정보없음,정보없음,정보없음,정보없음,자연/경치형